{"name":"Beachvolleyball","type":"FeatureCollection"
,"features":[
{"type":"Feature","geometry":{"type":"Point","coordinates":[8.58192280341858,47.4011590250355]},"properties":{"adresse":"Dübendorfstrasse 158","name":"Schulhaus Stettbach","ort":"Zürich","plz":"8051","tel":"+41 79 418 44 71","www":null}}
,{"type":"Feature","geometry":{"type":"Point","coordinates":[8.53481600870137,47.3860075599422]},"properties":{"adresse":"Lettenareal","name":"Oberer Letten","ort":"Zürich","plz":"8006","tel":"+41 44 362 92 00","www":"http://www.stadt-zuerich.ch/content/ssd/de/index/sport/schwimmen/sommerbaeder/flussbad_oberer_letten/adresse.html#contenttabs"}}
,{"type":"Feature","geometry":{"type":"Point","coordinates":[8.53523861266153,47.3395449380873]},"properties":{"adresse":"Kilchbergstrasse 50","name":"Schulhaus Im Lee","ort":"Zürich","plz":"8038","tel":"+41 79 699 25 18","www":null}}
,{"type":"Feature","geometry":{"type":"Point","coordinates":[8.54266334111388,47.4207811419329]},"properties":{"adresse":"Buhnrain 40","name":"Schulhaus Buhnrain","ort":"Zürich","plz":"8052","tel":null,"www":null}}
,{"type":"Feature","geometry":{"type":"Point","coordinates":[8.49292808777385,47.3861919143776]},"properties":{"adresse":"Badenerstrasse 618","name":"Schulhaus Kappeli","ort":"Zürich","plz":"8048","tel":null,"www":null}}
,{"type":"Feature","geometry":{"type":"Point","coordinates":[8.49803611096568,47.3713123308618]},"properties":{"adresse":"Espenhofweg 60","name":"Schulhaus Letzi","ort":"Zürich","plz":"8047","tel":"+41 44 413 03 13","www":null}}
,{"type":"Feature","geometry":{"type":"Point","coordinates":[8.52603485121872,47.3690732090002]},"properties":{"adresse":"Manessestrasse 1","name":"Sportanlage Sihlhölzli","ort":"Zürich","plz":"8003","tel":null,"www":null}}
,{"type":"Feature","geometry":{"type":"Point","coordinates":[8.48876749104737,47.4049214204259]},"properties":{"adresse":"Imbisbühlstrasse 80","name":"Schulhaus Lachenzelg","ort":"Zürich","plz":"8049","tel":"+41 76 665 50 22","www":null}}
,{"type":"Feature","geometry":{"type":"Point","coordinates":[8.47742370021207,47.3810162917985]},"properties":{"adresse":"Friedhofstrasse 89","name":"Sportanlage Buchlern","ort":"Zürich","plz":"8048","tel":"+41 44 433 03 41","www":null}}
,{"type":"Feature","geometry":{"type":"Point","coordinates":[8.47377930187527,47.4095271125519]},"properties":{"adresse":"Zwischen den Hölzern","name":"Freibad Zwischen den Hölzern","ort":"Oberengstringen","plz":"8102","tel":"+41 44 750 01 77","www":"http://www.stadt-zuerich.ch/content/ssd/de/index/sport/schwimmen/sommerbaeder/freibad_zwischen_den_hoelzern/adresse.html"}}
,{"type":"Feature","geometry":{"type":"Point","coordinates":[8.47179593771557,47.3967630239559]},"properties":{"adresse":"Vulkanstrasse 200","name":"Sportanlage Juchof 1","ort":"Zürich","plz":"8048","tel":"+41 44 434 70 12","www":null}}
,{"type":"Feature","geometry":{"type":"Point","coordinates":[8.52308548798051,47.386155659806]},"properties":{"adresse":"Josefstrasse 197","name":"Josefwiese","ort":"Zürich","plz":"8005","tel":null,"www":null}}
,{"type":"Feature","geometry":{"type":"Point","coordinates":[8.5482484856367,47.4235880884677]},"properties":{"adresse":"Glatttalstrasse 43","name":"Freibad Seebach","ort":"Zürich","plz":"8052","tel":"+41 44 302 78 33","www":"https://www.stadt-zuerich.ch/content/ssd/de/index/sport/schwimmen/sommerbaeder/freibad_seebach/adresse.html?noCache=true"}}
]}
