{"name":"Pflegezentrum","type":"FeatureCollection"
,"features":[
{"type":"Feature","geometry":{"type":"Point","coordinates":[8.54420114879482,47.4176091934253]},"properties":{"adresse":"Neunbrunnenstrasse 8","name":"Pflegewohngruppe Felsenrain","ort":"Zürich","plz":"8050","www":"http://www.stadt-zuerich.ch/pflegewohngruppen"}}
,{"type":"Feature","geometry":{"type":"Point","coordinates":[8.53374772396662,47.4055024371008]},"properties":{"adresse":"Künzlistrasse 15a (erst.)","name":"Pflegewohngruppe Brunnenpark I","ort":"Zürich","plz":"8057","www":"http://www.stadt-zuerich.ch/pflegewohngruppen"}}
,{"type":"Feature","geometry":{"type":"Point","coordinates":[8.53374772396662,47.4055024371008]},"properties":{"adresse":"Künzlistrasse 15a (erst.)","name":"Pflegewohngruppe Brunnenpark II","ort":"Zürich","plz":"8057","www":"http://www.stadt-zuerich.ch/pflegewohngruppen"}}
,{"type":"Feature","geometry":{"type":"Point","coordinates":[8.50072235310169,47.3679055071753]},"properties":{"adresse":"Birmensdorferstrasse 437 (erst.)","name":"Pflegewohngruppe Triemlipark II","ort":"Zürich","plz":"8055","www":"http://www.stadt-zuerich.ch/pflegewohngruppen"}}
,{"type":"Feature","geometry":{"type":"Point","coordinates":[8.48361303775715,47.4042215539994]},"properties":{"adresse":"Limmattalstrasse 371","name":"Pflegezentrum Bombach","ort":"Zürich","plz":"8049","www":"http://www.stadt-zuerich.ch/bombach"}}
,{"type":"Feature","geometry":{"type":"Point","coordinates":[8.52680077780798,47.334596458387]},"properties":{"adresse":"Paradiesstrasse 45","name":"Pflegezentrum Entlisberg","ort":"Zürich","plz":"8038","www":"http://www.stadt-zuerich.ch/entlisberg"}}
,{"type":"Feature","geometry":{"type":"Point","coordinates":[8.48716965566843,47.3782657170914]},"properties":{"adresse":"Flurstrasse 130","name":"Pflegezentrum Bachwiesen","ort":"Zürich","plz":"8047","www":"http://www.stadt-zuerich.ch/bachwiesen"}}
,{"type":"Feature","geometry":{"type":"Point","coordinates":[8.60179680618655,47.3550940054304]},"properties":{"adresse":"Kienastenwiesweg 2","name":"Pflegezentrum Witikon","ort":"Zürich","plz":"8053","www":"http://www.stadt-zuerich.ch/witikon"}}
,{"type":"Feature","geometry":{"type":"Point","coordinates":[8.50348570918779,47.3624110368378]},"properties":{"adresse":"Grünmattstrasse 4","name":"Pflegewohngruppe Grünmatt","ort":"Zürich","plz":"8055","www":"http://www.stadt-zuerich.ch/pflegewohngruppen"}}
,{"type":"Feature","geometry":{"type":"Point","coordinates":[8.47738940137923,47.3901285490135]},"properties":{"adresse":"Hausäcker 4","name":"Pflegewohngruppe Hausäcker","ort":"Zürich","plz":"8048","www":"http://www.stadt-zuerich.ch/pflegewohngruppen"}}
,{"type":"Feature","geometry":{"type":"Point","coordinates":[8.51068253622184,47.3641344843119]},"properties":{"adresse":"Sieberstrasse 22","name":"Pflegezentrum Gehrenholz","ort":"Zürich","plz":"8055","www":"http://www.stadt-zuerich.ch/gehrenholz"}}
,{"type":"Feature","geometry":{"type":"Point","coordinates":[8.53106253340464,47.3359414677247]},"properties":{"adresse":"Heinrich-Federer-Strasse 22","name":"Pflegewohngruppe LieniHof","ort":"Zürich","plz":"8038","www":"http://www.stadt-zuerich.ch/entlisberg"}}
,{"type":"Feature","geometry":{"type":"Point","coordinates":[8.53812958666575,47.4290727597294]},"properties":{"adresse":"Traktorenstrasse 4","name":"Pflegewohngruppe Köschenrüti II","ort":"Zürich","plz":"8052","www":"http://www.stadt-zuerich.ch/pflegewohngruppen"}}
,{"type":"Feature","geometry":{"type":"Point","coordinates":[8.51437725537191,47.4238902036058]},"properties":{"adresse":"Wolfswinkel 14","name":"Pflegewohngruppe Wolfswinkel","ort":"Zürich","plz":"8046","www":"http://www.stadt-zuerich.ch/pflegewohngruppen"}}
,{"type":"Feature","geometry":{"type":"Point","coordinates":[8.53812958666575,47.4290727597294]},"properties":{"adresse":"Traktorenstrasse 4","name":"Pflegewohngruppe Köschenrüti I","ort":"Zürich","plz":"8052","www":"http://www.stadt-zuerich.ch/pflegewohngruppen"}}
,{"type":"Feature","geometry":{"type":"Point","coordinates":[8.50132037976549,47.3680169427195]},"properties":{"adresse":"Schweighofstrasse 425 (freig.)","name":"Pflegewohngruppe Triemlipark I","ort":"Zürich","plz":"8055","www":"http://stadt-zuerich.ch/pflegewohngruppen"}}
,{"type":"Feature","geometry":{"type":"Point","coordinates":[8.51442688467762,47.3633620657839]},"properties":{"adresse":"Räffelstrasse 12","name":"Pflegewohngruppen","ort":"Zürich","plz":"8045","www":"http://stadt-zuerich.ch/pflegewohngruppen"}}
,{"type":"Feature","geometry":{"type":"Point","coordinates":[8.4873894004293,47.3773192421253]},"properties":{"adresse":"Else-Züblin-Strasse 48","name":"Pflegewohngruppe Sunnige Hof","ort":"Zürich","plz":"8047","www":"http://www.stadt-zuerich.ch/bachwiesen"}}
,{"type":"Feature","geometry":{"type":"Point","coordinates":[8.54779398695703,47.3934949822317]},"properties":{"adresse":"Langensteinenstrasse 65","name":"Pflegezentrum Irchelpark","ort":"Zürich","plz":"8057","www":"http://www.stadt-zuerich.ch/irchelpark"}}
,{"type":"Feature","geometry":{"type":"Point","coordinates":[8.51554535990056,47.3990711210912]},"properties":{"adresse":"Emil-Klöti-Strasse 25","name":"Pflegezentrum Käferberg","ort":"Zürich","plz":"8037","www":"http://www.stadt-zuerich.ch/kaeferberg"}}
,{"type":"Feature","geometry":{"type":"Point","coordinates":[8.59401827186774,47.3999143357096]},"properties":{"adresse":"Helen-Keller-Strasse 12","name":"Pflegezentrum Mattenhof","ort":"Zürich","plz":"8051","www":"http://www.stadt-zuerich.ch/mattenhof"}}
,{"type":"Feature","geometry":{"type":"Point","coordinates":[8.57656273511121,47.3524219934779]},"properties":{"adresse":"Witellikerstrasse 19","name":"Pflegezentrum Riesbach","ort":"Zürich","plz":"8008","www":"http://www.stadt-zuerich.ch/riesbach"}}
]}
