{"name":"Volksschule","type":"FeatureCollection"
,"features":[
{"type":"Feature","geometry":{"type":"Point","coordinates":[8.53521632822777,47.370154593444,0]},"properties":{"adresse":"Basteiplatz 11","name":"Schanzengraben","ort":"Zürich","plz":"8001","tel":"044 413 32 40","www":"https://www.stadt-zuerich.ch/schulen/de/hirschengraben.html"}}
,{"type":"Feature","geometry":{"type":"Point","coordinates":[8.56173489808783,47.3564532899372,0]},"properties":{"adresse":"Kartausstrasse 9","name":"Kartaus","ort":"Zürich","plz":"8008","tel":"044 413 00 40","www":"https://www.stadt-zuerich.ch/schulen/de/balgrist.html"}}
,{"type":"Feature","geometry":{"type":"Point","coordinates":[8.57746659163571,47.3543230543193,0]},"properties":{"adresse":"Balgriststrasse 55","name":"Balgrist","ort":"Zürich","plz":"8008","tel":"044 413 29 80","www":"https://www.stadt-zuerich.ch/schulen/de/balgrist.html"}}
,{"type":"Feature","geometry":{"type":"Point","coordinates":[8.56099915859461,47.3719908604631,0]},"properties":{"adresse":"Hofstrasse 60","name":"Bungertwies","ort":"Zürich","plz":"8032","tel":"044 413 16 00","www":"https://www.stadt-zuerich.ch/schulen/de/bungertwies.html"}}
,{"type":"Feature","geometry":{"type":"Point","coordinates":[8.55889895882221,47.3760418876206,0]},"properties":{"adresse":"Hochstrasse 118","name":"Fluntern","ort":"Zürich","plz":"8044","tel":"044 413 20 20","www":"https://www.stadt-zuerich.ch/schulen/de/fluntern.html"}}
,{"type":"Feature","geometry":{"type":"Point","coordinates":[8.56542343245636,47.3816361198285,0]},"properties":{"adresse":"Heubeeriweg 30","name":"Heubeeribüel","ort":"Zürich","plz":"8044","tel":"044 413 20 10","www":"https://www.stadt-zuerich.ch/schulen/de/fluntern.html"}}
,{"type":"Feature","geometry":{"type":"Point","coordinates":[8.55972460911144,47.369667234297,0]},"properties":{"adresse":"Ilgenstrasse 11","name":"Ilgen A","ort":"Zürich","plz":"8032","tel":"044 413 00 93","www":"https://www.stadt-zuerich.ch/schulen/de/ilgen.html"}}
,{"type":"Feature","geometry":{"type":"Point","coordinates":[8.56036168423016,47.3689914198972,0]},"properties":{"adresse":"Ilgenstrasse 15","name":"Ilgen B","ort":"Zürich","plz":"8032","tel":"044 413 01 03","www":"https://www.stadt-zuerich.ch/schulen/de/ilgen.html"}}
,{"type":"Feature","geometry":{"type":"Point","coordinates":[8.58665801364659,47.3567268692581,0]},"properties":{"adresse":"Heilighüsli 19","name":"Langmatt","ort":"Zürich","plz":"8053","tel":"044 413 13 00","www":"https://www.stadt-zuerich.ch/schulen/de/looren.html"}}
,{"type":"Feature","geometry":{"type":"Point","coordinates":[8.59597975720527,47.3608184324111,0]},"properties":{"adresse":"Katzenschwanzstrasse 5","name":"Looren A","ort":"Zürich","plz":"8053","tel":"044 413 33 33","www":"https://www.stadt-zuerich.ch/schulen/de/looren.html"}}
,{"type":"Feature","geometry":{"type":"Point","coordinates":[8.55375403567311,47.3626033915471,0]},"properties":{"adresse":"Mühlebachstrasse 71","name":"Mühlebach","ort":"Zürich","plz":"8008","tel":"044 413 15 00","www":"https://www.stadt-zuerich.ch/schulen/de/riesbach.html"}}
,{"type":"Feature","geometry":{"type":"Point","coordinates":[8.55839570564414,47.3561524920725,0]},"properties":{"adresse":"Ceresstrasse 24","name":"Pavillon Riesbach","ort":"Zürich","plz":"8008","tel":"044 413 03 54","www":"https://www.stadt-zuerich.ch/schulen/de/riesbach.html"}}
,{"type":"Feature","geometry":{"type":"Point","coordinates":[8.55560864598595,47.3572030245686,0]},"properties":{"adresse":"Seefeldstrasse 131","name":"Seefeld","ort":"Zürich","plz":"8008","tel":"044 413 15 20","www":"https://www.stadt-zuerich.ch/schulen/de/riesbach.html"}}
,{"type":"Feature","geometry":{"type":"Point","coordinates":[8.58203423108749,47.4011371348647,0]},"properties":{"adresse":"Dübendorfstrasse 158","name":"Stettbach","ort":"Zürich","plz":"8051","tel":"044 413 25 97","www":"https://www.stadt-zuerich.ch/schulen/de/stettbach.html"}}
,{"type":"Feature","geometry":{"type":"Point","coordinates":[8.53929176944004,47.4020612544368,0]},"properties":{"adresse":"Schürbungert 25","name":"Allenmoos","ort":"Zürich","plz":"8057","tel":"044 413 05 00","www":"https://www.stadt-zuerich.ch/schulen/de/allenmoos.html"}}
,{"type":"Feature","geometry":{"type":"Point","coordinates":[8.50483941862199,47.3957344873228,0]},"properties":{"adresse":"Am Wasser 55a","name":"Am Wasser","ort":"Zürich","plz":"8049","tel":"044 413 31 90","www":"https://www.stadt-zuerich.ch/schulen/de/amwasser.html"}}
,{"type":"Feature","geometry":{"type":"Point","coordinates":[8.50152043380797,47.4018708859452,0]},"properties":{"adresse":"Bläsistrasse 2","name":"Bläsi","ort":"Zürich","plz":"8049","tel":"044 413 24 70","www":"https://www.stadt-zuerich.ch/schulen/de/blaesi.html"}}
,{"type":"Feature","geometry":{"type":"Point","coordinates":[8.54901112228755,47.3822999670776,0]},"properties":{"adresse":"Huttenstrasse 14","name":"Hutten","ort":"Zürich","plz":"8006","tel":"044 413 21 81","www":"https://www.stadt-zuerich.ch/schulen/de/hutten.html"}}
,{"type":"Feature","geometry":{"type":"Point","coordinates":[8.48878479850481,47.4049296824748,0]},"properties":{"adresse":"Imbisbühlstrasse 80","name":"Lachenzelg","ort":"Zürich","plz":"8049","tel":"044 413 32 70","www":"https://www.stadt-zuerich.ch/schulen/de/lachenzelg.html"}}
,{"type":"Feature","geometry":{"type":"Point","coordinates":[8.53350381344683,47.389224376964,0]},"properties":{"adresse":"Rousseaustrasse 43","name":"Letten","ort":"Zürich","plz":"8037","tel":"044 413 19 30","www":"https://www.stadt-zuerich.ch/schulen/de/letten.html"}}
,{"type":"Feature","geometry":{"type":"Point","coordinates":[8.53866554711403,47.3960808798628,0]},"properties":{"adresse":"Guggachstrasse 11","name":"Milchbuck","ort":"Zürich","plz":"8057","tel":"044 413 27 77","www":"https://www.stadt-zuerich.ch/schulen/de/milchbuck.html"}}
,{"type":"Feature","geometry":{"type":"Point","coordinates":[8.52619404510193,47.3949499708175,0]},"properties":{"adresse":"Nordstrasse 270","name":"Nordstrasse","ort":"Zürich","plz":"8037","tel":"044 413 14 60","www":"https://www.stadt-zuerich.ch/schulen/de/nordstrasse.html"}}
,{"type":"Feature","geometry":{"type":"Point","coordinates":[8.48646174251815,47.408490879369,0]},"properties":{"adresse":"Reinhold-Frei-Strasse 42","name":"Riedhof","ort":"Zürich","plz":"8049","tel":"044 413 23 60","www":"https://www.stadt-zuerich.ch/schulen/de/riedhof.html"}}
,{"type":"Feature","geometry":{"type":"Point","coordinates":[8.48883546631535,47.4044627065971,0]},"properties":{"adresse":"Imbisbühlstrasse 79","name":"Pünten","ort":"Zürich","plz":"8049","tel":"044 413 01 90","www":"https://www.stadt-zuerich.ch/schulen/de/riedhof.html"}}
,{"type":"Feature","geometry":{"type":"Point","coordinates":[8.54289193407978,47.38883311423,0]},"properties":{"adresse":"Riedtlistrasse 41","name":"Riedtli","ort":"Zürich","plz":"8006","tel":"044 413 17 70","www":"https://www.stadt-zuerich.ch/schulen/de/riedtli.html"}}
,{"type":"Feature","geometry":{"type":"Point","coordinates":[8.47937935256609,47.4125736171156,0]},"properties":{"adresse":"Giblenstrasse 61","name":"Rütihof","ort":"Zürich","plz":"8049","tel":"044 413 29 30","www":"https://www.stadt-zuerich.ch/schulen/de/ruetihof.html"}}
,{"type":"Feature","geometry":{"type":"Point","coordinates":[8.5466094293683,47.3843743556659,0]},"properties":{"adresse":"Stapferstrasse 54","name":"Scherr","ort":"Zürich","plz":"8006","tel":"044 413 04 00","www":"https://www.stadt-zuerich.ch/schulen/de/scherr.html"}}
,{"type":"Feature","geometry":{"type":"Point","coordinates":[8.49968255550285,47.4041227518289,0]},"properties":{"adresse":"Ferdinand-Hodler-Strasse 23","name":"Vogtsrain","ort":"Zürich","plz":"8049","tel":"044 413 09 40","www":"https://www.stadt-zuerich.ch/schulen/de/vogtsrain.html"}}
,{"type":"Feature","geometry":{"type":"Point","coordinates":[8.52708514819657,47.3970307287738,0]},"properties":{"adresse":"Weihersteig 7","name":"Waidhalde","ort":"Zürich","plz":"8037","tel":"044 413 06 00","www":"https://www.stadt-zuerich.ch/schulen/de/waidhalde.html"}}
,{"type":"Feature","geometry":{"type":"Point","coordinates":[8.53997674850389,47.3892758465269,0]},"properties":{"adresse":"Weinbergstrasse 143","name":"Weinberg","ort":"Zürich","plz":"8006","tel":"044 413 27 27","www":"https://www.stadt-zuerich.ch/schulen/de/weinberg.html"}}
,{"type":"Feature","geometry":{"type":"Point","coordinates":[8.54185715049601,47.3878293856937,0]},"properties":{"adresse":"Turnerstrasse 49","name":"Turner","ort":"Zürich","plz":"8006","tel":"044 361 39 00","www":"https://www.stadt-zuerich.ch/schulen/de/weinberg.html"}}
,{"type":"Feature","geometry":{"type":"Point","coordinates":[8.56554769826742,47.3619122692385,0]},"properties":{"adresse":"Hofackerstrasse 45","name":"Hofacker","ort":"Zürich","plz":"8032","tel":"044 413 14 00","www":"https://www.stadt-zuerich.ch/schulen/de/hirslanden.html"}}
,{"type":"Feature","geometry":{"type":"Point","coordinates":[8.56273815886631,47.3631463863656,0]},"properties":{"adresse":"Freiestrasse 160","name":"Freiestrasse","ort":"Zürich","plz":"8032","tel":"044 413 14 20","www":"https://www.stadt-zuerich.ch/schulen/de/hirslanden.html"}}
,{"type":"Feature","geometry":{"type":"Point","coordinates":[8.55940173809736,47.3614673865612,0]},"properties":{"adresse":"Neumünsterstrasse 25","name":"Neumünster","ort":"Zürich","plz":"8008","tel":"044 413 13 24","www":"https://www.stadt-zuerich.ch/schulen/de/hirslanden.html"}}
,{"type":"Feature","geometry":{"type":"Point","coordinates":[8.55909186822156,47.3559067268469,0]},"properties":{"adresse":"Mühlebachstrasse 180","name":"Münchhalde","ort":"Zürich","plz":"8008","tel":"044 413 03 40","www":"https://www.stadt-zuerich.ch/schulen/de/hirslanden.html"}}
,{"type":"Feature","geometry":{"type":"Point","coordinates":[8.54018228760786,47.4156426203947,0]},"properties":{"adresse":"Margrit-Rainer-Strasse 5","name":"Im Birch","ort":"Zürich","plz":"8050","tel":"044 413 07 10","www":"https://www.stadt-zuerich.ch/schulen/de/imbirch.html"}}
,{"type":"Feature","geometry":{"type":"Point","coordinates":[8.50412888427677,47.4230504797962,0]},"properties":{"adresse":"Blumenfeldstrasse 50","name":"Blumenfeld","ort":"Zürich","plz":"8046","tel":"044 413 26 50","www":"https://www.stadt-zuerich.ch/schulen/de/blumenfeld.html"}}
,{"type":"Feature","geometry":{"type":"Point","coordinates":[8.48639816751375,47.3859583911183,0]},"properties":{"adresse":"Altstetterstrasse 171","name":"Altstetterstrasse","ort":"Zürich","plz":"8048","tel":"+41 44 413 24 30","www":"https://www.stadt-zuerich.ch/schulen/de/altstetterstrasse.html"}}
,{"type":"Feature","geometry":{"type":"Point","coordinates":[8.49293257155718,47.3723225964698,0]},"properties":{"adresse":"Letzigraben 208","name":"Altweg","ort":"Zürich","plz":"8047","tel":"+41 44 413 15 80","www":"https://www.stadt-zuerich.ch/schulen/de/altweg.html"}}
,{"type":"Feature","geometry":{"type":"Point","coordinates":[8.47877873487679,47.383979942051,0]},"properties":{"adresse":"Rautistrasse 203","name":"Buchlern","ort":"Zürich","plz":"8048","tel":"+41 44 413 13 60","www":"https://www.stadt-zuerich.ch/schulen/de/buchlern.html"}}
,{"type":"Feature","geometry":{"type":"Point","coordinates":[8.47331608521055,47.3885871380933,0]},"properties":{"adresse":"Eugen-Huber-Strasse 150","name":"Chriesiweg","ort":"Zürich","plz":"8048","tel":"+41 44 413 15 50","www":"https://www.stadt-zuerich.ch/schulen/de/chriesiweg.html"}}
,{"type":"Feature","geometry":{"type":"Point","coordinates":[8.48144714240598,47.3881348211618,0]},"properties":{"adresse":"Dachslernstrasse 6","name":"Dachslernstrasse","ort":"Zürich","plz":"8048","tel":"+41 44 413 30 30","www":"https://www.stadt-zuerich.ch/schulen/de/dachslernstrasse.html"}}
,{"type":"Feature","geometry":{"type":"Point","coordinates":[8.48195093247152,47.3875779974504,0]},"properties":{"adresse":"Feldblumenstrasse 14","name":"Feldblumen","ort":"Zürich","plz":"8048","tel":"+41 44 413 30 40","www":"https://www.stadt-zuerich.ch/schulen/de/dachslernstrasse.html"}}
,{"type":"Feature","geometry":{"type":"Point","coordinates":[8.48908636836149,47.3962975270708,0]},"properties":{"adresse":"Grünauring 26","name":"Grünau","ort":"Zürich","plz":"8064","tel":"+41 44 413 05 50","www":"https://www.stadt-zuerich.ch/schulen/de/gruenau.html"}}
,{"type":"Feature","geometry":{"type":"Point","coordinates":[8.48176354500908,47.3897833322409,0]},"properties":{"adresse":"Badenerstrasse 724","name":"Im Herrlig","ort":"Zürich","plz":"8048","tel":"+41 44 413 05 30","www":"https://www.stadt-zuerich.ch/schulen/de/imherrlig.html"}}
,{"type":"Feature","geometry":{"type":"Point","coordinates":[8.48829959015281,47.374165385937,0]},"properties":{"adresse":"In der Ey 20","name":"In der Ey","ort":"Zürich","plz":"8047","tel":"+41 44 413 10 10","www":"https://www.stadt-zuerich.ch/schulen/de/inderey.html"}}
,{"type":"Feature","geometry":{"type":"Point","coordinates":[8.4929346564945,47.3862025945113,0]},"properties":{"adresse":"Badenerstrasse 618","name":"Kappeli","ort":"Zürich","plz":"8048","tel":"+41 44 413 29 00","www":"https://www.stadt-zuerich.ch/schulen/de/kappeli.html"}}
,{"type":"Feature","geometry":{"type":"Point","coordinates":[8.4980350002161,47.3713104071061,0]},"properties":{"adresse":"Espenhofweg 60","name":"Letzi","ort":"Zürich","plz":"8047","tel":"+41 44 413 03 00","www":"https://www.stadt-zuerich.ch/schulen/de/letzi.html"}}
,{"type":"Feature","geometry":{"type":"Point","coordinates":[8.47319613853089,47.3881130602366,0]},"properties":{"adresse":"Eugen-Huber-Strasse 145","name":"Loogarten","ort":"Zürich","plz":"8048","tel":"+41 44 413 30 20","www":"https://www.stadt-zuerich.ch/schulen/de/loogarten.html"}}
,{"type":"Feature","geometry":{"type":"Point","coordinates":[8.48677033854168,47.3726104161803,0]},"properties":{"adresse":"Triemlistrasse 45","name":"Triemli","ort":"Zürich","plz":"8047","tel":"+41 44 413 02 00","www":"https://www.stadt-zuerich.ch/schulen/de/triemli.html"}}
,{"type":"Feature","geometry":{"type":"Point","coordinates":[8.48230301754934,47.380528564691,0]},"properties":{"adresse":"Altstetterstrasse 248","name":"Untermoos","ort":"Zürich","plz":"8048","tel":"+41 44 413 08 60","www":"https://www.stadt-zuerich.ch/schulen/de/untermoos.html"}}
,{"type":"Feature","geometry":{"type":"Point","coordinates":[8.49602652180968,47.3797647109163,0]},"properties":{"adresse":"Dennlerstrasse 55","name":"Utogrund","ort":"Zürich","plz":"8047","tel":"+41 44 413 30 00","www":"https://www.stadt-zuerich.ch/schulen/de/utogrund.html"}}
,{"type":"Feature","geometry":{"type":"Point","coordinates":[8.53003211471185,47.3861640266574,0]},"properties":{"adresse":"Limmatstrasse 176","name":"Kornhaus","ort":"Zürich","plz":"8005","tel":"044 413 33 00","www":"https://www.stadt-zuerich.ch/schulen/de/kornhaus.html"}}
,{"type":"Feature","geometry":{"type":"Point","coordinates":[8.51266469793229,47.3735952536113,0]},"properties":{"adresse":"Bertastrasse 50","name":"Aemtler A","ort":"Zürich","plz":"8003","tel":"044 413 01 23/24","www":"https://www.stadt-zuerich.ch/schulen/de/aemtler_a.html"}}
,{"type":"Feature","geometry":{"type":"Point","coordinates":[8.51270026865335,47.3744024309644,0]},"properties":{"adresse":"Aemtlerstrasse 101","name":"Aemtler B","ort":"Zürich","plz":"8003","tel":"044 413 01 40","www":"https://www.stadt-zuerich.ch/schulen/de/aemtler_b.html"}}
,{"type":"Feature","geometry":{"type":"Point","coordinates":[8.52242617562875,47.3785931510636,0]},"properties":{"adresse":"Feldstrasse 89","name":"Feld","ort":"Zürich","plz":"8004","tel":"044 413 25 40","www":"https://www.stadt-zuerich.ch/schulen/de/feld.html"}}
,{"type":"Feature","geometry":{"type":"Point","coordinates":[8.51001651218808,47.3823167527984,0]},"properties":{"adresse":"Bullingerstrasse 62","name":"Hardau","ort":"Zürich","plz":"8004","tel":"044 413 16 60","www":"https://www.stadt-zuerich.ch/schulen/de/hardau.html"}}
,{"type":"Feature","geometry":{"type":"Point","coordinates":[8.50470592567435,47.3717941333991,0]},"properties":{"adresse":"Gutstrasse 107","name":"Im Gut","ort":"Zürich","plz":"8055","tel":"044 413 17 30","www":"https://www.stadt-zuerich.ch/schulen/de/imgut.html"}}
,{"type":"Feature","geometry":{"type":"Point","coordinates":[8.5251277528987,47.377394622894,0]},"properties":{"adresse":"Kernstrasse 45","name":"Kern","ort":"Zürich","plz":"8004","tel":"044 413 21 00","www":"https://www.stadt-zuerich.ch/schulen/de/aussersihl.html"}}
,{"type":"Feature","geometry":{"type":"Point","coordinates":[8.53380290348252,47.3831627493371,0]},"properties":{"adresse":"Limmatstrasse 90","name":"Limmat A","ort":"Zürich","plz":"8005","tel":"044 413 04 50","www":"https://www.stadt-zuerich.ch/schulen/de/limmat.html"}}
,{"type":"Feature","geometry":{"type":"Point","coordinates":[8.53434701320434,47.3835321914438,0]},"properties":{"adresse":"Ausstellungsstrasse 81","name":"Limmat B","ort":"Zürich","plz":"8005","tel":"044 413 04 60","www":"https://www.stadt-zuerich.ch/schulen/de/limmat.html"}}
,{"type":"Feature","geometry":{"type":"Point","coordinates":[8.53434701320434,47.3835321914438,0]},"properties":{"adresse":"Ausstellungsstrasse 81","name":"Limmat C","ort":"Zürich","plz":"8005","tel":"044 413 04 70","www":"https://www.stadt-zuerich.ch/schulen/de/limmat.html"}}
,{"type":"Feature","geometry":{"type":"Point","coordinates":[8.51512113932032,47.3808902386774,0]},"properties":{"adresse":"Sihlfeldstrasse 165","name":"Sihlfeld","ort":"Zürich","plz":"8004","tel":"044 413 28 70","www":"https://www.stadt-zuerich.ch/schulen/de/sihlfeld.html"}}
,{"type":"Feature","geometry":{"type":"Point","coordinates":[8.51766038697036,47.3721766530751,0]},"properties":{"adresse":"Zurlindenstrasse 137","name":"Zurlinden","ort":"Zürich","plz":"8003","tel":"044 413 19 99","www":"https://www.stadt-zuerich.ch/schulen/de/zurlinden.html"}}
,{"type":"Feature","geometry":{"type":"Point","coordinates":[8.50866606126822,47.3803140121644,0]},"properties":{"adresse":"Norastrasse 20","name":"Albisriederplatz","ort":"Zürich","plz":"8004","tel":"044 413 00 60","www":"https://www.stadt-zuerich.ch/schulen/de/albisriederplatz.html"}}
,{"type":"Feature","geometry":{"type":"Point","coordinates":[8.52487054363257,47.3781951777281,0]},"properties":{"adresse":"Hohlstrasse 68","name":"Kunst- & Sportschule Zürich","ort":"Zürich","plz":"8004","tel":null,"www":"https://www.stadt-zuerich.ch/schulen/de/kus.html"}}
,{"type":"Feature","geometry":{"type":"Point","coordinates":[8.52417901717994,47.3894167032415,0]},"properties":{"adresse":"Limmatstrasse 301","name":"Schütze Pavillon","ort":"Zürich","plz":"8005","tel":null,"www":"https://www.stadt-zuerich.ch/schulen/de/kornhaus.html"}}
,{"type":"Feature","geometry":{"type":"Point","coordinates":[8.56280991550047,47.4134743506406,0]},"properties":{"adresse":"Saatlenfussweg 3","name":"Leutschenbach","ort":"Zürich","plz":"8050","tel":"044 413 08 10","www":"https://www.stadt-zuerich.ch/schulen/de/leutschenbach.html"}}
,{"type":"Feature","geometry":{"type":"Point","coordinates":[8.57013193744525,47.4146634896551,0]},"properties":{"adresse":"Auzelg 50","name":"Auzelg I","ort":"Zürich","plz":"8050","tel":"044 413 10 50","www":"https://www.stadt-zuerich.ch/schulen/de/auzelg.html"}}
,{"type":"Feature","geometry":{"type":"Point","coordinates":[8.56717278374376,47.4044549549878,0]},"properties":{"adresse":"Ahornstrasse 12","name":"Ahorn","ort":"Zürich","plz":"8051","tel":"044 413 30 50","www":"https://www.stadt-zuerich.ch/schulen/de/ahorn.html"}}
,{"type":"Feature","geometry":{"type":"Point","coordinates":[8.57218064566199,47.4074366493804,0]},"properties":{"adresse":"Herzogenmühlestrasse 53","name":"Auhof","ort":"Zürich","plz":"8051","tel":"044 413 00 00","www":"https://www.stadt-zuerich.ch/schulen/de/auhof.html"}}
,{"type":"Feature","geometry":{"type":"Point","coordinates":[8.56885482645737,47.416152947597,0]},"properties":{"adresse":"Opfikonstrasse 151","name":"Auzelg II","ort":"Zürich","plz":"8050","tel":"044 413 10 70","www":"https://www.stadt-zuerich.ch/schulen/de/auzelg.html"}}
,{"type":"Feature","geometry":{"type":"Point","coordinates":[8.56878738719888,47.40497185869,0]},"properties":{"adresse":"Friedrichstrasse 21","name":"Friedrichstrasse","ort":"Zürich","plz":"8051","tel":"044 413 09 00","www":"https://www.stadt-zuerich.ch/schulen/de/friedrichstrasse.html"}}
,{"type":"Feature","geometry":{"type":"Point","coordinates":[8.57291374332401,47.4080779411111,0]},"properties":{"adresse":"Herzogenmühlestrasse 60","name":"Herzogenmühle","ort":"Zürich","plz":"8051","tel":"044 413 31 10","www":"https://www.stadt-zuerich.ch/schulen/de/herzogenmuehle.html"}}
,{"type":"Feature","geometry":{"type":"Point","coordinates":[8.58699156933531,47.4044349820215,0]},"properties":{"adresse":"Luchswiesenstrasse 186","name":"Hirzenbach","ort":"Zürich","plz":"8051","tel":"044 413 06 20","www":"https://www.stadt-zuerich.ch/schulen/de/hirzenbach.html"}}
,{"type":"Feature","geometry":{"type":"Point","coordinates":[8.58248994445919,47.4041538562797,0]},"properties":{"adresse":"Glattwiesenstrasse 86","name":"Luchswiesen","ort":"Zürich","plz":"8051","tel":"044 413 25 10","www":"https://www.stadt-zuerich.ch/schulen/de/luchswiesen.html"}}
,{"type":"Feature","geometry":{"type":"Point","coordinates":[8.5882786668556,47.399037314392,0]},"properties":{"adresse":"Dübendorfstrasse 300","name":"Mattenhof","ort":"Zürich","plz":"8051","tel":"044 413 09 80","www":"https://www.stadt-zuerich.ch/schulen/de/mattenhof.html"}}
,{"type":"Feature","geometry":{"type":"Point","coordinates":[8.576914185894,47.4014996930328,0]},"properties":{"adresse":"Stettbachstrasse 88","name":"Probstei","ort":"Zürich","plz":"8051","tel":"044 413 30 80","www":"https://www.stadt-zuerich.ch/schulen/de/probstei.html"}}
,{"type":"Feature","geometry":{"type":"Point","coordinates":[8.56232213555093,47.4085229326312,0]},"properties":{"adresse":"Tramstrasse 208","name":"Saatlen","ort":"Zürich","plz":"8050","tel":"044 413 18 70","www":"https://www.stadt-zuerich.ch/schulen/de/saatlen.html"}}
,{"type":"Feature","geometry":{"type":"Point","coordinates":[8.5227185077607,47.3691224459867,0]},"properties":{"adresse":"Aegertenstrasse 29","name":"Aegerten","ort":"Zürich","plz":"8003","tel":"044 413 08 40","www":"https://www.stadt-zuerich.ch/schulen/de/aegerten.html"}}
,{"type":"Feature","geometry":{"type":"Point","coordinates":[8.51168081714441,47.3593171536372,0]},"properties":{"adresse":"Bachtobelstrasse 111","name":"Bachtobel","ort":"Zürich","plz":"8045","tel":"MST 044 413 18 20","www":"https://www.stadt-zuerich.ch/schulen/de/bachtobel.html"}}
,{"type":"Feature","geometry":{"type":"Point","coordinates":[8.51636823169118,47.3681601549909,0]},"properties":{"adresse":"Bühlstrasse 6","name":"Bühl","ort":"Zürich","plz":"8055","tel":"044 413 02 55","www":"https://www.stadt-zuerich.ch/schulen/de/buehl.html"}}
,{"type":"Feature","geometry":{"type":"Point","coordinates":[8.49997915024609,47.3639454359666,0]},"properties":{"adresse":"Döltschiweg 184","name":"Döltschi","ort":"Zürich","plz":"8055","tel":"044 413 29 60","www":"https://www.stadt-zuerich.ch/schulen/de/doeltschi.html"}}
,{"type":"Feature","geometry":{"type":"Point","coordinates":[8.52703220509408,47.3376911791273,0]},"properties":{"adresse":"Balberstrasse 71","name":"Entlisberg","ort":"Zürich","plz":"8038","tel":"044 413 31 60","www":"https://www.stadt-zuerich.ch/schulen/de/entlisberg.html"}}
,{"type":"Feature","geometry":{"type":"Point","coordinates":[8.51552215700758,47.3338225943919,0]},"properties":{"adresse":"Rebenstrasse 67","name":"Falletsche","ort":"Zürich","plz":"8041","tel":"044 413 11 70","www":"https://www.stadt-zuerich.ch/schulen/de/falletsche.html"}}
,{"type":"Feature","geometry":{"type":"Point","coordinates":[8.51644808230367,47.3334597114093,0]},"properties":{"adresse":"Wegackerstrasse 40","name":"Leimbach","ort":"Zürich","plz":"8041","tel":"044 413 11 50","www":"https://www.stadt-zuerich.ch/schulen/de/falletsche.html"}}
,{"type":"Feature","geometry":{"type":"Point","coordinates":[8.49944309229773,47.3633416620685,0]},"properties":{"adresse":"Döltschiweg 190","name":"Döltschihalde","ort":"Zürich","plz":"8055","tel":"044 465 40 10","www":"https://www.stadt-zuerich.ch/schulen/de/amuetliberg.html"}}
,{"type":"Feature","geometry":{"type":"Point","coordinates":[8.50473465896553,47.3602032921816,0]},"properties":{"adresse":"Borrweg 81","name":"Borrweg","ort":"Zürich","plz":"8055","tel":"044 413 01 70","www":"https://www.stadt-zuerich.ch/schulen/de/amuetliberg.html"}}
,{"type":"Feature","geometry":{"type":"Point","coordinates":[8.50666353443618,47.3595338981445,0]},"properties":{"adresse":"Schweighofstrasse 201","name":"Friesenberg","ort":"Zürich","plz":"8045","tel":"044 413 01 50","www":"https://www.stadt-zuerich.ch/schulen/de/amuetliberg.html"}}
,{"type":"Feature","geometry":{"type":"Point","coordinates":[8.5297527076737,47.3605084848618,0]},"properties":{"adresse":"Schulhausstrasse 21","name":"Gabler","ort":"Zürich","plz":"8002","tel":"044 413 18 40","www":"https://www.stadt-zuerich.ch/schulen/de/gabler.html"}}
,{"type":"Feature","geometry":{"type":"Point","coordinates":[8.53416784924457,47.341490499532,0]},"properties":{"adresse":"Kilchbergstrasse 28","name":"Hans Asper","ort":"Zürich","plz":"8038","tel":"044 413 13 30","www":"https://www.stadt-zuerich.ch/schulen/de/hansasper.html"}}
,{"type":"Feature","geometry":{"type":"Point","coordinates":[8.53525111454812,47.3395557125426,0]},"properties":{"adresse":"Kilchbergstrasse 50","name":"Im Lee","ort":"Zürich","plz":"8038","tel":"044 413 12 50","www":"https://www.stadt-zuerich.ch/schulen/de/wollishofen.html"}}
,{"type":"Feature","geometry":{"type":"Point","coordinates":[8.53430447026386,47.3423606598474,0]},"properties":{"adresse":"Kilchbergstrasse 23","name":"Wollishofen","ort":"Zürich","plz":"8038","tel":"044 413 12 40","www":"https://www.stadt-zuerich.ch/schulen/de/wollishofen.html"}}
,{"type":"Feature","geometry":{"type":"Point","coordinates":[8.50299368677059,47.368440226007,0]},"properties":{"adresse":"Küngenmatt 66","name":"Küngenmatt","ort":"Zürich","plz":"8055","tel":"044 413 09 20","www":"https://www.stadt-zuerich.ch/schulen/de/kuengenmatt.html"}}
,{"type":"Feature","geometry":{"type":"Point","coordinates":[8.53255924430609,47.3611088604011,0]},"properties":{"adresse":"Schulhausstrasse 1","name":"Lavater","ort":"Zürich","plz":"8002","tel":"044 413 12 70","www":"https://www.stadt-zuerich.ch/schulen/de/lavater.html"}}
,{"type":"Feature","geometry":{"type":"Point","coordinates":[8.5263295192518,47.3480191799366,0]},"properties":{"adresse":"Tannenrauchstrasse 10","name":"Manegg","ort":"Zürich","plz":"8038","tel":"044 413 14 40","www":"https://www.stadt-zuerich.ch/schulen/de/manegg.html"}}
,{"type":"Feature","geometry":{"type":"Point","coordinates":[8.5325656368732,47.3333166795196,0]},"properties":{"adresse":"Erligatterweg 33","name":"Neubühl","ort":"Zürich","plz":"8038","tel":"044 413 19 10","www":"https://www.stadt-zuerich.ch/schulen/de/neubuehl.html"}}
,{"type":"Feature","geometry":{"type":"Point","coordinates":[8.55566806168797,47.4066086047733,0]},"properties":{"adresse":"Apfelbaumstrasse 31","name":"Apfelbaum","ort":"Zürich","plz":"8050","tel":"044 413 28 28","www":"https://www.stadt-zuerich.ch/schulen/de/apfelbaum.html"}}
,{"type":"Feature","geometry":{"type":"Point","coordinates":[8.54004342110582,47.4276714311775,0]},"properties":{"adresse":"Schönauweg 15","name":"Buchwiesen","ort":"Zürich","plz":"8052","tel":"044 413 16 30","www":"https://www.stadt-zuerich.ch/schulen/de/buchwiesen.html"}}
,{"type":"Feature","geometry":{"type":"Point","coordinates":[8.54537198769595,47.4207684667619,0]},"properties":{"adresse":"Höhenring 36","name":"Buhn","ort":"Zürich","plz":"8052","tel":"044 413 22 10","www":"https://www.stadt-zuerich.ch/schulen/de/buhn.html"}}
,{"type":"Feature","geometry":{"type":"Point","coordinates":[8.54267582646166,47.4207914029524,0]},"properties":{"adresse":"Buhnrain 40","name":"Buhnrain","ort":"Zürich","plz":"8052","tel":"044 413 23 40","www":"https://www.stadt-zuerich.ch/schulen/de/buhnrain.html"}}
,{"type":"Feature","geometry":{"type":"Point","coordinates":[8.54101161611661,47.4081356410362,0]},"properties":{"adresse":"Regensbergstrasse 153","name":"Gubel","ort":"Zürich","plz":"8050","tel":"044 413 24 10 Trakt A","www":"https://www.stadt-zuerich.ch/schulen/de/gubel.html"}}
,{"type":"Feature","geometry":{"type":"Point","coordinates":[8.53730751508909,47.4231833130028,0]},"properties":{"adresse":"Schwandenholzstrasse 20","name":"Heumatt","ort":"Zürich","plz":"8052","tel":"044 413 19 50","www":"https://www.stadt-zuerich.ch/schulen/de/heumatt.html"}}
,{"type":"Feature","geometry":{"type":"Point","coordinates":[8.50380774554416,47.4193703291548,0]},"properties":{"adresse":"Wehntalerstrasse 563","name":"Holderbach","ort":"Zürich","plz":"8046","tel":"044 413 17 00","www":"https://www.stadt-zuerich.ch/schulen/de/holderbach.html"}}
,{"type":"Feature","geometry":{"type":"Point","coordinates":[8.52151380721119,47.4148444382926,0]},"properties":{"adresse":"Seebacherstrasse 491","name":"Hürstholz","ort":"Zürich","plz":"8046","tel":"044 413 23 00","www":"https://www.stadt-zuerich.ch/schulen/de/huerstholz.html"}}
,{"type":"Feature","geometry":{"type":"Point","coordinates":[8.5141105024741,47.4231406702936,0]},"properties":{"adresse":"Wolfswinkel 3","name":"Im Isengrind","ort":"Zürich","plz":"8046","tel":"044 413 22 80","www":"https://www.stadt-zuerich.ch/schulen/de/imisengrind.html"}}
,{"type":"Feature","geometry":{"type":"Point","coordinates":[8.52273398045481,47.4120160811704,0]},"properties":{"adresse":"Käferholzstrasse 271","name":"Käferholz","ort":"Zürich","plz":"8046","tel":"044 413 28 40","www":"https://www.stadt-zuerich.ch/schulen/de/kaeferholz.html"}}
,{"type":"Feature","geometry":{"type":"Point","coordinates":[8.55121090735694,47.426140226928,0]},"properties":{"adresse":"Sperletweg 71","name":"Kolbenacker","ort":"Zürich","plz":"8052","tel":"044 413 03 70","www":"https://www.stadt-zuerich.ch/schulen/de/kolbenacker.html"}}
,{"type":"Feature","geometry":{"type":"Point","coordinates":[8.52826839914416,47.4106038712013,0]},"properties":{"adresse":"Maienstrasse 9","name":"Kügeliloo","ort":"Zürich","plz":"8050","tel":"044 413 22 40","www":"https://www.stadt-zuerich.ch/schulen/de/kuegeliloo.html"}}
,{"type":"Feature","geometry":{"type":"Point","coordinates":[8.54449340016803,47.4062877902775,0]},"properties":{"adresse":"Ligusterstrasse 20","name":"Liguster","ort":"Zürich","plz":"8057","tel":"044 413 25 70","www":"https://www.stadt-zuerich.ch/schulen/de/liguster.html"}}
,{"type":"Feature","geometry":{"type":"Point","coordinates":[8.51162251382041,47.4187612720366,0]},"properties":{"adresse":"Riedenhaldenstrasse 212","name":"Riedenhalden","ort":"Zürich","plz":"8046","tel":"Primar 044 413 26 10","www":"https://www.stadt-zuerich.ch/schulen/de/riedenhalden.html"}}
,{"type":"Feature","geometry":{"type":"Point","coordinates":[8.50162933727916,47.424939289993,0]},"properties":{"adresse":"Mühlackerstrasse 90","name":"Schauenberg","ort":"Zürich","plz":"8046","tel":"044 413 12 00","www":"https://www.stadt-zuerich.ch/schulen/de/schauenberg.html"}}
,{"type":"Feature","geometry":{"type":"Point","coordinates":[8.53550395404459,47.4186460870719,0]},"properties":{"adresse":"Himmeristrasse 57","name":"Staudenbühl","ort":"Zürich","plz":"8052","tel":"044 413 31 20","www":"https://www.stadt-zuerich.ch/schulen/de/staudenbuehl.html"}}
,{"type":"Feature","geometry":{"type":"Point","coordinates":[8.5325656368732,47.3333166795196,0]},"properties":{"adresse":"Erligatterweg 33","name":"Tagesschule Neubühl","ort":"Zürich","plz":"8038","tel":"044 413 19 11","www":"https://www.stadt-zuerich.ch/schulen/de/neubuehl.html"}}
,{"type":"Feature","geometry":{"type":"Point","coordinates":[8.51672493714984,47.3653593868198,0]},"properties":{"adresse":"Haldenstrasse 70","name":"Rebhügel","ort":"Zürich","plz":"8045","tel":"044 413 32 10","www":"https://www.stadt-zuerich.ch/schulen/de/rebhuegel.html"}}
,{"type":"Feature","geometry":{"type":"Point","coordinates":[8.51634347200582,47.3265035124804,0]},"properties":{"adresse":"Sihlweidstrasse 5","name":"Sihlweid","ort":"Zürich","plz":"8041","tel":"044 413 08 80","www":"https://www.stadt-zuerich.ch/schulen/de/sihlweid.html"}}
,{"type":"Feature","geometry":{"type":"Point","coordinates":[8.54711981054258,47.3736376994439,0]},"properties":{"adresse":"Hirschengraben 46","name":"Hirschengraben","ort":"Zürich","plz":"8001","tel":"044 413 04 30","www":"https://www.stadt-zuerich.ch/schulen/de/hirschengraben.html"}}
]}
