{"name":"Kindergarten","type":"FeatureCollection"
,"features":[
{"type":"Feature","geometry":{"type":"Point","coordinates":[8.5263295192518,47.3480191799366,0]},"properties":{"adresse":"Tannenrauchstrasse 10","name":"Manegg II","ort":"Zürich","plz":"8038","tel":"044 413 14 48","www":"https://www.stadt-zuerich.ch/schulen/de/manegg/ueberuns/standorte/kindergaerten.html"}}
,{"type":"Feature","geometry":{"type":"Point","coordinates":[8.5325656368732,47.3333166795196,0]},"properties":{"adresse":"Erligatterweg 33","name":"Neubühl 2","ort":"Zürich","plz":"8038","tel":"044 413 19 16","www":"https://www.stadt-zuerich.ch/schulen/de/neubuehl/ueberuns/standorte/kindergaerten.html"}}
,{"type":"Feature","geometry":{"type":"Point","coordinates":[8.5325656368732,47.3333166795196,0]},"properties":{"adresse":"Erligatterweg 33","name":"Neubühl 1","ort":"Zürich","plz":"8038","tel":"044 413 19 15","www":"https://www.stadt-zuerich.ch/schulen/de/neubuehl/ueberuns/standorte/kindergaerten.html"}}
,{"type":"Feature","geometry":{"type":"Point","coordinates":[8.51551491547913,47.3261844949875,0]},"properties":{"adresse":"Sihlweidstrasse 2","name":"Sihlweid II","ort":"Zürich","plz":"8041","tel":"044 481 83 03","www":"https://www.stadt-zuerich.ch/schulen/de/sihlweid/ueberuns/standorte/kindergaerten.html"}}
,{"type":"Feature","geometry":{"type":"Point","coordinates":[8.51609808721872,47.3246110924232,0]},"properties":{"adresse":"Leimbachstrasse 227","name":"Vista Verde I","ort":"Zürich","plz":"8041","tel":"044 482 18 73","www":"https://www.stadt-zuerich.ch/schulen/de/sihlweid/ueberuns/standorte/kindergaerten.html"}}
,{"type":"Feature","geometry":{"type":"Point","coordinates":[8.51551491547913,47.3261844949875,0]},"properties":{"adresse":"Sihlweidstrasse 2","name":"Sihlweid I","ort":"Zürich","plz":"8041","tel":"044 481 83 03","www":"https://www.stadt-zuerich.ch/schulen/de/sihlweid/ueberuns/standorte/kindergaerten.html"}}
,{"type":"Feature","geometry":{"type":"Point","coordinates":[8.51600240602929,47.3287100603425,0]},"properties":{"adresse":"Hüslibachstrasse 78","name":"Hüslibach","ort":"Zürich","plz":"8041","tel":"044 481 83 22","www":"https://www.stadt-zuerich.ch/schulen/de/sihlweid/ueberuns/standorte/kindergaerten.html"}}
,{"type":"Feature","geometry":{"type":"Point","coordinates":[8.51609808721872,47.3246110924232,0]},"properties":{"adresse":"Leimbachstrasse 227","name":"Vista Verde II","ort":"Zürich","plz":"8041","tel":null,"www":"https://www.stadt-zuerich.ch/schulen/de/sihlweid/ueberuns/standorte/kindergaerten.html"}}
,{"type":"Feature","geometry":{"type":"Point","coordinates":[8.54751861984815,47.3731614638989,0]},"properties":{"adresse":"Hirschengraben 42","name":"Hirschengraben","ort":"Zürich","plz":"8001","tel":"044 419 21 90","www":"https://www.stadt-zuerich.ch/schulen/de/hirschengraben/ueberuns/standorte/kindergaerten.html"}}
,{"type":"Feature","geometry":{"type":"Point","coordinates":[8.54599234573599,47.3726068298623,0]},"properties":{"adresse":"Neumarkt 8","name":"Neumarkt","ort":"Zürich","plz":"8001","tel":"044 251 01 33","www":"https://www.stadt-zuerich.ch/schulen/de/hirschengraben/ueberuns/standorte/kindergaerten.html"}}
,{"type":"Feature","geometry":{"type":"Point","coordinates":[8.53521632822777,47.370154593444,0]},"properties":{"adresse":"Basteiplatz 11","name":"Schanzengraben 1","ort":"Zürich","plz":"8001","tel":"044 413 32 42","www":"https://www.stadt-zuerich.ch/schulen/de/hirschengraben/ueberuns/standorte/kindergaerten.html"}}
,{"type":"Feature","geometry":{"type":"Point","coordinates":[8.53521632822777,47.370154593444,0]},"properties":{"adresse":"Basteiplatz 11","name":"Schanzengraben 2","ort":"Zürich","plz":"8001","tel":"044 413 32 43","www":"https://www.stadt-zuerich.ch/schulen/de/hirschengraben/ueberuns/standorte/kindergaerten.html"}}
,{"type":"Feature","geometry":{"type":"Point","coordinates":[8.57355925840685,47.349365614877,0]},"properties":{"adresse":"Im Walder 1","name":"Im Walder","ort":"Zürich","plz":"8008","tel":"044 422 21 39","www":"https://www.stadt-zuerich.ch/schulen/de/balgrist/ueberuns/standorte/kindergaerten.html"}}
,{"type":"Feature","geometry":{"type":"Point","coordinates":[8.56173489808783,47.3564532899372,0]},"properties":{"adresse":"Kartausstrasse 9","name":"Kartaus","ort":"Zürich","plz":"8008","tel":"044 381 43 24","www":"https://www.stadt-zuerich.ch/schulen/de/balgrist/ueberuns/standorte/kindergaerten.html"}}
,{"type":"Feature","geometry":{"type":"Point","coordinates":[8.55909186822156,47.3559067268469,0]},"properties":{"adresse":"Mühlebachstrasse 180","name":"Münchhalde","ort":"Zürich","plz":"8008","tel":"044 413 03 42","www":"https://www.stadt-zuerich.ch/schulen/de/balgrist/ueberuns/standorte/kindergaerten.html"}}
,{"type":"Feature","geometry":{"type":"Point","coordinates":[8.4984918399209,47.4202873852913,0]},"properties":{"adresse":"Georg-Kempf-Strasse 63","name":"Furttal","ort":"Zürich","plz":"8046","tel":"044 371 29 58","www":"https://www.stadt-zuerich.ch/schulen/de/holderbach/ueberuns/standorte/kindergaerten.html"}}
,{"type":"Feature","geometry":{"type":"Point","coordinates":[8.50380774554416,47.4193703291548,0]},"properties":{"adresse":"Wehntalerstrasse 563","name":"Holderbach I","ort":"Zürich","plz":"8046","tel":"044 413 17 17","www":"https://www.stadt-zuerich.ch/schulen/de/holderbach/ueberuns/standorte/kindergaerten.html"}}
,{"type":"Feature","geometry":{"type":"Point","coordinates":[8.49567632850053,47.4238116344606,0]},"properties":{"adresse":"Im Holzerhurd 41","name":"Holzerhurd","ort":"Zürich","plz":"8046","tel":"044 371 99 90","www":"https://www.stadt-zuerich.ch/schulen/de/holderbach/ueberuns/standorte/kindergaerten.html"}}
,{"type":"Feature","geometry":{"type":"Point","coordinates":[8.49981899890532,47.4192578824433,0]},"properties":{"adresse":"Hungerbergstrasse 45","name":"Hungerberg","ort":"Zürich","plz":"8046","tel":"044 413 74 96","www":"https://www.stadt-zuerich.ch/schulen/de/holderbach/ueberuns/standorte/kindergaerten.html"}}
,{"type":"Feature","geometry":{"type":"Point","coordinates":[8.50412888427677,47.4230504797962,0]},"properties":{"adresse":"Blumenfeldstrasse 50","name":"Blumenfeld I","ort":"Zürich","plz":"8046","tel":"044 413 26 70","www":"https://www.stadt-zuerich.ch/schulen/de/blumenfeld/ueberuns/standorte/kindergaerten.html"}}
,{"type":"Feature","geometry":{"type":"Point","coordinates":[8.50412888427677,47.4230504797962,0]},"properties":{"adresse":"Blumenfeldstrasse 50","name":"Blumenfeld II","ort":"Zürich","plz":"8046","tel":"044 413 26 71","www":"https://www.stadt-zuerich.ch/schulen/de/blumenfeld/ueberuns/standorte/kindergaerten.html"}}
,{"type":"Feature","geometry":{"type":"Point","coordinates":[8.50412888427677,47.4230504797962,0]},"properties":{"adresse":"Blumenfeldstrasse 50","name":"Blumenfeld III","ort":"Zürich","plz":"8046","tel":"044 413 26 72","www":"https://www.stadt-zuerich.ch/schulen/de/blumenfeld/ueberuns/standorte/kindergaerten.html"}}
,{"type":"Feature","geometry":{"type":"Point","coordinates":[8.50412888427677,47.4230504797962,0]},"properties":{"adresse":"Blumenfeldstrasse 50","name":"Blumenfeld IV","ort":"Zürich","plz":"8046","tel":"044 413 26 73","www":"https://www.stadt-zuerich.ch/schulen/de/blumenfeld/ueberuns/standorte/kindergaerten.html"}}
,{"type":"Feature","geometry":{"type":"Point","coordinates":[8.50820753385088,47.4228460278034,0]},"properties":{"adresse":"Zehntenhausstrasse 64","name":"Zehntenhaus II","ort":"Zürich","plz":"8046","tel":"044 413 26 75","www":"https://www.stadt-zuerich.ch/schulen/de/blumenfeld/ueberuns/standorte/kindergaerten.html"}}
,{"type":"Feature","geometry":{"type":"Point","coordinates":[8.53222079292983,47.4157927248948,0]},"properties":{"adresse":"Neunbrunnenstrasse 153","name":"Arnikahof","ort":"Zürich","plz":"8050","tel":"044 413 77 25","www":"https://www.stadt-zuerich.ch/schulen/de/huerstholz/ueberuns/standorte/kindergaerten.html"}}
,{"type":"Feature","geometry":{"type":"Point","coordinates":[8.54018228760786,47.4156426203947,0]},"properties":{"adresse":"Margrit-Rainer-Strasse 5","name":"Im Birch III","ort":"Zürich","plz":"8050","tel":"044 413 07 08","www":"https://www.stadt-zuerich.ch/schulen/de/imbirch/ueberuns/standorte/kindergaerten.html"}}
,{"type":"Feature","geometry":{"type":"Point","coordinates":[8.52539441423462,47.413666438552,0]},"properties":{"adresse":"Binzmühlestrasse 325","name":"Holzmatt","ort":"Zürich","plz":"8046","tel":"044 413 74 07","www":"https://www.stadt-zuerich.ch/schulen/de/huerstholz/ueberuns/standorte/kindergaerten.html"}}
,{"type":"Feature","geometry":{"type":"Point","coordinates":[8.52151380721119,47.4148444382926,0]},"properties":{"adresse":"Seebacherstrasse 491","name":"Hürstholz","ort":"Zürich","plz":"8046","tel":"044 413 23 04","www":"https://www.stadt-zuerich.ch/schulen/de/huerstholz/ueberuns/standorte/kindergaerten.html"}}
,{"type":"Feature","geometry":{"type":"Point","coordinates":[8.51175528679086,47.4225369005776,0]},"properties":{"adresse":"Im Isengrind 16","name":"Isengrind I","ort":"Zürich","plz":"8046","tel":"044 413 75 27","www":"https://www.stadt-zuerich.ch/schulen/de/imisengrind/ueberuns/standorte/kindergaerten.html"}}
,{"type":"Feature","geometry":{"type":"Point","coordinates":[8.5141105024741,47.4231406702936,0]},"properties":{"adresse":"Wolfswinkel 3","name":"Reckenholz I","ort":"Zürich","plz":"8046","tel":"044 413 22 83","www":"https://www.stadt-zuerich.ch/schulen/de/imisengrind/ueberuns/standorte/kindergaerten.html"}}
,{"type":"Feature","geometry":{"type":"Point","coordinates":[8.50820753385088,47.4228460278034,0]},"properties":{"adresse":"Zehntenhausstrasse 64","name":"Zehntenhaus I","ort":"Zürich","plz":"8046","tel":"044 413 26 74","www":"https://www.stadt-zuerich.ch/schulen/de/blumenfeld/ueberuns/standorte/kindergaerten.html"}}
,{"type":"Feature","geometry":{"type":"Point","coordinates":[8.55802516755085,47.354273573499,0]},"properties":{"adresse":"Seefeldstrasse 189","name":"Tiefenbrunnen","ort":"Zürich","plz":"8008","tel":"079 790 73 45","www":"https://www.stadt-zuerich.ch/schulen/de/balgrist/ueberuns/standorte/kindergaerten.html"}}
,{"type":"Feature","geometry":{"type":"Point","coordinates":[8.57746659163571,47.3543230543193,0]},"properties":{"adresse":"Balgriststrasse 55","name":"Balgrist 1","ort":"Zürich","plz":"8008","tel":"044 413 29 85","www":"https://www.stadt-zuerich.ch/schulen/de/balgrist/ueberuns/standorte/kindergaerten.html"}}
,{"type":"Feature","geometry":{"type":"Point","coordinates":[8.56099915859461,47.3719908604631,0]},"properties":{"adresse":"Hofstrasse 60","name":"Bungertwies 1","ort":"Zürich","plz":"8032","tel":"044 413 16 06","www":"https://www.stadt-zuerich.ch/schulen/de/bungertwies/ueberuns/standorte/kindergaerten.html"}}
,{"type":"Feature","geometry":{"type":"Point","coordinates":[8.56099915859461,47.3719908604631,0]},"properties":{"adresse":"Hofstrasse 60","name":"Bungertwies 2","ort":"Zürich","plz":"8032","tel":"044 413 16 07","www":"https://www.stadt-zuerich.ch/schulen/de/bungertwies/ueberuns/standorte/kindergaerten.html"}}
,{"type":"Feature","geometry":{"type":"Point","coordinates":[8.55889895882221,47.3760418876206,0]},"properties":{"adresse":"Hochstrasse 118","name":"Fluntern 2","ort":"Zürich","plz":"8044","tel":"044 413 20 22","www":"https://www.stadt-zuerich.ch/schulen/de/fluntern/ueberuns/standorte/kindergaerten.html"}}
,{"type":"Feature","geometry":{"type":"Point","coordinates":[8.56492600964184,47.3781743050852,0]},"properties":{"adresse":"Krähbühlstrasse 50","name":"Krähbühl","ort":"Zürich","plz":"8044","tel":"044 251 15 00","www":"https://www.stadt-zuerich.ch/schulen/de/fluntern/ueberuns/standorte/kindergaerten.html"}}
,{"type":"Feature","geometry":{"type":"Point","coordinates":[8.55210280117029,47.3806869213451,0]},"properties":{"adresse":"Hochstrasse 25","name":"Hochstrasse 1","ort":"Zürich","plz":"8044","tel":"044 413 74 14","www":"https://www.stadt-zuerich.ch/schulen/de/fluntern/ueberuns/standorte/kindergaerten.html"}}
,{"type":"Feature","geometry":{"type":"Point","coordinates":[8.55889895882221,47.3760418876206,0]},"properties":{"adresse":"Hochstrasse 118","name":"Fluntern 1","ort":"Zürich","plz":"8044","tel":"044 413 20 21","www":"https://www.stadt-zuerich.ch/schulen/de/fluntern/ueberuns/standorte/kindergaerten.html"}}
,{"type":"Feature","geometry":{"type":"Point","coordinates":[8.56542343245636,47.3816361198285,0]},"properties":{"adresse":"Heubeeriweg 30","name":"Heubeeribüel 1","ort":"Zürich","plz":"8044","tel":"044 413 20 11","www":"https://www.stadt-zuerich.ch/schulen/de/fluntern/ueberuns/standorte/kindergaerten.html"}}
,{"type":"Feature","geometry":{"type":"Point","coordinates":[8.55350166042693,47.3825024575133,0]},"properties":{"adresse":"Toblerstrasse 11","name":"Hadlaub","ort":"Zürich","plz":"8044","tel":"044 413 76 39","www":"https://www.stadt-zuerich.ch/schulen/de/fluntern/ueberuns/standorte/kindergaerten.html"}}
,{"type":"Feature","geometry":{"type":"Point","coordinates":[8.56036168423016,47.3689914198972,0]},"properties":{"adresse":"Ilgenstrasse 15","name":"Ilgen 1","ort":"Zürich","plz":"8032","tel":"044 413 00 90","www":"https://www.stadt-zuerich.ch/schulen/de/ilgen/ueberuns/standorte/kindergaerten.html"}}
,{"type":"Feature","geometry":{"type":"Point","coordinates":[8.56003868401652,47.3702729794894,0]},"properties":{"adresse":"Sennhauserweg 10","name":"Sennhauserweg 1","ort":"Zürich","plz":"8032","tel":"044 413 01 08","www":"https://www.stadt-zuerich.ch/schulen/de/ilgen/ueberuns/standorte/kindergaerten.html"}}
,{"type":"Feature","geometry":{"type":"Point","coordinates":[8.56003868401652,47.3702729794894,0]},"properties":{"adresse":"Sennhauserweg 10","name":"Sennhauserweg 2","ort":"Zürich","plz":"8032","tel":"044 413 01 09","www":"https://www.stadt-zuerich.ch/schulen/de/ilgen/ueberuns/standorte/kindergaerten.html"}}
,{"type":"Feature","geometry":{"type":"Point","coordinates":[8.55872896151439,47.3665682288896,0]},"properties":{"adresse":"Freiestrasse 100","name":"Freiestrasse","ort":"Zürich","plz":"8032","tel":"044 383 42 51","www":"https://www.stadt-zuerich.ch/schulen/de/ilgen/ueberuns/standorte/kindergaerten.html"}}
,{"type":"Feature","geometry":{"type":"Point","coordinates":[8.56036168423016,47.3689914198972,0]},"properties":{"adresse":"Ilgenstrasse 15","name":"Ilgen 2","ort":"Zürich","plz":"8032","tel":"044 413 00 97","www":"https://www.stadt-zuerich.ch/schulen/de/ilgen/ueberuns/standorte/kindergaerten.html"}}
,{"type":"Feature","geometry":{"type":"Point","coordinates":[8.58427299621716,47.360822674147,0]},"properties":{"adresse":"Buchholzstrasse 53","name":"Buchholz 1","ort":"Zürich","plz":"8053","tel":"044 413 75 88","www":"https://www.stadt-zuerich.ch/schulen/de/looren/ueberuns/standorte/kindergaerten.html"}}
,{"type":"Feature","geometry":{"type":"Point","coordinates":[8.51116625003502,47.414726742779,0]},"properties":{"adresse":"Bergacker 76a","name":"Bergacker I","ort":"Zürich","plz":"8046","tel":"044 413 74 49","www":"https://www.stadt-zuerich.ch/schulen/de/schauenberg/ueberuns/standorte/kindergaerten.html"}}
,{"type":"Feature","geometry":{"type":"Point","coordinates":[8.51750183280312,47.4140413681543,0]},"properties":{"adresse":"Obsthaldenstrasse 88","name":"Obsthalden","ort":"Zürich","plz":"8046","tel":"044 371 01 37","www":"https://www.stadt-zuerich.ch/schulen/de/schauenberg/ueberuns/standorte/kindergaerten.html"}}
,{"type":"Feature","geometry":{"type":"Point","coordinates":[8.53667175309999,47.4093617054321,0]},"properties":{"adresse":"Regensbergstrasse 195","name":"Holunderhof I","ort":"Zürich","plz":"8050","tel":"044 413 77 09","www":"https://www.stadt-zuerich.ch/schulen/de/kuegeliloo/ueberuns/standorte/kindergaerten.html"}}
,{"type":"Feature","geometry":{"type":"Point","coordinates":[8.53302958113074,47.4164646892496,0]},"properties":{"adresse":"Neunbrunnenstrasse 130","name":"Neunbrunnen Beta","ort":"Zürich","plz":"8050","tel":"044 413 77 69","www":"https://www.stadt-zuerich.ch/schulen/de/huerstholz/ueberuns/standorte/kindergaerten.html"}}
,{"type":"Feature","geometry":{"type":"Point","coordinates":[8.54018228760786,47.4156426203947,0]},"properties":{"adresse":"Margrit-Rainer-Strasse 5","name":"Im Birch I","ort":"Zürich","plz":"8050","tel":"044 413 07 06","www":"https://www.stadt-zuerich.ch/schulen/de/imbirch/ueberuns/standorte/kindergaerten.html"}}
,{"type":"Feature","geometry":{"type":"Point","coordinates":[8.51175528679086,47.4225369005776,0]},"properties":{"adresse":"Im Isengrind 16","name":"Isengrind II","ort":"Zürich","plz":"8046","tel":"044 413 75 07","www":"https://www.stadt-zuerich.ch/schulen/de/imisengrind/ueberuns/standorte/kindergaerten.html"}}
,{"type":"Feature","geometry":{"type":"Point","coordinates":[8.55566806168797,47.4066086047733,0]},"properties":{"adresse":"Apfelbaumstrasse 31","name":"Apfelbaum I","ort":"Zürich","plz":"8050","tel":"044 413 28 31","www":"https://www.stadt-zuerich.ch/schulen/de/apfelbaum/ueberuns/standorte/kindergaerten.html"}}
,{"type":"Feature","geometry":{"type":"Point","coordinates":[8.55566806168797,47.4066086047733,0]},"properties":{"adresse":"Apfelbaumstrasse 31","name":"Apfelbaum II","ort":"Zürich","plz":"8050","tel":"044 413 28 32","www":"https://www.stadt-zuerich.ch/schulen/de/apfelbaum/ueberuns/standorte/kindergaerten.html"}}
,{"type":"Feature","geometry":{"type":"Point","coordinates":[8.54637881927895,47.4067753837762,0]},"properties":{"adresse":"Regensbergstrasse 108","name":"Halde A1","ort":"Zürich","plz":"8050","tel":"044 413 24 24","www":"https://www.stadt-zuerich.ch/schulen/de/gubel/ueberuns/standorte/kindergaerten.html"}}
,{"type":"Feature","geometry":{"type":"Point","coordinates":[8.54534981333733,47.4072304338325,0]},"properties":{"adresse":"Regensbergstrasse 116","name":"Halde C1","ort":"Zürich","plz":"8050","tel":"044 413 24 26","www":"https://www.stadt-zuerich.ch/schulen/de/gubel/ueberuns/standorte/kindergaerten.html"}}
,{"type":"Feature","geometry":{"type":"Point","coordinates":[8.54710841103327,47.4059393408636,0]},"properties":{"adresse":"Oerlikonerstrasse 98","name":"Oerlikoner","ort":"Zürich","plz":"8057","tel":"044 413 77 21","www":"https://www.stadt-zuerich.ch/schulen/de/gubel/ueberuns/standorte/kindergaerten.html"}}
,{"type":"Feature","geometry":{"type":"Point","coordinates":[8.54534981333733,47.4072304338325,0]},"properties":{"adresse":"Regensbergstrasse 116","name":"Halde C2","ort":"Zürich","plz":"8050","tel":"044 413 24 25","www":"https://www.stadt-zuerich.ch/schulen/de/gubel/ueberuns/standorte/kindergaerten.html"}}
,{"type":"Feature","geometry":{"type":"Point","coordinates":[8.54775332572101,47.4231464259202,0]},"properties":{"adresse":"Am Katzenbach 5","name":"Am Katzenbach I","ort":"Zürich","plz":"8052","tel":"044 301 05 72","www":"https://www.stadt-zuerich.ch/schulen/de/buhn/ueberuns/standorte/kindergaerten.html"}}
,{"type":"Feature","geometry":{"type":"Point","coordinates":[8.54690007572227,47.4228216755288,0]},"properties":{"adresse":"Katzenbachstrasse 90","name":"Katzenbach I","ort":"Zürich","plz":"8052","tel":"044 413 76 66","www":"https://www.stadt-zuerich.ch/schulen/de/buhn/ueberuns/standorte/kindergaerten.html"}}
,{"type":"Feature","geometry":{"type":"Point","coordinates":[8.54925941575267,47.4167629658764,0]},"properties":{"adresse":"Kosakenweg 4","name":"Kosaken I","ort":"Zürich","plz":"8052","tel":"044 302 69 53","www":"https://www.stadt-zuerich.ch/schulen/de/buhn/ueberuns/standorte/kindergaerten.html"}}
,{"type":"Feature","geometry":{"type":"Point","coordinates":[8.5895667530125,47.3603032873362,0]},"properties":{"adresse":"Lehfrauenweg 24","name":"Lehfrauenweg","ort":"Zürich","plz":"8053","tel":"044 422 25 39","www":"https://www.stadt-zuerich.ch/schulen/de/looren/ueberuns/standorte/kindergaerten.html"}}
,{"type":"Feature","geometry":{"type":"Point","coordinates":[8.6008922419241,47.3546281448592,0]},"properties":{"adresse":"Trichtenhausenstrasse 128","name":"Steinacker 1","ort":"Zürich","plz":"8053","tel":"044 413 74 77","www":"https://www.stadt-zuerich.ch/schulen/de/looren/ueberuns/standorte/kindergaerten.html"}}
,{"type":"Feature","geometry":{"type":"Point","coordinates":[8.58121824254391,47.3593346858985,0]},"properties":{"adresse":"Witikonerstrasse 238","name":"Witikonerstrasse","ort":"Zürich","plz":"8053","tel":"044 413 74  93","www":"https://www.stadt-zuerich.ch/schulen/de/looren/ueberuns/standorte/kindergaerten.html"}}
,{"type":"Feature","geometry":{"type":"Point","coordinates":[8.58665801364659,47.3567268692581,0]},"properties":{"adresse":"Heilighüsli 19","name":"Langmatt","ort":"Zürich","plz":"8053","tel":"044 413 13 03","www":"https://www.stadt-zuerich.ch/schulen/de/looren/ueberuns/standorte/kindergaerten.html"}}
,{"type":"Feature","geometry":{"type":"Point","coordinates":[8.6008922419241,47.3546281448592,0]},"properties":{"adresse":"Trichtenhausenstrasse 128","name":"Steinacker 2","ort":"Zürich","plz":"8053","tel":"044 413 75 32","www":"https://www.stadt-zuerich.ch/schulen/de/looren/ueberuns/standorte/kindergaerten.html"}}
,{"type":"Feature","geometry":{"type":"Point","coordinates":[8.58427299621716,47.360822674147,0]},"properties":{"adresse":"Buchholzstrasse 53","name":"Buchholz 2","ort":"Zürich","plz":"8053","tel":"044 413 75 90","www":"https://www.stadt-zuerich.ch/schulen/de/looren/ueberuns/standorte/kindergaerten.html"}}
,{"type":"Feature","geometry":{"type":"Point","coordinates":[8.59610878093156,47.3612099266835,0]},"properties":{"adresse":"Katzenschwanzstrasse 7","name":"Looren A 2","ort":"Zürich","plz":"8053","tel":"044 413 33 32","www":"https://www.stadt-zuerich.ch/schulen/de/looren/ueberuns/standorte/kindergaerten.html"}}
,{"type":"Feature","geometry":{"type":"Point","coordinates":[8.59610878093156,47.3612099266835,0]},"properties":{"adresse":"Katzenschwanzstrasse 7","name":"Looren A 1","ort":"Zürich","plz":"8053","tel":"044 413 33 31","www":"https://www.stadt-zuerich.ch/schulen/de/looren/ueberuns/standorte/kindergaerten.html"}}
,{"type":"Feature","geometry":{"type":"Point","coordinates":[8.54203623991384,47.3954484929372,0]},"properties":{"adresse":"Stüssistrasse 94","name":"Stüssistrasse","ort":"Zürich","plz":"8057","tel":"044 413 74 13","www":"https://www.stadt-zuerich.ch/schulen/de/milchbuck/ueberuns/standorte/kindergaerten.html"}}
,{"type":"Feature","geometry":{"type":"Point","coordinates":[8.53644650862538,47.3958205712599,0]},"properties":{"adresse":"Zeppelinstrasse 47","name":"Zeppelinstrasse","ort":"Zürich","plz":"8057","tel":"044 413 74 11","www":"https://www.stadt-zuerich.ch/schulen/de/milchbuck/ueberuns/standorte/kindergaerten.html"}}
,{"type":"Feature","geometry":{"type":"Point","coordinates":[8.53866554711403,47.3960808798628,0]},"properties":{"adresse":"Guggachstrasse 11","name":"Milchbuck Pavillon 2","ort":"Zürich","plz":"8057","tel":"044 413 27 65","www":"https://www.stadt-zuerich.ch/schulen/de/milchbuck/ueberuns/standorte/kindergaerten.html"}}
,{"type":"Feature","geometry":{"type":"Point","coordinates":[8.53866554711403,47.3960808798628,0]},"properties":{"adresse":"Guggachstrasse 11","name":"Milchbuck Pavillon 1","ort":"Zürich","plz":"8057","tel":"044 413 27 64","www":"https://www.stadt-zuerich.ch/schulen/de/milchbuck/ueberuns/standorte/kindergaerten.html"}}
,{"type":"Feature","geometry":{"type":"Point","coordinates":[8.53866554711403,47.3960808798628,0]},"properties":{"adresse":"Guggachstrasse 11","name":"Milchbuck Pavillon 3","ort":"Zürich","plz":"8057","tel":"044 413 27 62","www":"https://www.stadt-zuerich.ch/schulen/de/milchbuck/ueberuns/standorte/kindergaerten.html"}}
,{"type":"Feature","geometry":{"type":"Point","coordinates":[8.52599765082983,47.3931437209684,0]},"properties":{"adresse":"Habsburgstrasse 42","name":"Habsburgstrasse","ort":"Zürich","plz":"8037","tel":"044 413 76 82","www":"https://www.stadt-zuerich.ch/schulen/de/nordstrasse/ueberuns/standorte/kindergaerten.html"}}
,{"type":"Feature","geometry":{"type":"Point","coordinates":[8.52808295660658,47.3922851088199,0]},"properties":{"adresse":"Landenbergstrasse 14","name":"Landenbergstrasse","ort":"Zürich","plz":"8037","tel":"044 413 77 29","www":"https://www.stadt-zuerich.ch/schulen/de/nordstrasse/ueberuns/standorte/kindergaerten.html"}}
,{"type":"Feature","geometry":{"type":"Point","coordinates":[8.5420582459089,47.4229220556417,0]},"properties":{"adresse":"Seebacherstrasse 63","name":"Seebacher I","ort":"Zürich","plz":"8052","tel":"044 413 76 29","www":"https://www.stadt-zuerich.ch/schulen/de/buhn/ueberuns/standorte/kindergaerten.html"}}
,{"type":"Feature","geometry":{"type":"Point","coordinates":[8.52956376450368,47.4105064970941,0]},"properties":{"adresse":"Maienstrasse 21","name":"Kügeliloo","ort":"Zürich","plz":"8050","tel":"044 413 22 56","www":"https://www.stadt-zuerich.ch/schulen/de/kuegeliloo/ueberuns/standorte/kindergaerten.html"}}
,{"type":"Feature","geometry":{"type":"Point","coordinates":[8.55303165021936,47.4071112162404,0]},"properties":{"adresse":"Salvatorstrasse 18","name":"Salvator I","ort":"Zürich","plz":"8050","tel":"044 413 77 27","www":"https://www.stadt-zuerich.ch/schulen/de/apfelbaum/ueberuns/standorte/kindergaerten.html"}}
,{"type":"Feature","geometry":{"type":"Point","coordinates":[8.53194217599234,47.4163341255141,0]},"properties":{"adresse":"Neunbrunnenstrasse 150","name":"Neunbrunnen Alpha","ort":"Zürich","plz":"8046","tel":"044 413 77 24","www":"https://www.stadt-zuerich.ch/schulen/de/huerstholz/ueberuns/standorte/kindergaerten.html"}}
,{"type":"Feature","geometry":{"type":"Point","coordinates":[8.54978970548472,47.4278182042892,0]},"properties":{"adresse":"Stiglenstrasse 40","name":"Stiglen","ort":"Zürich","plz":"8052","tel":"044 413 76 04","www":"https://www.stadt-zuerich.ch/schulen/de/kolbenacker/ueberuns/standorte/kindergaerten.html"}}
,{"type":"Feature","geometry":{"type":"Point","coordinates":[8.53246831456531,47.4122805356994,0]},"properties":{"adresse":"Regina-Kägi-Hof 10","name":"Regina-Kägi-Hof II","ort":"Zürich","plz":"8050","tel":"044 413 75 22","www":"https://www.stadt-zuerich.ch/schulen/de/kuegeliloo/ueberuns/standorte/kindergaerten.html"}}
,{"type":"Feature","geometry":{"type":"Point","coordinates":[8.5106948019355,47.4193088840716,0]},"properties":{"adresse":"Riedenhaldenstrasse 236","name":"Riedenhalden I","ort":"Zürich","plz":"8046","tel":"044 413 26 17","www":"https://www.stadt-zuerich.ch/schulen/de/riedenhalden/ueberuns/standorte/kindergaerten.html"}}
,{"type":"Feature","geometry":{"type":"Point","coordinates":[8.5420582459089,47.4229220556417,0]},"properties":{"adresse":"Seebacherstrasse 63","name":"Seebacher II","ort":"Zürich","plz":"8052","tel":"044 413 76 30","www":"https://www.stadt-zuerich.ch/schulen/de/buhn/ueberuns/standorte/kindergaerten.html"}}
,{"type":"Feature","geometry":{"type":"Point","coordinates":[8.51980216449367,47.3801580323079,0]},"properties":{"adresse":"Erismannhof 2","name":"Erismannhof 1","ort":"Zürich","plz":"8004","tel":"044 413 76 43","www":"https://www.stadt-zuerich.ch/schulen/de/sihlfeld/ueberuns/standorte/kindergaerten.html"}}
,{"type":"Feature","geometry":{"type":"Point","coordinates":[8.51813179927126,47.3777623646953,0]},"properties":{"adresse":"Kanzleistrasse 161","name":"Kanzlei ABZ","ort":"Zürich","plz":"8004","tel":"044 413 75 73","www":"https://www.stadt-zuerich.ch/schulen/de/sihlfeld/ueberuns/standorte/kindergaerten.html"}}
,{"type":"Feature","geometry":{"type":"Point","coordinates":[8.51742787363794,47.3766160027704,0]},"properties":{"adresse":"Karl-Bürkli-Strasse 7","name":"Lochergut","ort":"Zürich","plz":"8004","tel":"044 413 75 08","www":"https://www.stadt-zuerich.ch/schulen/de/sihlfeld/ueberuns/standorte/kindergaerten.html"}}
,{"type":"Feature","geometry":{"type":"Point","coordinates":[8.52411144370515,47.3789201854032,0]},"properties":{"adresse":"Hohlstrasse 86c","name":"Hellmi 1","ort":"Zürich","plz":"8004","tel":"044 291 33 11","www":"https://www.stadt-zuerich.ch/schulen/de/aussersihl/ueberuns/standorte/kindergaerten.html"}}
,{"type":"Feature","geometry":{"type":"Point","coordinates":[8.52487054363257,47.3781951777281,0]},"properties":{"adresse":"Hohlstrasse 68","name":"Hohl 1","ort":"Zürich","plz":"8004","tel":"044 413 21 56","www":"https://www.stadt-zuerich.ch/schulen/de/aussersihl/ueberuns/standorte/kindergaerten.html"}}
,{"type":"Feature","geometry":{"type":"Point","coordinates":[8.50470592567435,47.3717941333991,0]},"properties":{"adresse":"Gutstrasse 107","name":"Gut 1","ort":"Zürich","plz":"8055","tel":"044 413 17 34","www":"https://www.stadt-zuerich.ch/schulen/de/imgut/ueberuns/standorte/kindergaerten.html"}}
,{"type":"Feature","geometry":{"type":"Point","coordinates":[8.50828973526938,47.3712260267674,0]},"properties":{"adresse":"Leonhard-Ragaz-Weg 5","name":"Leonhard Ragaz","ort":"Zürich","plz":"8055","tel":"044 413 74 90","www":"https://www.stadt-zuerich.ch/schulen/de/imgut/ueberuns/standorte/kindergaerten.html"}}
,{"type":"Feature","geometry":{"type":"Point","coordinates":[8.53003211471185,47.3861640266574,0]},"properties":{"adresse":"Limmatstrasse 176","name":"Kornhaus","ort":"Zürich","plz":"8005","tel":"044 413 33 14","www":"https://www.stadt-zuerich.ch/schulen/de/kornhaus/ueberuns/standorte/kindergaerten.html"}}
,{"type":"Feature","geometry":{"type":"Point","coordinates":[8.53043592279924,47.3942824834146,0]},"properties":{"adresse":"Rötelsteig 9","name":"Nordbrücke","ort":"Zürich","plz":"8037","tel":"044 413 73 17","www":"https://www.stadt-zuerich.ch/schulen/de/nordstrasse/ueberuns/standorte/kindergaerten.html"}}
,{"type":"Feature","geometry":{"type":"Point","coordinates":[8.48823399911405,47.4080304849204,0]},"properties":{"adresse":"Wildenweg 11","name":"Wildenweg 2","ort":"Zürich","plz":"8049","tel":"044 413 23 77","www":"https://www.stadt-zuerich.ch/schulen/de/riedhof/ueberuns/standorte/kindergaerten.html"}}
,{"type":"Feature","geometry":{"type":"Point","coordinates":[8.48602469933119,47.4022331349611,0]},"properties":{"adresse":"Winzerhalde 79","name":"Winzerhalde 2","ort":"Zürich","plz":"8049","tel":"044 413 78 86","www":"https://www.stadt-zuerich.ch/schulen/de/riedhof/ueberuns/standorte/kindergaerten.html"}}
,{"type":"Feature","geometry":{"type":"Point","coordinates":[8.48363339410277,47.4055126067646,0]},"properties":{"adresse":"Frankentalerstrasse 28a","name":"Bombach 2","ort":"Zürich","plz":"8049","tel":"044 413 77 19","www":"https://www.stadt-zuerich.ch/schulen/de/riedhof/ueberuns/standorte/kindergaerten.html"}}
,{"type":"Feature","geometry":{"type":"Point","coordinates":[8.48363339410277,47.4055126067646,0]},"properties":{"adresse":"Frankentalerstrasse 28a","name":"Bombach 1","ort":"Zürich","plz":"8049","tel":"044 413 77 18","www":"https://www.stadt-zuerich.ch/schulen/de/riedhof/ueberuns/standorte/kindergaerten.html"}}
,{"type":"Feature","geometry":{"type":"Point","coordinates":[8.48878479850481,47.4049296824748,0]},"properties":{"adresse":"Imbisbühlstrasse 80","name":"Lachenzelg","ort":"Zürich","plz":"8049","tel":"044 413 32 92","www":"https://www.stadt-zuerich.ch/schulen/de/riedhof/ueberuns/standorte/kindergaerten.html"}}
,{"type":"Feature","geometry":{"type":"Point","coordinates":[8.48883546631535,47.4044627065971,0]},"properties":{"adresse":"Imbisbühlstrasse 79","name":"Pünten","ort":"Zürich","plz":"8049","tel":"044 413 01 92","www":"https://www.stadt-zuerich.ch/schulen/de/riedhof/ueberuns/standorte/kindergaerten.html"}}
,{"type":"Feature","geometry":{"type":"Point","coordinates":[8.48823399911405,47.4080304849204,0]},"properties":{"adresse":"Wildenweg 11","name":"Wildenweg 1","ort":"Zürich","plz":"8049","tel":"044 413 23 77","www":"https://www.stadt-zuerich.ch/schulen/de/riedhof/ueberuns/standorte/kindergaerten.html"}}
,{"type":"Feature","geometry":{"type":"Point","coordinates":[8.48804306686804,47.4012884328472,0]},"properties":{"adresse":"Winzerhalde 62a","name":"Winzerhalde 1","ort":"Zürich","plz":"8049","tel":"044 413 75 65","www":"https://www.stadt-zuerich.ch/schulen/de/riedhof/ueberuns/standorte/kindergaerten.html"}}
,{"type":"Feature","geometry":{"type":"Point","coordinates":[8.47875352905224,47.4131858863561,0]},"properties":{"adresse":"Giblenstrasse 60","name":"Giblenstrasse 2","ort":"Zürich","plz":"8049","tel":"044 413 76 56","www":"https://www.stadt-zuerich.ch/schulen/de/ruetihof/ueberuns/standorte/kindergaerten.html"}}
,{"type":"Feature","geometry":{"type":"Point","coordinates":[8.48099413644986,47.414438210034,0]},"properties":{"adresse":"Geeringstrasse 30a","name":"Geeringstrasse 2","ort":"Zürich","plz":"8049","tel":"044 413 76 53","www":"https://www.stadt-zuerich.ch/schulen/de/ruetihof/ueberuns/standorte/kindergaerten.html"}}
,{"type":"Feature","geometry":{"type":"Point","coordinates":[8.48099413644986,47.414438210034,0]},"properties":{"adresse":"Geeringstrasse 30a","name":"Geeringstrasse 1","ort":"Zürich","plz":"8049","tel":"044 413 76 54","www":"https://www.stadt-zuerich.ch/schulen/de/ruetihof/ueberuns/standorte/kindergaerten.html"}}
,{"type":"Feature","geometry":{"type":"Point","coordinates":[8.47875352905224,47.4131858863561,0]},"properties":{"adresse":"Giblenstrasse 60","name":"Giblenstrasse 1","ort":"Zürich","plz":"8049","tel":"044 413 76 55","www":"https://www.stadt-zuerich.ch/schulen/de/ruetihof/ueberuns/standorte/kindergaerten.html"}}
,{"type":"Feature","geometry":{"type":"Point","coordinates":[8.54664831221166,47.3846870041034,0]},"properties":{"adresse":"Stapferstrasse 51","name":"Scherr 1","ort":"Zürich","plz":"8006","tel":"044 413 74 68","www":"https://www.stadt-zuerich.ch/schulen/de/scherr/ueberuns/standorte/kindergaerten.html"}}
,{"type":"Feature","geometry":{"type":"Point","coordinates":[8.54766519741102,47.3862026402411,0]},"properties":{"adresse":"Ottikerweg 9","name":"Ottikerweg 1","ort":"Zürich","plz":"8006","tel":"044 413 74 24","www":"https://www.stadt-zuerich.ch/schulen/de/scherr/ueberuns/standorte/kindergaerten.html"}}
,{"type":"Feature","geometry":{"type":"Point","coordinates":[8.53434701320434,47.3835321914438,0]},"properties":{"adresse":"Ausstellungsstrasse 81","name":"Limmat B","ort":"Zürich","plz":"8005","tel":"043 204 00 58","www":"https://www.stadt-zuerich.ch/schulen/de/limmat/ueberuns/standorte/kindergaerten.html"}}
,{"type":"Feature","geometry":{"type":"Point","coordinates":[8.53434701320434,47.3835321914438,0]},"properties":{"adresse":"Ausstellungsstrasse 81","name":"Limmat C 1","ort":"Zürich","plz":"8005","tel":null,"www":"https://www.stadt-zuerich.ch/schulen/de/limmat/ueberuns/standorte/kindergaerten.html"}}
,{"type":"Feature","geometry":{"type":"Point","coordinates":[8.50292443655192,47.3797143403926,0]},"properties":{"adresse":"Letzigraben 25a","name":"Letzigraben 2","ort":"Zürich","plz":"8003","tel":"044 413 76 15","www":"https://www.stadt-zuerich.ch/schulen/de/aemtler_a/ueberuns/standorte/kindergaerten.html"}}
,{"type":"Feature","geometry":{"type":"Point","coordinates":[8.52631591825213,47.3867016805823,0]},"properties":{"adresse":"Heinrichstrasse 143","name":"Heinrich 143 B","ort":"Zürich","plz":"8005","tel":"044 413 76 19","www":"https://www.stadt-zuerich.ch/schulen/de/kornhaus/ueberuns/standorte/kindergaerten.html"}}
,{"type":"Feature","geometry":{"type":"Point","coordinates":[8.5146683342753,47.3793152707448,0]},"properties":{"adresse":"Bullingerstrasse 5","name":"Bullingerhof 2","ort":"Zürich","plz":"8004","tel":"044 413 75 69","www":"https://www.stadt-zuerich.ch/schulen/de/sihlfeld/ueberuns/standorte/kindergaerten.html"}}
,{"type":"Feature","geometry":{"type":"Point","coordinates":[8.51657988184243,47.3740070097613,0]},"properties":{"adresse":"Zentralstrasse 105","name":"Wiedikon 1","ort":"Zürich","plz":"8003","tel":"044 413 19 89","www":"https://www.stadt-zuerich.ch/schulen/de/zurlinden/ueberuns/standorte/kindergaerten.html"}}
,{"type":"Feature","geometry":{"type":"Point","coordinates":[8.51657988184243,47.3740070097613,0]},"properties":{"adresse":"Zentralstrasse 105","name":"Wiedikon 2","ort":"Zürich","plz":"8003","tel":"044 413 19 89","www":"https://www.stadt-zuerich.ch/schulen/de/zurlinden/ueberuns/standorte/kindergaerten.html"}}
,{"type":"Feature","geometry":{"type":"Point","coordinates":[8.51657988184243,47.3740070097613,0]},"properties":{"adresse":"Zentralstrasse 105","name":"Wiedikon 3","ort":"Zürich","plz":"8003","tel":"044 413 19 89","www":"https://www.stadt-zuerich.ch/schulen/de/zurlinden/ueberuns/standorte/kindergaerten.html"}}
,{"type":"Feature","geometry":{"type":"Point","coordinates":[8.51006518555974,47.3814005399104,0]},"properties":{"adresse":"Bullingerstrasse 73","name":"Hardau Zentrum","ort":"Zürich","plz":"8004","tel":"044 413 75 06","www":"https://www.stadt-zuerich.ch/schulen/de/hardau/ueberuns/standorte/kindergaerten.html"}}
,{"type":"Feature","geometry":{"type":"Point","coordinates":[8.52549648617453,47.378926331398,0]},"properties":{"adresse":"Brauerstrasse 66","name":"Brauer 1","ort":"Zürich","plz":"8004","tel":"044 413 21 32","www":"https://www.stadt-zuerich.ch/schulen/de/aussersihl/ueberuns/standorte/kindergaerten.html"}}
,{"type":"Feature","geometry":{"type":"Point","coordinates":[8.57107595705657,47.402872009427,0]},"properties":{"adresse":"Heinrich-Bosshardt-Strasse 19","name":"Heinrich Bosshardt","ort":"Zürich","plz":"8051","tel":"044 413 11 30","www":"https://www.stadt-zuerich.ch/schulen/de/ahorn/ueberuns/standorte/kindergaerten.html"}}
,{"type":"Feature","geometry":{"type":"Point","coordinates":[8.5763850149216,47.4100885359688,0]},"properties":{"adresse":"Glattstegweg 110","name":"Glattstegweg","ort":"Zürich","plz":"8051","tel":"044 413 76 76","www":"https://www.stadt-zuerich.ch/schulen/de/auhof/ueberuns/standorte/kindergaerten.html"}}
,{"type":"Feature","geometry":{"type":"Point","coordinates":[8.56894417462672,47.4087261657457,0]},"properties":{"adresse":"Luegislandstrasse 133","name":"Luegislandstrasse","ort":"Zürich","plz":"8051","tel":"044 413 77 60 / 59","www":"https://www.stadt-zuerich.ch/schulen/de/auhof/ueberuns/standorte/kindergaerten.html"}}
,{"type":"Feature","geometry":{"type":"Point","coordinates":[8.57231938956613,47.4068901313595,0]},"properties":{"adresse":"Herzogenmühlestrasse 41","name":"Auhof","ort":"Zürich","plz":"8051","tel":"Auhof I 044 413 00 12","www":"https://www.stadt-zuerich.ch/schulen/de/auhof/ueberuns/standorte/kindergaerten.html"}}
,{"type":"Feature","geometry":{"type":"Point","coordinates":[8.59231192881573,47.3992235542198,0]},"properties":{"adresse":"Mattenhof 1a","name":"Mattenhof I","ort":"Zürich","plz":"8051","tel":"044 413 74 04","www":"https://www.stadt-zuerich.ch/schulen/de/mattenhof/ueberuns/standorte/kindergaerten.html"}}
,{"type":"Feature","geometry":{"type":"Point","coordinates":[8.54766519741102,47.3862026402411,0]},"properties":{"adresse":"Ottikerweg 9","name":"Ottikerweg 3","ort":"Zürich","plz":"8006","tel":"044 413 74 46","www":"https://www.stadt-zuerich.ch/schulen/de/scherr/ueberuns/standorte/kindergaerten.html"}}
,{"type":"Feature","geometry":{"type":"Point","coordinates":[8.54766519741102,47.3862026402411,0]},"properties":{"adresse":"Ottikerweg 9","name":"Ottikerweg 2","ort":"Zürich","plz":"8006","tel":"044 413 74 45","www":"https://www.stadt-zuerich.ch/schulen/de/scherr/ueberuns/standorte/kindergaerten.html"}}
,{"type":"Feature","geometry":{"type":"Point","coordinates":[8.49968255550285,47.4041227518289,0]},"properties":{"adresse":"Ferdinand-Hodler-Strasse 23","name":"Vogtsrain 2","ort":"Zürich","plz":"8049","tel":"044 413 09 45","www":"https://www.stadt-zuerich.ch/schulen/de/vogtsrain/ueberuns/standorte/kindergaerten.html"}}
,{"type":"Feature","geometry":{"type":"Point","coordinates":[8.49968255550285,47.4041227518289,0]},"properties":{"adresse":"Ferdinand-Hodler-Strasse 23","name":"Vogtsrain 3","ort":"Zürich","plz":"8049","tel":"044 413 09 46","www":"https://www.stadt-zuerich.ch/schulen/de/vogtsrain/ueberuns/standorte/kindergaerten.html"}}
,{"type":"Feature","geometry":{"type":"Point","coordinates":[8.49688862862239,47.4018614435173,0]},"properties":{"adresse":"Am Wettingertobel 36","name":"Am Wettingertobel","ort":"Zürich","plz":"8049","tel":"044 413 20 60","www":"https://www.stadt-zuerich.ch/schulen/de/vogtsrain/ueberuns/standorte/kindergaerten.html"}}
,{"type":"Feature","geometry":{"type":"Point","coordinates":[8.49968255550285,47.4041227518289,0]},"properties":{"adresse":"Ferdinand-Hodler-Strasse 23","name":"Vogtsrain 1","ort":"Zürich","plz":"8049","tel":"044 413 09 44","www":"https://www.stadt-zuerich.ch/schulen/de/vogtsrain/ueberuns/standorte/kindergaerten.html"}}
,{"type":"Feature","geometry":{"type":"Point","coordinates":[8.52708514819657,47.3970307287738,0]},"properties":{"adresse":"Weihersteig 7","name":"Waidhalde Schulhaus","ort":"Zürich","plz":"8037","tel":"044 413 06 09","www":"https://www.stadt-zuerich.ch/schulen/de/waidhalde/ueberuns/standorte/kindergaerten.html"}}
,{"type":"Feature","geometry":{"type":"Point","coordinates":[8.52276009029271,47.3945807618941,0]},"properties":{"adresse":"Dorfstrasse 32","name":"Dorfstrasse","ort":"Zürich","plz":"8037","tel":"044 413 76 72","www":"https://www.stadt-zuerich.ch/schulen/de/waidhalde/ueberuns/standorte/kindergaerten.html"}}
,{"type":"Feature","geometry":{"type":"Point","coordinates":[8.52059012247675,47.3942723753875,0]},"properties":{"adresse":"Hönggerstrasse 91","name":"Hönggerstrasse","ort":"Zürich","plz":"8037","tel":"044 413 73 14","www":"https://www.stadt-zuerich.ch/schulen/de/waidhalde/ueberuns/standorte/kindergaerten.html"}}
,{"type":"Feature","geometry":{"type":"Point","coordinates":[8.51766685510655,47.3978035495087,0]},"properties":{"adresse":"Waidfussweg 61","name":"Waidfussweg 1","ort":"Zürich","plz":"8037","tel":"044 413 76 01","www":"https://www.stadt-zuerich.ch/schulen/de/waidhalde/ueberuns/standorte/kindergaerten.html"}}
,{"type":"Feature","geometry":{"type":"Point","coordinates":[8.51766685510655,47.3978035495087,0]},"properties":{"adresse":"Waidfussweg 61","name":"Waidfussweg 2","ort":"Zürich","plz":"8037","tel":"044 413 76 02","www":"https://www.stadt-zuerich.ch/schulen/de/waidhalde/ueberuns/standorte/kindergaerten.html"}}
,{"type":"Feature","geometry":{"type":"Point","coordinates":[8.56074026219436,47.4137030285205,0]},"properties":{"adresse":"Genossenschaftsstrasse 7","name":"Leutschenbach II","ort":"Zürich","plz":"8050","tel":"044 413 08 12/13","www":"https://www.stadt-zuerich.ch/schulen/de/leutschenbach/ueberuns/standorte/kindergaerten.html"}}
,{"type":"Feature","geometry":{"type":"Point","coordinates":[8.54417770455316,47.3909985427453,0]},"properties":{"adresse":"Zanggerweg 40","name":"Zanggerweg 2","ort":"Zürich","plz":"8006","tel":"044 413 74 33","www":"https://www.stadt-zuerich.ch/schulen/de/weinberg/ueberuns/standorte/kindergaerten.html"}}
,{"type":"Feature","geometry":{"type":"Point","coordinates":[8.54393647432971,47.3883685497765,0]},"properties":{"adresse":"Scheuchzerstrasse 85","name":"Scheuchzerstrasse 2","ort":"Zürich","plz":"8006","tel":"044 413 74 37","www":"https://www.stadt-zuerich.ch/schulen/de/weinberg/ueberuns/standorte/kindergaerten.html"}}
,{"type":"Feature","geometry":{"type":"Point","coordinates":[8.54101369328816,47.3854236885777,0]},"properties":{"adresse":"Beckenhofstrasse 37","name":"Beckenhof","ort":"Zürich","plz":"8006","tel":"044 413 74 51","www":"https://www.stadt-zuerich.ch/schulen/de/weinberg/ueberuns/standorte/kindergaerten.html"}}
,{"type":"Feature","geometry":{"type":"Point","coordinates":[8.57852177534788,47.4004432820267,0]},"properties":{"adresse":"Probsteistrasse 18","name":"Probstei I","ort":"Zürich","plz":"8051","tel":"044 322 29 32","www":"https://www.stadt-zuerich.ch/schulen/de/probstei/ueberuns/standorte/kindergaerten.html"}}
,{"type":"Feature","geometry":{"type":"Point","coordinates":[8.58075074782815,47.4075799464915,0]},"properties":{"adresse":"Roswiesenstrasse 164","name":"Roswiesen","ort":"Zürich","plz":"8051","tel":"044 413 78 77","www":"https://www.stadt-zuerich.ch/schulen/de/luchswiesen/ueberuns/standorte/kindergaerten.html"}}
,{"type":"Feature","geometry":{"type":"Point","coordinates":[8.56280991550047,47.4134743506406,0]},"properties":{"adresse":"Saatlenfussweg 3","name":"Leutschenbach I","ort":"Zürich","plz":"8050","tel":"044 413 08 31/33","www":"https://www.stadt-zuerich.ch/schulen/de/leutschenbach/ueberuns/standorte/kindergaerten.html"}}
,{"type":"Feature","geometry":{"type":"Point","coordinates":[8.56671934335932,47.4123221880685,0]},"properties":{"adresse":"Am Glattbogen 141","name":"Am Glattbogen","ort":"Zürich","plz":"8050","tel":"044 413 77 98","www":"https://www.stadt-zuerich.ch/schulen/de/leutschenbach/ueberuns/standorte/kindergaerten.html"}}
,{"type":"Feature","geometry":{"type":"Point","coordinates":[8.56232213555093,47.4085229326312,0]},"properties":{"adresse":"Tramstrasse 208","name":"Saatlen","ort":"Zürich","plz":"8050","tel":"044 413 18 93/94/95","www":"https://www.stadt-zuerich.ch/schulen/de/saatlen/ueberuns/standorte/kindergaerten.html"}}
,{"type":"Feature","geometry":{"type":"Point","coordinates":[8.56265128129997,47.407541183965,0]},"properties":{"adresse":"Schörlistrasse 30","name":"Schörlistrasse","ort":"Zürich","plz":"8050","tel":"044 413 18 91","www":"https://www.stadt-zuerich.ch/schulen/de/saatlen/ueberuns/standorte/kindergaerten.html"}}
,{"type":"Feature","geometry":{"type":"Point","coordinates":[8.56717278374376,47.4044549549878,0]},"properties":{"adresse":"Ahornstrasse 12","name":"Ahorn","ort":"Zürich","plz":"8051","tel":"044 413 30 61","www":"https://www.stadt-zuerich.ch/schulen/de/ahorn/ueberuns/standorte/kindergaerten.html"}}
,{"type":"Feature","geometry":{"type":"Point","coordinates":[8.49614015649873,47.3863755985908,0]},"properties":{"adresse":"Flurstrasse 30","name":"Kappeli 3","ort":"Zürich","plz":"8048","tel":"+41 44 413 75 30","www":"https://www.stadt-zuerich.ch/schulen/de/kappeli/ueberuns/standorte/kindergaerten.html"}}
,{"type":"Feature","geometry":{"type":"Point","coordinates":[8.58699156933531,47.4044349820215,0]},"properties":{"adresse":"Luchswiesenstrasse 186","name":"Hirzenbach","ort":"Zürich","plz":"8051","tel":"044 413 06 29","www":"https://www.stadt-zuerich.ch/schulen/de/hirzenbach/ueberuns/standorte/kindergaerten.html"}}
,{"type":"Feature","geometry":{"type":"Point","coordinates":[8.56889284204039,47.4135806050099,0]},"properties":{"adresse":"Auwiesenstrasse 49","name":"Auwiesenstrasse","ort":"Zürich","plz":"8050","tel":"044 413 77 61","www":"https://www.stadt-zuerich.ch/schulen/de/auzelg/ueberuns/standorte/kindergaerten.html"}}
,{"type":"Feature","geometry":{"type":"Point","coordinates":[8.56988166512819,47.4148352175109,0]},"properties":{"adresse":"Auzelg 60","name":"Auzelg","ort":"Zürich","plz":"8050","tel":"044 413 73 20","www":"https://www.stadt-zuerich.ch/schulen/de/auzelg/ueberuns/standorte/kindergaerten.html"}}
,{"type":"Feature","geometry":{"type":"Point","coordinates":[8.5227185077607,47.3691224459867,0]},"properties":{"adresse":"Aegertenstrasse 29","name":"Aegerten I","ort":"Zürich","plz":"8003","tel":"044 413 08 54","www":"https://www.stadt-zuerich.ch/schulen/de/aegerten/ueberuns/standorte/kindergaerten.html"}}
,{"type":"Feature","geometry":{"type":"Point","coordinates":[8.5227185077607,47.3691224459867,0]},"properties":{"adresse":"Aegertenstrasse 29","name":"Aegerten II","ort":"Zürich","plz":"8003","tel":"044 413 08 55","www":"https://www.stadt-zuerich.ch/schulen/de/aegerten/ueberuns/standorte/kindergaerten.html"}}
,{"type":"Feature","geometry":{"type":"Point","coordinates":[8.51294787970304,47.3575274561708,0]},"properties":{"adresse":"Hegianwandweg 28","name":"Hegianwandweg II","ort":"Zürich","plz":"8045","tel":"044 413 77 03","www":"https://www.stadt-zuerich.ch/schulen/de/bachtobel/ueberuns/standorte/kindergaerten.html"}}
,{"type":"Feature","geometry":{"type":"Point","coordinates":[8.51599817306982,47.3589314252733,0]},"properties":{"adresse":"Uetlibergstrasse 174","name":"Laubegg","ort":"Zürich","plz":"8045","tel":"044 413 75 39","www":"https://www.stadt-zuerich.ch/schulen/de/bachtobel/ueberuns/standorte/kindergaerten.html"}}
,{"type":"Feature","geometry":{"type":"Point","coordinates":[8.51652395835262,47.3569670243916,0]},"properties":{"adresse":"Wannerstrasse 31","name":"Wannerstrasse","ort":"Zürich","plz":"8045","tel":"044 413 77 44","www":"https://www.stadt-zuerich.ch/schulen/de/bachtobel/ueberuns/standorte/kindergaerten.html"}}
,{"type":"Feature","geometry":{"type":"Point","coordinates":[8.51294787970304,47.3575274561708,0]},"properties":{"adresse":"Hegianwandweg 28","name":"Hegianwandweg I","ort":"Zürich","plz":"8045","tel":"044 413 77 02","www":"https://www.stadt-zuerich.ch/schulen/de/bachtobel/ueberuns/standorte/kindergaerten.html"}}
,{"type":"Feature","geometry":{"type":"Point","coordinates":[8.54417770455316,47.3909985427453,0]},"properties":{"adresse":"Zanggerweg 40","name":"Zanggerweg 1","ort":"Zürich","plz":"8006","tel":"044 413 74 36","www":"https://www.stadt-zuerich.ch/schulen/de/weinberg/ueberuns/standorte/kindergaerten.html"}}
,{"type":"Feature","geometry":{"type":"Point","coordinates":[8.54289193407978,47.38883311423,0]},"properties":{"adresse":"Riedtlistrasse 41","name":"Riedtli Schulhaus","ort":"Zürich","plz":"8006","tel":"044 413 17 76","www":"https://www.stadt-zuerich.ch/schulen/de/weinberg/ueberuns/standorte/kindergaerten.html"}}
,{"type":"Feature","geometry":{"type":"Point","coordinates":[8.54393647432971,47.3883685497765,0]},"properties":{"adresse":"Scheuchzerstrasse 85","name":"Scheuchzerstrasse 1","ort":"Zürich","plz":"8006","tel":"044 413 74 18","www":"https://www.stadt-zuerich.ch/schulen/de/weinberg/ueberuns/standorte/kindergaerten.html"}}
,{"type":"Feature","geometry":{"type":"Point","coordinates":[8.55940173809736,47.3614673865612,0]},"properties":{"adresse":"Neumünsterstrasse 25","name":"Neumünster","ort":"Zürich","plz":"8008","tel":"044 413 13 22","www":"https://www.stadt-zuerich.ch/schulen/de/hirslanden/ueberuns/standorte/kindergaerten.html"}}
,{"type":"Feature","geometry":{"type":"Point","coordinates":[8.56554769826742,47.3619122692385,0]},"properties":{"adresse":"Hofackerstrasse 45","name":"Hofacker 1","ort":"Zürich","plz":"8032","tel":"044 413 14 08","www":"https://www.stadt-zuerich.ch/schulen/de/hirslanden/ueberuns/standorte/kindergaerten.html"}}
,{"type":"Feature","geometry":{"type":"Point","coordinates":[8.56487460763003,47.3628019498314,0]},"properties":{"adresse":"Streulistrasse 78","name":"Hofacker Turnhaus","ort":"Zürich","plz":"8032","tel":"044 413 14 10","www":"https://www.stadt-zuerich.ch/schulen/de/hirslanden/ueberuns/standorte/kindergaerten.html"}}
,{"type":"Feature","geometry":{"type":"Point","coordinates":[8.56554769826742,47.3619122692385,0]},"properties":{"adresse":"Hofackerstrasse 45","name":"Hofacker 2","ort":"Zürich","plz":"8032","tel":"044 413 14 09","www":"https://www.stadt-zuerich.ch/schulen/de/hirslanden/ueberuns/standorte/kindergaerten.html"}}
,{"type":"Feature","geometry":{"type":"Point","coordinates":[8.56947066670888,47.3596696760149,0]},"properties":{"adresse":"Forchstrasse 217","name":"Hirslanden 1","ort":"Zürich","plz":"8032","tel":"043 488 38 18","www":"https://www.stadt-zuerich.ch/schulen/de/hirslanden/ueberuns/standorte/kindergaerten.html"}}
,{"type":"Feature","geometry":{"type":"Point","coordinates":[8.56947066670888,47.3596696760149,0]},"properties":{"adresse":"Forchstrasse 217","name":"Hirslanden 2","ort":"Zürich","plz":"8032","tel":"043 488 38 17","www":"https://www.stadt-zuerich.ch/schulen/de/hirslanden/ueberuns/standorte/kindergaerten.html"}}
,{"type":"Feature","geometry":{"type":"Point","coordinates":[8.51726865098665,47.3674883681843,0]},"properties":{"adresse":"Meiliweg 6","name":"Meiliweg I","ort":"Zürich","plz":"8055","tel":"044 413 77 63","www":"https://www.stadt-zuerich.ch/schulen/de/buehl/ueberuns/standorte/kindergaerten.html"}}
,{"type":"Feature","geometry":{"type":"Point","coordinates":[8.51765200945274,47.36899775809,0]},"properties":{"adresse":"Schwendenweg 7","name":"Schwendenweg I","ort":"Zürich","plz":"8003","tel":"044 463 57 74","www":"https://www.stadt-zuerich.ch/schulen/de/buehl/ueberuns/standorte/kindergaerten.html"}}
,{"type":"Feature","geometry":{"type":"Point","coordinates":[8.51538750029698,47.3642112311147,0]},"properties":{"adresse":"Bühlstrasse 45e","name":"Talwiesen II","ort":"Zürich","plz":"8055","tel":"044 413 77 08","www":"https://www.stadt-zuerich.ch/schulen/de/buehl/ueberuns/standorte/kindergaerten.html"}}
,{"type":"Feature","geometry":{"type":"Point","coordinates":[8.51726865098665,47.3674883681843,0]},"properties":{"adresse":"Meiliweg 6","name":"Meiliweg II","ort":"Zürich","plz":"8055","tel":"044 413 77 64","www":"https://www.stadt-zuerich.ch/schulen/de/buehl/ueberuns/standorte/kindergaerten.html"}}
,{"type":"Feature","geometry":{"type":"Point","coordinates":[8.51524144872849,47.3643569555508,0]},"properties":{"adresse":"Bühlstrasse 45d","name":"Talwiesen I","ort":"Zürich","plz":"8055","tel":"044 413 76 98","www":"https://www.stadt-zuerich.ch/schulen/de/buehl/ueberuns/standorte/kindergaerten.html"}}
,{"type":"Feature","geometry":{"type":"Point","coordinates":[8.51180954444808,47.366325672447,0]},"properties":{"adresse":"Im Tiergarten 22","name":"Tiergarten","ort":"Zürich","plz":"8055","tel":"044 413 77 67","www":"https://www.stadt-zuerich.ch/schulen/de/buehl/ueberuns/standorte/kindergaerten.html"}}
,{"type":"Feature","geometry":{"type":"Point","coordinates":[8.51765200945274,47.36899775809,0]},"properties":{"adresse":"Schwendenweg 7","name":"Schwendenweg II","ort":"Zürich","plz":"8003","tel":"044 413 75 67","www":"https://www.stadt-zuerich.ch/schulen/de/buehl/ueberuns/standorte/kindergaerten.html"}}
,{"type":"Feature","geometry":{"type":"Point","coordinates":[8.52662399864057,47.3401101079951,0]},"properties":{"adresse":"Farenweg 9","name":"Farenweg II","ort":"Zürich","plz":"8038","tel":"044 413 31 70","www":"https://www.stadt-zuerich.ch/schulen/de/entlisberg/ueberuns/standorte/kindergaerten.html"}}
,{"type":"Feature","geometry":{"type":"Point","coordinates":[8.5287483869871,47.335670227625,0]},"properties":{"adresse":"Moosstrasse 74","name":"Moos II","ort":"Zürich","plz":"8038","tel":"044 481 83 29","www":"https://www.stadt-zuerich.ch/schulen/de/entlisberg/ueberuns/standorte/kindergaerten.html"}}
,{"type":"Feature","geometry":{"type":"Point","coordinates":[8.52631591825213,47.3867016805823,0]},"properties":{"adresse":"Heinrichstrasse 143","name":"Heinrich 143 A","ort":"Zürich","plz":"8005","tel":"044 413 76 20","www":"https://www.stadt-zuerich.ch/schulen/de/kornhaus/ueberuns/standorte/kindergaerten.html"}}
,{"type":"Feature","geometry":{"type":"Point","coordinates":[8.52551949074721,47.3852183926693,0]},"properties":{"adresse":"Josefstrasse 169","name":"Josef","ort":"Zürich","plz":"8005","tel":"044 413 77 14","www":"https://www.stadt-zuerich.ch/schulen/de/kornhaus/ueberuns/standorte/kindergaerten.html"}}
,{"type":"Feature","geometry":{"type":"Point","coordinates":[8.52509252637043,47.3836747222277,0]},"properties":{"adresse":"Neugasse 99","name":"Neugasse","ort":"Zürich","plz":"8005","tel":"044 413 77 23","www":"https://www.stadt-zuerich.ch/schulen/de/kornhaus/ueberuns/standorte/kindergaerten.html"}}
,{"type":"Feature","geometry":{"type":"Point","coordinates":[8.50470592567435,47.3717941333991,0]},"properties":{"adresse":"Gutstrasse 107","name":"Gut 2","ort":"Zürich","plz":"8055","tel":"044 413 17 35","www":"https://www.stadt-zuerich.ch/schulen/de/imgut/ueberuns/standorte/kindergaerten.html"}}
,{"type":"Feature","geometry":{"type":"Point","coordinates":[8.52417901717994,47.3894167032415,0]},"properties":{"adresse":"Limmatstrasse 301","name":"Schütze Pavillon","ort":"Zürich","plz":"8005","tel":"044 413 33 21","www":"https://www.stadt-zuerich.ch/schulen/de/kornhaus/ueberuns/standorte/kindergaerten.html"}}
,{"type":"Feature","geometry":{"type":"Point","coordinates":[8.51001651218808,47.3823167527984,0]},"properties":{"adresse":"Bullingerstrasse 62","name":"Hardau 1","ort":"Zürich","plz":"8004","tel":"044 413 16 70","www":"https://www.stadt-zuerich.ch/schulen/de/hardau/ueberuns/standorte/kindergaerten.html"}}
,{"type":"Feature","geometry":{"type":"Point","coordinates":[8.52487054363257,47.3781951777281,0]},"properties":{"adresse":"Hohlstrasse 68","name":"Hohl 3","ort":"Zürich","plz":"8004","tel":"044 413 21 58","www":"https://www.stadt-zuerich.ch/schulen/de/aussersihl/ueberuns/standorte/kindergaerten.html"}}
,{"type":"Feature","geometry":{"type":"Point","coordinates":[8.51187021682113,47.3732630909651,0]},"properties":{"adresse":"Bertastrasse 54","name":"Aemtler D1","ort":"Zürich","plz":"8003","tel":"044 413 01 29","www":"https://www.stadt-zuerich.ch/schulen/de/aemtler_a/ueberuns/standorte/kindergaerten.html"}}
,{"type":"Feature","geometry":{"type":"Point","coordinates":[8.51187021682113,47.3732630909651,0]},"properties":{"adresse":"Bertastrasse 54","name":"Aemtler D2","ort":"Zürich","plz":"8003","tel":"044 413 01 32","www":"https://www.stadt-zuerich.ch/schulen/de/aemtler_a/ueberuns/standorte/kindergaerten.html"}}
,{"type":"Feature","geometry":{"type":"Point","coordinates":[8.52487054363257,47.3781951777281,0]},"properties":{"adresse":"Hohlstrasse 68","name":"Hohl 2","ort":"Zürich","plz":"8004","tel":"044 413 21 57","www":"https://www.stadt-zuerich.ch/schulen/de/aussersihl/ueberuns/standorte/kindergaerten.html"}}
,{"type":"Feature","geometry":{"type":"Point","coordinates":[8.52549648617453,47.378926331398,0]},"properties":{"adresse":"Brauerstrasse 66","name":"Brauer 2","ort":"Zürich","plz":"8004","tel":"044 413 21 33","www":"https://www.stadt-zuerich.ch/schulen/de/aussersihl/ueberuns/standorte/kindergaerten.html"}}
,{"type":"Feature","geometry":{"type":"Point","coordinates":[8.50497708845991,47.3729457906947,0]},"properties":{"adresse":"Gutstrasse 128","name":"Gutstrasse 2","ort":"Zürich","plz":"8055","tel":"044 413 74 99","www":"https://www.stadt-zuerich.ch/schulen/de/imgut/ueberuns/standorte/kindergaerten.html"}}
,{"type":"Feature","geometry":{"type":"Point","coordinates":[8.51586439724607,47.3875295567775,0]},"properties":{"adresse":"Maschinenstrasse 13","name":"Maaghof","ort":"Zürich","plz":"8005","tel":"044 413 81 36","www":"https://www.stadt-zuerich.ch/schulen/de/kornhaus/ueberuns/standorte/kindergaerten.html"}}
,{"type":"Feature","geometry":{"type":"Point","coordinates":[8.50497708845991,47.3729457906947,0]},"properties":{"adresse":"Gutstrasse 128","name":"Gutstrasse 1","ort":"Zürich","plz":"8055","tel":"044 413 75 05","www":"https://www.stadt-zuerich.ch/schulen/de/imgut/ueberuns/standorte/kindergaerten.html"}}
,{"type":"Feature","geometry":{"type":"Point","coordinates":[8.51030407375278,47.3829088848757,0]},"properties":{"adresse":"Eichbühlstrasse 39","name":"Eichbühl","ort":"Zürich","plz":"8004","tel":"044 413 74 01","www":"https://www.stadt-zuerich.ch/schulen/de/hardau/ueberuns/standorte/kindergaerten.html"}}
,{"type":"Feature","geometry":{"type":"Point","coordinates":[8.5121356037192,47.3826522253754,0]},"properties":{"adresse":"Gugolzstrasse 14","name":"Gugolz","ort":"Zürich","plz":"8004","tel":"044 413 75 11","www":"https://www.stadt-zuerich.ch/schulen/de/hardau/ueberuns/standorte/kindergaerten.html"}}
,{"type":"Feature","geometry":{"type":"Point","coordinates":[8.54775332572101,47.4231464259202,0]},"properties":{"adresse":"Am Katzenbach 5","name":"Am Katzenbach II","ort":"Zürich","plz":"8052","tel":"044 413 76 67","www":"https://www.stadt-zuerich.ch/schulen/de/buhn/ueberuns/standorte/kindergaerten.html"}}
,{"type":"Feature","geometry":{"type":"Point","coordinates":[8.50135657172694,47.4250280318091,0]},"properties":{"adresse":"Mühlackerstrasse 92","name":"Ruggächer II","ort":"Zürich","plz":"8046","tel":null,"www":"https://www.stadt-zuerich.ch/schulen/de/holderbach/ueberuns/standorte/kindergaerten.html"}}
,{"type":"Feature","geometry":{"type":"Point","coordinates":[8.47331608521055,47.3885871380933,0]},"properties":{"adresse":"Eugen-Huber-Strasse 150","name":"Chriesiweg 1","ort":"Zürich","plz":"8048","tel":"+41 44 413 15 59","www":"https://www.stadt-zuerich.ch/schulen/de/chriesiweg/ueberuns/standorte/kindergaerten.html"}}
,{"type":"Feature","geometry":{"type":"Point","coordinates":[8.47331608521055,47.3885871380933,0]},"properties":{"adresse":"Eugen-Huber-Strasse 150","name":"Chriesiweg 2","ort":"Zürich","plz":"8048","tel":"+41 44 413 15 60","www":"https://www.stadt-zuerich.ch/schulen/de/chriesiweg/ueberuns/standorte/kindergaerten.html"}}
,{"type":"Feature","geometry":{"type":"Point","coordinates":[8.49702679566312,47.380253508743,0]},"properties":{"adresse":"Dennlerstrasse 27","name":"Utogrund 2","ort":"Zürich","plz":"8047","tel":"+41 44 413 76 51","www":"https://www.stadt-zuerich.ch/schulen/de/utogrund/ueberuns/standorte/kindergaerten.html"}}
,{"type":"Feature","geometry":{"type":"Point","coordinates":[8.49702679566312,47.380253508743,0]},"properties":{"adresse":"Dennlerstrasse 27","name":"Utogrund 1","ort":"Zürich","plz":"8047","tel":"+41 44 413 76 50","www":"https://www.stadt-zuerich.ch/schulen/de/utogrund/ueberuns/standorte/kindergaerten.html"}}
,{"type":"Feature","geometry":{"type":"Point","coordinates":[8.49632976394128,47.3828879502288,0]},"properties":{"adresse":"Flüelastrasse 13","name":"Flüelastrasse","ort":"Zürich","plz":"8048","tel":"+41 44 413 74 76","www":"https://www.stadt-zuerich.ch/schulen/de/utogrund/ueberuns/standorte/kindergaerten.html"}}
,{"type":"Feature","geometry":{"type":"Point","coordinates":[8.48053280638724,47.3885860017793,0]},"properties":{"adresse":"Dachslernstrasse 22","name":"Studerhaus 1","ort":"Zürich","plz":"8048","tel":"+41 44 413 75 25","www":"https://www.stadt-zuerich.ch/schulen/de/dachslernstrasse/ueberuns/standorte/kindergaerten.html"}}
,{"type":"Feature","geometry":{"type":"Point","coordinates":[8.48639816751375,47.3859583911183,0]},"properties":{"adresse":"Altstetterstrasse 171","name":"Altstetter 2","ort":"Zürich","plz":"8048","tel":"+41 44 413 24 35","www":"https://www.stadt-zuerich.ch/schulen/de/altstetterstrasse/ueberuns/standorte/kindergaerten.html"}}
,{"type":"Feature","geometry":{"type":"Point","coordinates":[8.48325092520127,47.3854029045522,0]},"properties":{"adresse":"Eugen-Huber-Strasse 21","name":"Eugen Huber-Strasse 21","ort":"Zürich","plz":"8048","tel":"+41 44 413 75 04","www":"https://www.stadt-zuerich.ch/schulen/de/altstetterstrasse/ueberuns/standorte/kindergaerten.html"}}
,{"type":"Feature","geometry":{"type":"Point","coordinates":[8.47319613853089,47.3881130602366,0]},"properties":{"adresse":"Eugen-Huber-Strasse 145","name":"Loogarten 1","ort":"Zürich","plz":"8048","tel":"+41 44 413 30 26","www":"https://www.stadt-zuerich.ch/schulen/de/loogarten/ueberuns/standorte/kindergaerten.html"}}
,{"type":"Feature","geometry":{"type":"Point","coordinates":[8.48677033854168,47.3726104161803,0]},"properties":{"adresse":"Triemlistrasse 45","name":"Triemli 4","ort":"Zürich","plz":"8047","tel":"+41 44 413 02 10","www":"https://www.stadt-zuerich.ch/schulen/de/triemli/ueberuns/standorte/kindergaerten.html"}}
,{"type":"Feature","geometry":{"type":"Point","coordinates":[8.48677033854168,47.3726104161803,0]},"properties":{"adresse":"Triemlistrasse 45","name":"Triemli 5","ort":"Zürich","plz":"8047","tel":"+41 44 413 02 22","www":"https://www.stadt-zuerich.ch/schulen/de/triemli/ueberuns/standorte/kindergaerten.html"}}
,{"type":"Feature","geometry":{"type":"Point","coordinates":[8.46976538328374,47.388130737983,0]},"properties":{"adresse":"Rautistrasse 387","name":"Im Talbächli 1","ort":"Zürich","plz":"8048","tel":"+41 44 413 75 63","www":"https://www.stadt-zuerich.ch/schulen/de/loogarten/ueberuns/standorte/kindergaerten.html"}}
,{"type":"Feature","geometry":{"type":"Point","coordinates":[8.48677033854168,47.3726104161803,0]},"properties":{"adresse":"Triemlistrasse 45","name":"Triemli 3","ort":"Zürich","plz":"8047","tel":"+41 44 413 02 11","www":"https://www.stadt-zuerich.ch/schulen/de/triemli/ueberuns/standorte/kindergaerten.html"}}
,{"type":"Feature","geometry":{"type":"Point","coordinates":[8.48897485449815,47.3794624897714,0]},"properties":{"adresse":"Freilagerstrasse 57","name":"Freilager 1","ort":"Zürich","plz":"8047","tel":"+41 44 413 74 81","www":"https://www.stadt-zuerich.ch/schulen/de/untermoos/ueberuns/standorte/kindergaerten.html"}}
,{"type":"Feature","geometry":{"type":"Point","coordinates":[8.48897485449815,47.3794624897714,0]},"properties":{"adresse":"Freilagerstrasse 57","name":"Freilager 2","ort":"Zürich","plz":"8047","tel":"+41 44 413 75 41","www":"https://www.stadt-zuerich.ch/schulen/de/untermoos/ueberuns/standorte/kindergaerten.html"}}
,{"type":"Feature","geometry":{"type":"Point","coordinates":[8.48909581637358,47.3779325372117,0]},"properties":{"adresse":"Else-Züblin-Strasse 24","name":"Freilager 3","ort":"Zürich","plz":"8047","tel":"+41 44 413 75 26","www":"https://www.stadt-zuerich.ch/schulen/de/untermoos/ueberuns/standorte/kindergaerten.html"}}
,{"type":"Feature","geometry":{"type":"Point","coordinates":[8.48909581637358,47.3779325372117,0]},"properties":{"adresse":"Else-Züblin-Strasse 24","name":"Freilager 4","ort":"Zürich","plz":"8047","tel":"+41 44 413 74 70","www":"https://www.stadt-zuerich.ch/schulen/de/untermoos/ueberuns/standorte/kindergaerten.html"}}
,{"type":"Feature","geometry":{"type":"Point","coordinates":[8.48664569308301,47.3823914152049,0]},"properties":{"adresse":"Rautistrasse 99","name":"Untermoos 3","ort":"Zürich","plz":"8048","tel":"+41 44 413 75 61","www":"https://www.stadt-zuerich.ch/schulen/de/untermoos/ueberuns/standorte/kindergaerten.html"}}
,{"type":"Feature","geometry":{"type":"Point","coordinates":[8.48654292260374,47.3761292774813,0]},"properties":{"adresse":"Albisriederstrasse 346","name":"In der Ey 4","ort":"Zürich","plz":"8047","tel":"+41 44 413 75 95","www":"https://www.stadt-zuerich.ch/schulen/de/inderey/ueberuns/standorte/kindergaerten.html"}}
,{"type":"Feature","geometry":{"type":"Point","coordinates":[8.49114022306563,47.3876734870321,0]},"properties":{"adresse":"Luggwegstrasse 27","name":"Kappeli 2","ort":"Zürich","plz":"8048","tel":"+41 44 413 75 00","www":"https://www.stadt-zuerich.ch/schulen/de/kappeli/ueberuns/standorte/kindergaerten.html"}}
,{"type":"Feature","geometry":{"type":"Point","coordinates":[8.48829959015281,47.374165385937,0]},"properties":{"adresse":"In der Ey 20","name":"In der Ey 1","ort":"Zürich","plz":"8047","tel":"+41 44 413 10 15","www":"https://www.stadt-zuerich.ch/schulen/de/inderey/ueberuns/standorte/kindergaerten.html"}}
,{"type":"Feature","geometry":{"type":"Point","coordinates":[8.48829959015281,47.374165385937,0]},"properties":{"adresse":"In der Ey 20","name":"In der Ey 2","ort":"Zürich","plz":"8047","tel":"+41 44 413 10 17","www":"https://www.stadt-zuerich.ch/schulen/de/inderey/ueberuns/standorte/kindergaerten.html"}}
,{"type":"Feature","geometry":{"type":"Point","coordinates":[8.48843174719742,47.3965261288408,0]},"properties":{"adresse":"Grünauring 30","name":"Grünau 2","ort":"Zürich","plz":"8064","tel":"+41 44 413 05 63","www":"https://www.stadt-zuerich.ch/schulen/de/gruenau/ueberuns/standorte/kindergaerten.html"}}
,{"type":"Feature","geometry":{"type":"Point","coordinates":[8.48176354500908,47.3897833322409,0]},"properties":{"adresse":"Badenerstrasse 724","name":"Im Herrlig 2","ort":"Zürich","plz":"8048","tel":"+41 44 413 05 45","www":"https://www.stadt-zuerich.ch/schulen/de/imherrlig/ueberuns/standorte/kindergaerten.html"}}
,{"type":"Feature","geometry":{"type":"Point","coordinates":[8.47331608521055,47.3885871380933,0]},"properties":{"adresse":"Eugen-Huber-Strasse 150","name":"Chriesiweg 3","ort":"Zürich","plz":"8048","tel":"+41 44 413 15 61","www":"https://www.stadt-zuerich.ch/schulen/de/chriesiweg/ueberuns/standorte/kindergaerten.html"}}
,{"type":"Feature","geometry":{"type":"Point","coordinates":[8.4929346564945,47.3862025945113,0]},"properties":{"adresse":"Badenerstrasse 618","name":"Kappeli 4","ort":"Zürich","plz":"8048","tel":"+41 44 413 29 15","www":"https://www.stadt-zuerich.ch/schulen/de/kappeli/ueberuns/standorte/kindergaerten.html"}}
,{"type":"Feature","geometry":{"type":"Point","coordinates":[8.48677033854168,47.3726104161803,0]},"properties":{"adresse":"Triemlistrasse 45","name":"Triemli 2","ort":"Zürich","plz":"8047","tel":"+41 44 413 02 21","www":"https://www.stadt-zuerich.ch/schulen/de/triemli/ueberuns/standorte/kindergaerten.html"}}
,{"type":"Feature","geometry":{"type":"Point","coordinates":[8.48719520192162,47.3963572662686,0]},"properties":{"adresse":"Grünauring 31","name":"Grünau 3","ort":"Zürich","plz":"8064","tel":"+41 44 413 74 87","www":"https://www.stadt-zuerich.ch/schulen/de/gruenau/ueberuns/standorte/kindergaerten.html"}}
,{"type":"Feature","geometry":{"type":"Point","coordinates":[8.48719520192162,47.3963572662686,0]},"properties":{"adresse":"Grünauring 31","name":"Grünau 4","ort":"Zürich","plz":"8064","tel":"+41 44 413 75 28","www":"https://www.stadt-zuerich.ch/schulen/de/gruenau/ueberuns/standorte/kindergaerten.html"}}
,{"type":"Feature","geometry":{"type":"Point","coordinates":[8.49293257155718,47.3723225964698,0]},"properties":{"adresse":"Letzigraben 208","name":"Altweg 4","ort":"Zürich","plz":"8047","tel":"+41 44 413 15 86","www":"https://www.stadt-zuerich.ch/schulen/de/altweg/ueberuns/standorte/kindergaerten.html"}}
,{"type":"Feature","geometry":{"type":"Point","coordinates":[8.48053280638724,47.3885860017793,0]},"properties":{"adresse":"Dachslernstrasse 22","name":"Studerhaus 2","ort":"Zürich","plz":"8048","tel":"+41 44 413 75 44","www":"https://www.stadt-zuerich.ch/schulen/de/dachslernstrasse/ueberuns/standorte/kindergaerten.html"}}
,{"type":"Feature","geometry":{"type":"Point","coordinates":[8.48639816751375,47.3859583911183,0]},"properties":{"adresse":"Altstetterstrasse 171","name":"Altstetter 1","ort":"Zürich","plz":"8048","tel":"+41 44 413 24 34","www":"https://www.stadt-zuerich.ch/schulen/de/altstetterstrasse/ueberuns/standorte/kindergaerten.html"}}
,{"type":"Feature","geometry":{"type":"Point","coordinates":[8.48841571688835,47.383929355214,0]},"properties":{"adresse":"Luggwegstrasse 118","name":"Luggwegstrasse 118","ort":"Zürich","plz":"8048","tel":"+41 44 413 75 62","www":"https://www.stadt-zuerich.ch/schulen/de/altstetterstrasse/ueberuns/standorte/kindergaerten.html"}}
,{"type":"Feature","geometry":{"type":"Point","coordinates":[8.48718776419778,47.3740365818203,0]},"properties":{"adresse":"In der Wässeri 11","name":"In der Ey 3","ort":"Zürich","plz":"8047","tel":"+41 44 413 75 40","www":"https://www.stadt-zuerich.ch/schulen/de/inderey/ueberuns/standorte/kindergaerten.html"}}
,{"type":"Feature","geometry":{"type":"Point","coordinates":[8.47911034998472,47.3921237541409,0]},"properties":{"adresse":"Hermetschloostrasse 33","name":"Im Herrlig 3","ort":"Zürich","plz":"8048","tel":"+41 44 413 75 77","www":"https://www.stadt-zuerich.ch/schulen/de/imherrlig/ueberuns/standorte/kindergaerten.html"}}
,{"type":"Feature","geometry":{"type":"Point","coordinates":[8.487541839962,47.3903729443761,0]},"properties":{"adresse":"Altstetterstrasse 115","name":"Kappeli 5","ort":"Zürich","plz":"8048","tel":"+41 44 413 74 97","www":"https://www.stadt-zuerich.ch/schulen/de/kappeli/ueberuns/standorte/kindergaerten.html"}}
,{"type":"Feature","geometry":{"type":"Point","coordinates":[8.49114022306563,47.3876734870321,0]},"properties":{"adresse":"Luggwegstrasse 27","name":"Kappeli 1","ort":"Zürich","plz":"8048","tel":"+41 44 413 75 24","www":"https://www.stadt-zuerich.ch/schulen/de/kappeli/ueberuns/standorte/kindergaerten.html"}}
,{"type":"Feature","geometry":{"type":"Point","coordinates":[8.48230301754934,47.380528564691,0]},"properties":{"adresse":"Altstetterstrasse 248","name":"Untermoos 1","ort":"Zürich","plz":"8048","tel":"+41 44 413 08 67","www":"https://www.stadt-zuerich.ch/schulen/de/untermoos/ueberuns/standorte/kindergaerten.html"}}
,{"type":"Feature","geometry":{"type":"Point","coordinates":[8.47957440602475,47.3839274322648,0]},"properties":{"adresse":"Buchlernstrasse 30","name":"Untermoos 2","ort":"Zürich","plz":"8048","tel":"+41 44 413 13 66","www":"https://www.stadt-zuerich.ch/schulen/de/untermoos/ueberuns/standorte/kindergaerten.html"}}
,{"type":"Feature","geometry":{"type":"Point","coordinates":[8.4813155830006,47.3818299588371,0]},"properties":{"adresse":"Wickenweg 18","name":"Wickenweg","ort":"Zürich","plz":"8048","tel":"+41 44 413 75 49","www":"https://www.stadt-zuerich.ch/schulen/de/untermoos/ueberuns/standorte/kindergaerten.html"}}
,{"type":"Feature","geometry":{"type":"Point","coordinates":[8.49390940800578,47.3755288026589,0]},"properties":{"adresse":"Ginsterstrasse 25","name":"Ginsterstrasse 25","ort":"Zürich","plz":"8047","tel":"+41 44 413 75 10","www":"https://www.stadt-zuerich.ch/schulen/de/altweg/ueberuns/standorte/kindergaerten.html"}}
,{"type":"Feature","geometry":{"type":"Point","coordinates":[8.49233783271323,47.3728070468619,0]},"properties":{"adresse":"Letzigraben 200","name":"Altweg 1","ort":"Zürich","plz":"8047","tel":"+41 44 413 15 74","www":"https://www.stadt-zuerich.ch/schulen/de/altweg/ueberuns/standorte/kindergaerten.html"}}
,{"type":"Feature","geometry":{"type":"Point","coordinates":[8.49233783271323,47.3728070468619,0]},"properties":{"adresse":"Letzigraben 200","name":"Altweg 2","ort":"Zürich","plz":"8047","tel":"+41 44 413 15 75","www":"https://www.stadt-zuerich.ch/schulen/de/altweg/ueberuns/standorte/kindergaerten.html"}}
,{"type":"Feature","geometry":{"type":"Point","coordinates":[8.47094905573904,47.390258539911,0]},"properties":{"adresse":"Am Suteracher 42","name":"Am Suteracher","ort":"Zürich","plz":"8048","tel":"+41 44 413 74 95","www":"https://www.stadt-zuerich.ch/schulen/de/loogarten/ueberuns/standorte/kindergaerten.html"}}
,{"type":"Feature","geometry":{"type":"Point","coordinates":[8.47425382085282,47.3910974444247,0]},"properties":{"adresse":"Dachslernstrasse 80","name":"Dachslernstrasse","ort":"Zürich","plz":"8048","tel":"+41 44 413 75 03","www":"https://www.stadt-zuerich.ch/schulen/de/dachslernstrasse/ueberuns/standorte/kindergaerten.html"}}
,{"type":"Feature","geometry":{"type":"Point","coordinates":[8.46976538328374,47.388130737983,0]},"properties":{"adresse":"Rautistrasse 387","name":"Im Talbächli 2","ort":"Zürich","plz":"8048","tel":"+41 44 413 75 66","www":"https://www.stadt-zuerich.ch/schulen/de/loogarten/ueberuns/standorte/kindergaerten.html"}}
,{"type":"Feature","geometry":{"type":"Point","coordinates":[8.48677033854168,47.3726104161803,0]},"properties":{"adresse":"Triemlistrasse 45","name":"Triemli 1","ort":"Zürich","plz":"8047","tel":"+41 44 413 02 05","www":"https://www.stadt-zuerich.ch/schulen/de/triemli/ueberuns/standorte/kindergaerten.html"}}
,{"type":"Feature","geometry":{"type":"Point","coordinates":[8.49211962684811,47.3681484085931,0]},"properties":{"adresse":"Rossackerstrasse 16","name":"Goldacker 1","ort":"Zürich","plz":"8047","tel":"+41 44 413 78 83","www":"https://www.stadt-zuerich.ch/schulen/de/triemli/ueberuns/standorte/kindergaerten.html"}}
,{"type":"Feature","geometry":{"type":"Point","coordinates":[8.49211962684811,47.3681484085931,0]},"properties":{"adresse":"Rossackerstrasse 16","name":"Goldacker 2","ort":"Zürich","plz":"8047","tel":"+41 44 413 78 84","www":"https://www.stadt-zuerich.ch/schulen/de/triemli/ueberuns/standorte/kindergaerten.html"}}
,{"type":"Feature","geometry":{"type":"Point","coordinates":[8.48843174719742,47.3965261288408,0]},"properties":{"adresse":"Grünauring 30","name":"Grünau 1","ort":"Zürich","plz":"8064","tel":"+41 44 413 05 63","www":"https://www.stadt-zuerich.ch/schulen/de/gruenau/ueberuns/standorte/kindergaerten.html"}}
,{"type":"Feature","geometry":{"type":"Point","coordinates":[8.48176354500908,47.3897833322409,0]},"properties":{"adresse":"Badenerstrasse 724","name":"Im Herrlig 1","ort":"Zürich","plz":"8048","tel":"+41 44 413 05 44","www":"https://www.stadt-zuerich.ch/schulen/de/imherrlig/ueberuns/standorte/kindergaerten.html"}}
,{"type":"Feature","geometry":{"type":"Point","coordinates":[8.5058594226411,47.3785069755015,0]},"properties":{"adresse":"Brahmsstrasse 47","name":"Brahms","ort":"Zürich","plz":"8003","tel":"044 413 76 49","www":"https://www.stadt-zuerich.ch/schulen/de/aemtler_a/ueberuns/standorte/kindergaerten.html"}}
,{"type":"Feature","geometry":{"type":"Point","coordinates":[8.50292443655192,47.3797143403926,0]},"properties":{"adresse":"Letzigraben 25a","name":"Letzigraben 1","ort":"Zürich","plz":"8003","tel":"044 413 76 12","www":"https://www.stadt-zuerich.ch/schulen/de/aemtler_a/ueberuns/standorte/kindergaerten.html"}}
,{"type":"Feature","geometry":{"type":"Point","coordinates":[8.51294691687687,47.3754914405386,0]},"properties":{"adresse":"Zurlindenstrasse 235","name":"Fritschi","ort":"Zürich","plz":"8003","tel":"044 413 75 47","www":"https://www.stadt-zuerich.ch/schulen/de/aemtler_a/ueberuns/standorte/kindergaerten.html"}}
,{"type":"Feature","geometry":{"type":"Point","coordinates":[8.51266469793229,47.3735952536113,0]},"properties":{"adresse":"Bertastrasse 50","name":"Aemtler A","ort":"Zürich","plz":"8003","tel":"044 413 01 28","www":"https://www.stadt-zuerich.ch/schulen/de/aemtler_a/ueberuns/standorte/kindergaerten.html"}}
,{"type":"Feature","geometry":{"type":"Point","coordinates":[8.50470592567435,47.3717941333991,0]},"properties":{"adresse":"Gutstrasse 107","name":"Gut 3","ort":"Zürich","plz":"8055","tel":"044 413 17 52","www":"https://www.stadt-zuerich.ch/schulen/de/imgut/ueberuns/standorte/kindergaerten.html"}}
,{"type":"Feature","geometry":{"type":"Point","coordinates":[8.5146683342753,47.3793152707448,0]},"properties":{"adresse":"Bullingerstrasse 5","name":"Bullingerhof 1","ort":"Zürich","plz":"8004","tel":"044 413 75 70","www":"https://www.stadt-zuerich.ch/schulen/de/sihlfeld/ueberuns/standorte/kindergaerten.html"}}
,{"type":"Feature","geometry":{"type":"Point","coordinates":[8.55375403567311,47.3626033915471,0]},"properties":{"adresse":"Mühlebachstrasse 71","name":"Mühlebach 1","ort":"Zürich","plz":"8008","tel":"044 413 15 03","www":"https://www.stadt-zuerich.ch/schulen/de/riesbach/ueberuns/standorte/kindergaerten.html"}}
,{"type":"Feature","geometry":{"type":"Point","coordinates":[8.55375403567311,47.3626033915471,0]},"properties":{"adresse":"Mühlebachstrasse 71","name":"Mühlebach 2","ort":"Zürich","plz":"8008","tel":"044 413 15 04","www":"https://www.stadt-zuerich.ch/schulen/de/riesbach/ueberuns/standorte/kindergaerten.html"}}
,{"type":"Feature","geometry":{"type":"Point","coordinates":[8.55560864598595,47.3572030245686,0]},"properties":{"adresse":"Seefeldstrasse 131","name":"Seefeld 2","ort":"Zürich","plz":"8008","tel":"044 413 15 24","www":"https://www.stadt-zuerich.ch/schulen/de/riesbach/ueberuns/standorte/kindergaerten.html"}}
,{"type":"Feature","geometry":{"type":"Point","coordinates":[8.55560864598595,47.3572030245686,0]},"properties":{"adresse":"Seefeldstrasse 131","name":"Seefeld 1","ort":"Zürich","plz":"8008","tel":"044 413 15 23","www":"https://www.stadt-zuerich.ch/schulen/de/riesbach/ueberuns/standorte/kindergaerten.html"}}
,{"type":"Feature","geometry":{"type":"Point","coordinates":[8.58384122737786,47.4054504078119,0]},"properties":{"adresse":"Am Luchsgraben 6","name":"Am Luchsgraben","ort":"Zürich","plz":"8051","tel":"044 413 76 86/87","www":"https://www.stadt-zuerich.ch/schulen/de/hirzenbach/ueberuns/standorte/kindergaerten.html"}}
,{"type":"Feature","geometry":{"type":"Point","coordinates":[8.58799744757554,47.4032693235237,0]},"properties":{"adresse":"Grosswiesenstrasse 143","name":"Grosswiesen II","ort":"Zürich","plz":"8051","tel":"044 413 76 34/35","www":"https://www.stadt-zuerich.ch/schulen/de/hirzenbach/ueberuns/standorte/kindergaerten.html"}}
,{"type":"Feature","geometry":{"type":"Point","coordinates":[8.58210665383566,47.4020780739796,0]},"properties":{"adresse":"Glattwiesenstrasse 12","name":"Glattwiesenstrasse","ort":"Zürich","plz":"8051","tel":"044 413 76 92","www":"https://www.stadt-zuerich.ch/schulen/de/luchswiesen/ueberuns/standorte/kindergaerten.html"}}
,{"type":"Feature","geometry":{"type":"Point","coordinates":[8.57965092393508,47.4057103622667,0]},"properties":{"adresse":"Winterthurerstrasse 633a","name":"Winterthurerstrasse","ort":"Zürich","plz":"8051","tel":"044 413 76 00","www":"https://www.stadt-zuerich.ch/schulen/de/luchswiesen/ueberuns/standorte/kindergaerten.html"}}
,{"type":"Feature","geometry":{"type":"Point","coordinates":[8.58248994445919,47.4041538562797,0]},"properties":{"adresse":"Glattwiesenstrasse 86","name":"Luchswiesen","ort":"Zürich","plz":"8051","tel":"044 413 25 22","www":"https://www.stadt-zuerich.ch/schulen/de/luchswiesen/ueberuns/standorte/kindergaerten.html"}}
,{"type":"Feature","geometry":{"type":"Point","coordinates":[8.5882786668556,47.399037314392,0]},"properties":{"adresse":"Dübendorfstrasse 300","name":"Mattenhof II","ort":"Zürich","plz":"8051","tel":"044 413 09 83","www":"https://www.stadt-zuerich.ch/schulen/de/mattenhof/ueberuns/standorte/kindergaerten.html"}}
,{"type":"Feature","geometry":{"type":"Point","coordinates":[8.53531754780619,47.3984399696156,0]},"properties":{"adresse":"Bucheggstrasse 95","name":"Buchegg","ort":"Zürich","plz":"8057","tel":"044 413 74 09","www":"https://www.stadt-zuerich.ch/schulen/de/allenmoos/ueberuns/standorte/kindergaerten.html"}}
,{"type":"Feature","geometry":{"type":"Point","coordinates":[8.53929176944004,47.4020612544368,0]},"properties":{"adresse":"Schürbungert 25","name":"Allenmoos Schulhaus 2","ort":"Zürich","plz":"8057","tel":"044 413 05 15","www":"https://www.stadt-zuerich.ch/schulen/de/allenmoos/ueberuns/standorte/kindergaerten.html"}}
,{"type":"Feature","geometry":{"type":"Point","coordinates":[8.5340399381426,47.4003237076295,0]},"properties":{"adresse":"Hofwiesenstrasse 158","name":"Brunnenhof 2","ort":"Zürich","plz":"8057","tel":"044 413 74 16","www":"https://www.stadt-zuerich.ch/schulen/de/allenmoos/ueberuns/standorte/kindergaerten.html"}}
,{"type":"Feature","geometry":{"type":"Point","coordinates":[8.5340399381426,47.4003237076295,0]},"properties":{"adresse":"Hofwiesenstrasse 158","name":"Brunnenhof 1","ort":"Zürich","plz":"8057","tel":"044 413 74 35","www":"https://www.stadt-zuerich.ch/schulen/de/allenmoos/ueberuns/standorte/kindergaerten.html"}}
,{"type":"Feature","geometry":{"type":"Point","coordinates":[8.53929176944004,47.4020612544368,0]},"properties":{"adresse":"Schürbungert 25","name":"Allenmoos Schulhaus 1","ort":"Zürich","plz":"8057","tel":"044 413 05 14","www":"https://www.stadt-zuerich.ch/schulen/de/allenmoos/ueberuns/standorte/kindergaerten.html"}}
,{"type":"Feature","geometry":{"type":"Point","coordinates":[8.50783070454096,47.3930818286007,0]},"properties":{"adresse":"Hardturmstrasse 269","name":"Kraftwerk","ort":"Zürich","plz":"8005","tel":"044 413 76 91","www":"https://www.stadt-zuerich.ch/schulen/de/amwasser/ueberuns/standorte/kindergaerten.html"}}
,{"type":"Feature","geometry":{"type":"Point","coordinates":[8.50184593029995,47.3982378655818,0]},"properties":{"adresse":"Am Wasser 100","name":"Limmatgut","ort":"Zürich","plz":"8049","tel":"044 413 76 48","www":"https://www.stadt-zuerich.ch/schulen/de/amwasser/ueberuns/standorte/kindergaerten.html"}}
,{"type":"Feature","geometry":{"type":"Point","coordinates":[8.50899839561016,47.3908190910064,0]},"properties":{"adresse":"Pfingstweidstrasse 104","name":"Hardturmpark","ort":"Zürich","plz":"8005","tel":"044 413 77 85","www":"https://www.stadt-zuerich.ch/schulen/de/amwasser/ueberuns/standorte/kindergaerten.html"}}
,{"type":"Feature","geometry":{"type":"Point","coordinates":[8.50067938015526,47.4007778898913,0]},"properties":{"adresse":"Ackersteinstrasse 186","name":"Meierhofplatz","ort":"Zürich","plz":"8049","tel":"044 413 73 19","www":"https://www.stadt-zuerich.ch/schulen/de/amwasser/ueberuns/standorte/kindergaerten.html"}}
,{"type":"Feature","geometry":{"type":"Point","coordinates":[8.50430113000198,47.3962553352309,0]},"properties":{"adresse":"Am Wasser 63","name":"Am Wasser","ort":"Zürich","plz":"8049","tel":"044 413 76 44","www":"https://www.stadt-zuerich.ch/schulen/de/amwasser/ueberuns/standorte/kindergaerten.html"}}
,{"type":"Feature","geometry":{"type":"Point","coordinates":[8.50797151087668,47.3965449992843,0]},"properties":{"adresse":"Ackersteinstrasse 85","name":"Ackersteinstrasse","ort":"Zürich","plz":"8049","tel":"044 342 07 02","www":"https://www.stadt-zuerich.ch/schulen/de/amwasser/ueberuns/standorte/kindergaerten.html"}}
,{"type":"Feature","geometry":{"type":"Point","coordinates":[8.50131156238685,47.4019501996704,0]},"properties":{"adresse":"Bläsistrasse 15","name":"Bläsi 1","ort":"Zürich","plz":"8049","tel":"044 413 73 23","www":"https://www.stadt-zuerich.ch/schulen/de/blaesi/ueberuns/standorte/kindergaerten.html"}}
,{"type":"Feature","geometry":{"type":"Point","coordinates":[8.50131156238685,47.4019501996704,0]},"properties":{"adresse":"Bläsistrasse 15","name":"Bläsi 2","ort":"Zürich","plz":"8049","tel":"044 413 73 22","www":"https://www.stadt-zuerich.ch/schulen/de/blaesi/ueberuns/standorte/kindergaerten.html"}}
,{"type":"Feature","geometry":{"type":"Point","coordinates":[8.54901112228755,47.3822999670776,0]},"properties":{"adresse":"Huttenstrasse 14","name":"Hutten Pavillon 2","ort":"Zürich","plz":"8006","tel":"044 413 21 86","www":"https://www.stadt-zuerich.ch/schulen/de/hutten/ueberuns/standorte/kindergaerten.html"}}
,{"type":"Feature","geometry":{"type":"Point","coordinates":[8.51224388573142,47.4187560790522,0]},"properties":{"adresse":"Riedenhaldenstrasse 208","name":"Riedenhalden III","ort":"Zürich","plz":"8046","tel":"044 300 68 54","www":"https://www.stadt-zuerich.ch/schulen/de/riedenhalden/ueberuns/standorte/kindergaerten.html"}}
,{"type":"Feature","geometry":{"type":"Point","coordinates":[8.54537198769595,47.4207684667619,0]},"properties":{"adresse":"Höhenring 36","name":"Buhn","ort":"Zürich","plz":"8052","tel":"044 413 22 24","www":"https://www.stadt-zuerich.ch/schulen/de/buhn/ueberuns/standorte/kindergaerten.html"}}
,{"type":"Feature","geometry":{"type":"Point","coordinates":[8.50380774554416,47.4193703291548,0]},"properties":{"adresse":"Wehntalerstrasse 563","name":"Holderbach III","ort":"Zürich","plz":"8046","tel":"044 413 17 19","www":"https://www.stadt-zuerich.ch/schulen/de/holderbach/ueberuns/standorte/kindergaerten.html"}}
,{"type":"Feature","geometry":{"type":"Point","coordinates":[8.54018228760786,47.4156426203947,0]},"properties":{"adresse":"Margrit-Rainer-Strasse 5","name":"Im Birch IV","ort":"Zürich","plz":"8050","tel":"044 413 07 04","www":"https://www.stadt-zuerich.ch/schulen/de/imbirch/ueberuns/standorte/kindergaerten.html"}}
,{"type":"Feature","geometry":{"type":"Point","coordinates":[8.54018228760786,47.4156426203947,0]},"properties":{"adresse":"Margrit-Rainer-Strasse 5","name":"Im Birch V","ort":"Zürich","plz":"8050","tel":"044 413 07 05","www":"https://www.stadt-zuerich.ch/schulen/de/imbirch/ueberuns/standorte/kindergaerten.html"}}
,{"type":"Feature","geometry":{"type":"Point","coordinates":[8.5536298968922,47.4250629424887,0]},"properties":{"adresse":"Schaffhauserstrasse 556","name":"Ettenfeld","ort":"Zürich","plz":"8052","tel":"044 301 12 30","www":"https://www.stadt-zuerich.ch/schulen/de/kolbenacker/ueberuns/standorte/kindergaerten.html"}}
,{"type":"Feature","geometry":{"type":"Point","coordinates":[8.55491826835523,47.4049724569987,0]},"properties":{"adresse":"Apfelbaumstrasse 5","name":"Apfelbaum III","ort":"Zürich","plz":"8050","tel":"044 413 76 33","www":"https://www.stadt-zuerich.ch/schulen/de/apfelbaum/ueberuns/standorte/kindergaerten.html"}}
,{"type":"Feature","geometry":{"type":"Point","coordinates":[8.54901112228755,47.3822999670776,0]},"properties":{"adresse":"Huttenstrasse 14","name":"Hutten Pavillon 1","ort":"Zürich","plz":"8006","tel":"044 413 21 85","www":"https://www.stadt-zuerich.ch/schulen/de/hutten/ueberuns/standorte/kindergaerten.html"}}
,{"type":"Feature","geometry":{"type":"Point","coordinates":[8.5348979736773,47.3887855548883,0]},"properties":{"adresse":"Imfeldstrasse 6","name":"Imfeldstrasse 1","ort":"Zürich","plz":"8037","tel":"044 362 56 11","www":"https://www.stadt-zuerich.ch/schulen/de/letten/ueberuns/standorte/kindergaerten.html"}}
,{"type":"Feature","geometry":{"type":"Point","coordinates":[8.53155736918017,47.390010670249,0]},"properties":{"adresse":"Lettenstrasse 15","name":"Lettenstrasse","ort":"Zürich","plz":"8037","tel":"044 413 74 34","www":"https://www.stadt-zuerich.ch/schulen/de/letten/ueberuns/standorte/kindergaerten.html"}}
,{"type":"Feature","geometry":{"type":"Point","coordinates":[8.5348979736773,47.3887855548883,0]},"properties":{"adresse":"Imfeldstrasse 6","name":"Imfeldstrasse 2","ort":"Zürich","plz":"8037","tel":"044 362 56 11","www":"https://www.stadt-zuerich.ch/schulen/de/letten/ueberuns/standorte/kindergaerten.html"}}
,{"type":"Feature","geometry":{"type":"Point","coordinates":[8.53638856667394,47.3871632048535,0]},"properties":{"adresse":"Kronenstrasse 19","name":"Kronenwiese 1","ort":"Zürich","plz":"8006","tel":"044 413 73 05","www":"https://www.stadt-zuerich.ch/schulen/de/letten/ueberuns/standorte/kindergaerten.html"}}
,{"type":"Feature","geometry":{"type":"Point","coordinates":[8.53638856667394,47.3871632048535,0]},"properties":{"adresse":"Kronenstrasse 19","name":"Kronenwiese 2","ort":"Zürich","plz":"8006","tel":"044 413 73 05","www":"https://www.stadt-zuerich.ch/schulen/de/letten/ueberuns/standorte/kindergaerten.html"}}
,{"type":"Feature","geometry":{"type":"Point","coordinates":[8.5348979736773,47.3887855548883,0]},"properties":{"adresse":"Imfeldstrasse 6","name":"Imfeldstrasse 3","ort":"Zürich","plz":"8037","tel":"044 362 56 11","www":"https://www.stadt-zuerich.ch/schulen/de/letten/ueberuns/standorte/kindergaerten.html"}}
,{"type":"Feature","geometry":{"type":"Point","coordinates":[8.53318393605578,47.3935152112456,0]},"properties":{"adresse":"Rütschistrasse 3","name":"Rütschistrasse","ort":"Zürich","plz":"8037","tel":"044 413 74 08","www":"https://www.stadt-zuerich.ch/schulen/de/milchbuck/ueberuns/standorte/kindergaerten.html"}}
,{"type":"Feature","geometry":{"type":"Point","coordinates":[8.52662399864057,47.3401101079951,0]},"properties":{"adresse":"Farenweg 9","name":"Farenweg I","ort":"Zürich","plz":"8038","tel":"044 413 31 70","www":"https://www.stadt-zuerich.ch/schulen/de/entlisberg/ueberuns/standorte/kindergaerten.html"}}
,{"type":"Feature","geometry":{"type":"Point","coordinates":[8.5287483869871,47.335670227625,0]},"properties":{"adresse":"Moosstrasse 74","name":"Moos I","ort":"Zürich","plz":"8038","tel":"044 481 83 29","www":"https://www.stadt-zuerich.ch/schulen/de/entlisberg/ueberuns/standorte/kindergaerten.html"}}
,{"type":"Feature","geometry":{"type":"Point","coordinates":[8.52775508996462,47.3380604419862,0]},"properties":{"adresse":"Owenweg 23","name":"Entlisberg Pavillon 2","ort":"Zürich","plz":"8038","tel":null,"www":"https://www.stadt-zuerich.ch/schulen/de/entlisberg/ueberuns/standorte/kindergaerten.html"}}
,{"type":"Feature","geometry":{"type":"Point","coordinates":[8.52775508996462,47.3380604419862,0]},"properties":{"adresse":"Owenweg 23","name":"Entlisberg Pavillon 1","ort":"Zürich","plz":"8038","tel":"044 413 31 66","www":"https://www.stadt-zuerich.ch/schulen/de/entlisberg/ueberuns/standorte/kindergaerten.html"}}
,{"type":"Feature","geometry":{"type":"Point","coordinates":[8.51702440899928,47.3335355370702,0]},"properties":{"adresse":"Bruderwies 55","name":"Bruderwies II","ort":"Zürich","plz":"8041","tel":"044 413 11 61","www":"https://www.stadt-zuerich.ch/schulen/de/falletsche/ueberuns/standorte/kindergaerten.html"}}
,{"type":"Feature","geometry":{"type":"Point","coordinates":[8.51881928740219,47.3364130808297,0]},"properties":{"adresse":"Leimbachstrasse 21","name":"Sihlbogen","ort":"Zürich","plz":"8041","tel":"044 480 02 16","www":"https://www.stadt-zuerich.ch/schulen/de/falletsche/ueberuns/standorte/kindergaerten.html"}}
,{"type":"Feature","geometry":{"type":"Point","coordinates":[8.51392586932851,47.3341853841604,0]},"properties":{"adresse":"Rebenweg 1","name":"Rebenweg I","ort":"Zürich","plz":"8041","tel":"044 481 83 21","www":"https://www.stadt-zuerich.ch/schulen/de/falletsche/ueberuns/standorte/kindergaerten.html"}}
,{"type":"Feature","geometry":{"type":"Point","coordinates":[8.50135657172694,47.4250280318091,0]},"properties":{"adresse":"Mühlackerstrasse 92","name":"Ruggächer I","ort":"Zürich","plz":"8046","tel":"044 413 33 44","www":"https://www.stadt-zuerich.ch/schulen/de/holderbach/ueberuns/standorte/kindergaerten.html"}}
,{"type":"Feature","geometry":{"type":"Point","coordinates":[8.55296723471341,47.4039845012677,0]},"properties":{"adresse":"Friedheimstrasse 34a","name":"Friedheim","ort":"Zürich","plz":"8057","tel":"044 413 76 63","www":"https://www.stadt-zuerich.ch/schulen/de/apfelbaum/ueberuns/standorte/kindergaerten.html"}}
,{"type":"Feature","geometry":{"type":"Point","coordinates":[8.54196008068611,47.4314987949167,0]},"properties":{"adresse":"Caspar-Wüst-Strasse 56","name":"Caspar Wüst I","ort":"Zürich","plz":"8052","tel":"044 302 53 14","www":"https://www.stadt-zuerich.ch/schulen/de/buchwiesen/ueberuns/standorte/kindergaerten.html"}}
,{"type":"Feature","geometry":{"type":"Point","coordinates":[8.53869054935633,47.4275126946495,0]},"properties":{"adresse":"Schönauring 61","name":"Schönauring I","ort":"Zürich","plz":"8052","tel":"044 413 73 01","www":"https://www.stadt-zuerich.ch/schulen/de/buchwiesen/ueberuns/standorte/kindergaerten.html"}}
,{"type":"Feature","geometry":{"type":"Point","coordinates":[8.5485560083397,47.4266894145502,0]},"properties":{"adresse":"Kolbenacker 11","name":"Frohbühl I","ort":"Zürich","plz":"8052","tel":"044 302 53 08","www":"https://www.stadt-zuerich.ch/schulen/de/kolbenacker/ueberuns/standorte/kindergaerten.html"}}
,{"type":"Feature","geometry":{"type":"Point","coordinates":[8.55108550597595,47.4254855530194,0]},"properties":{"adresse":"Sperletweg 60","name":"Kolbenacker","ort":"Zürich","plz":"8052","tel":"044 413 03 79","www":"https://www.stadt-zuerich.ch/schulen/de/kolbenacker/ueberuns/standorte/kindergaerten.html"}}
,{"type":"Feature","geometry":{"type":"Point","coordinates":[8.5217405365838,47.410731380799,0]},"properties":{"adresse":"Althoosstrasse 31","name":"Althoos I","ort":"Zürich","plz":"8046","tel":"044 413 74 48","www":"https://www.stadt-zuerich.ch/schulen/de/kaeferholz/ueberuns/standorte/kindergaerten.html"}}
,{"type":"Feature","geometry":{"type":"Point","coordinates":[8.53248758416138,47.4124787386024,0]},"properties":{"adresse":"Regina-Kägi-Hof 11","name":"Regina-Kägi-Hof I","ort":"Zürich","plz":"8050","tel":"044 413 75 37","www":"https://www.stadt-zuerich.ch/schulen/de/kuegeliloo/ueberuns/standorte/kindergaerten.html"}}
,{"type":"Feature","geometry":{"type":"Point","coordinates":[8.54018228760786,47.4156426203947,0]},"properties":{"adresse":"Margrit-Rainer-Strasse 5","name":"Im Birch II","ort":"Zürich","plz":"8050","tel":"044 413 07 07","www":"https://www.stadt-zuerich.ch/schulen/de/imbirch/ueberuns/standorte/kindergaerten.html"}}
,{"type":"Feature","geometry":{"type":"Point","coordinates":[8.54679546135856,47.4300058924475,0]},"properties":{"adresse":"Eichrainstrasse 15","name":"Eichrain","ort":"Zürich","plz":"8052","tel":"044 413 76 08","www":"https://www.stadt-zuerich.ch/schulen/de/kolbenacker/ueberuns/standorte/kindergaerten.html"}}
,{"type":"Feature","geometry":{"type":"Point","coordinates":[8.53550395404459,47.4186460870719,0]},"properties":{"adresse":"Himmeristrasse 57","name":"Tageskindergarten Staudenbühl","ort":"Zürich","plz":"8052","tel":"044 306 52 31","www":"https://www.stadt-zuerich.ch/schulen/de/staudenbuehl/ueberuns/standorte/kindergaerten.html"}}
,{"type":"Feature","geometry":{"type":"Point","coordinates":[8.576914185894,47.4014996930328,0]},"properties":{"adresse":"Stettbachstrasse 88","name":"Probstei II (Pavillon 3)","ort":"Zürich","plz":"8051","tel":"044 413 30 95","www":"https://www.stadt-zuerich.ch/schulen/de/probstei/ueberuns/standorte/kindergaerten.html"}}
,{"type":"Feature","geometry":{"type":"Point","coordinates":[8.53216951135105,47.4074784425027,0]},"properties":{"adresse":"Künzlistrasse 46","name":"Künzli","ort":"Zürich","plz":"8057","tel":"044 413 74 32","www":"https://www.stadt-zuerich.ch/schulen/de/kuegeliloo/ueberuns/standorte/kindergaerten.html"}}
,{"type":"Feature","geometry":{"type":"Point","coordinates":[8.53279882993296,47.4044451063495,0]},"properties":{"adresse":"Nordheimstrasse 6","name":"Nordheim","ort":"Zürich","plz":"8057","tel":"044 413 74 21","www":"https://www.stadt-zuerich.ch/schulen/de/kuegeliloo/ueberuns/standorte/kindergaerten.html"}}
,{"type":"Feature","geometry":{"type":"Point","coordinates":[8.5217405365838,47.410731380799,0]},"properties":{"adresse":"Althoosstrasse 31","name":"Althoos II","ort":"Zürich","plz":"8046","tel":"044 413 74 52","www":"https://www.stadt-zuerich.ch/schulen/de/kaeferholz/ueberuns/standorte/kindergaerten.html"}}
,{"type":"Feature","geometry":{"type":"Point","coordinates":[8.51383950336791,47.3320734204548,0]},"properties":{"adresse":"Maneggpromenade 100","name":"Maneggpromenade","ort":"Zürich","plz":"8041","tel":"044 481 83 23","www":"https://www.stadt-zuerich.ch/schulen/de/falletsche/ueberuns/standorte/kindergaerten.html"}}
,{"type":"Feature","geometry":{"type":"Point","coordinates":[8.51702440899928,47.3335355370702,0]},"properties":{"adresse":"Bruderwies 55","name":"Bruderwies I","ort":"Zürich","plz":"8041","tel":"044 413 11 60","www":"https://www.stadt-zuerich.ch/schulen/de/falletsche/ueberuns/standorte/kindergaerten.html"}}
,{"type":"Feature","geometry":{"type":"Point","coordinates":[8.5181547209516,47.3367374404645,0]},"properties":{"adresse":"Zwirnerstrasse 269","name":"Zwirnerstrasse","ort":"Zürich","plz":"8041","tel":"043 399 96 79","www":"https://www.stadt-zuerich.ch/schulen/de/falletsche/ueberuns/standorte/kindergaerten.html"}}
,{"type":"Feature","geometry":{"type":"Point","coordinates":[8.50494157209881,47.3586291864883,0]},"properties":{"adresse":"Im Rossweidli 33","name":"Rossweidli I","ort":"Zürich","plz":"8045","tel":"044 413 77 75","www":"https://www.stadt-zuerich.ch/schulen/de/amuetliberg/ueberuns/standorte/kindergaerten.html"}}
,{"type":"Feature","geometry":{"type":"Point","coordinates":[8.50973900924556,47.3542322815951,0]},"properties":{"adresse":"Frauentalweg 39","name":"Frauentalweg I","ort":"Zürich","plz":"8045","tel":"044 413 77 05","www":"https://www.stadt-zuerich.ch/schulen/de/amuetliberg/ueberuns/standorte/kindergaerten.html"}}
,{"type":"Feature","geometry":{"type":"Point","coordinates":[8.50832643206059,47.3588509420067,0]},"properties":{"adresse":"Schweighofstrasse 180","name":"Schweighof 180","ort":"Zürich","plz":"8045","tel":"044 413 75 21","www":"https://www.stadt-zuerich.ch/schulen/de/amuetliberg/ueberuns/standorte/kindergaerten.html"}}
,{"type":"Feature","geometry":{"type":"Point","coordinates":[8.50494157209881,47.3586291864883,0]},"properties":{"adresse":"Im Rossweidli 33","name":"Rossweidli II","ort":"Zürich","plz":"8045","tel":"044 413 77 76","www":"https://www.stadt-zuerich.ch/schulen/de/amuetliberg/ueberuns/standorte/kindergaerten.html"}}
,{"type":"Feature","geometry":{"type":"Point","coordinates":[8.50359667733859,47.3623540819672,0]},"properties":{"adresse":"Friesenbergstrasse 224a","name":"Grünmatt","ort":"Zürich","plz":"8055","tel":"044 413 76 95","www":"https://www.stadt-zuerich.ch/schulen/de/amuetliberg/ueberuns/standorte/kindergaerten.html"}}
,{"type":"Feature","geometry":{"type":"Point","coordinates":[8.50973900924556,47.3542322815951,0]},"properties":{"adresse":"Frauentalweg 39","name":"Frauentalweg II","ort":"Zürich","plz":"8045","tel":"044 413 77 06","www":"https://www.stadt-zuerich.ch/schulen/de/amuetliberg/ueberuns/standorte/kindergaerten.html"}}
,{"type":"Feature","geometry":{"type":"Point","coordinates":[8.50022037877644,47.3620411128221,0]},"properties":{"adresse":"Friesenberghalde 17","name":"Friesenberghalde","ort":"Zürich","plz":"8055","tel":"044 413 76 99","www":"https://www.stadt-zuerich.ch/schulen/de/amuetliberg/ueberuns/standorte/kindergaerten.html"}}
,{"type":"Feature","geometry":{"type":"Point","coordinates":[8.50467901128389,47.3630314311825,0]},"properties":{"adresse":"Schweighofstrasse 296","name":"Schweighof 296","ort":"Zürich","plz":"8055","tel":"044 413 74 92","www":"https://www.stadt-zuerich.ch/schulen/de/amuetliberg/ueberuns/standorte/kindergaerten.html"}}
,{"type":"Feature","geometry":{"type":"Point","coordinates":[8.52660262876844,47.3581397803849,0]},"properties":{"adresse":"Hügelstrasse 5","name":"Hügel","ort":"Zürich","plz":"8002","tel":null,"www":"https://www.stadt-zuerich.ch/schulen/de/gabler/ueberuns/standorte/kindergaerten.html"}}
,{"type":"Feature","geometry":{"type":"Point","coordinates":[8.53114557424796,47.3600669301992,0]},"properties":{"adresse":"Grütlistrasse 76","name":"Grütli II","ort":"Zürich","plz":"8002","tel":"044 413 75 15","www":"https://www.stadt-zuerich.ch/schulen/de/gabler/ueberuns/standorte/kindergaerten.html"}}
,{"type":"Feature","geometry":{"type":"Point","coordinates":[8.52811136424489,47.3672817598745,0]},"properties":{"adresse":"Brandschenkestrasse 70","name":"Brandschenke","ort":"Zürich","plz":"8002","tel":"044 413 75 50","www":"https://www.stadt-zuerich.ch/schulen/de/gabler/ueberuns/standorte/kindergaerten.html"}}
,{"type":"Feature","geometry":{"type":"Point","coordinates":[8.53114557424796,47.3600669301992,0]},"properties":{"adresse":"Grütlistrasse 76","name":"Grütli I","ort":"Zürich","plz":"8002","tel":"044 413 74 83","www":"https://www.stadt-zuerich.ch/schulen/de/gabler/ueberuns/standorte/kindergaerten.html"}}
,{"type":"Feature","geometry":{"type":"Point","coordinates":[8.51116625003502,47.414726742779,0]},"properties":{"adresse":"Bergacker 76a","name":"Bergacker II","ort":"Zürich","plz":"8046","tel":"044 413 74 50","www":"https://www.stadt-zuerich.ch/schulen/de/schauenberg/ueberuns/standorte/kindergaerten.html"}}
,{"type":"Feature","geometry":{"type":"Point","coordinates":[8.54196008068611,47.4314987949167,0]},"properties":{"adresse":"Caspar-Wüst-Strasse 56","name":"Caspar Wüst II","ort":"Zürich","plz":"8052","tel":"044 302 53 14","www":"https://www.stadt-zuerich.ch/schulen/de/buchwiesen/ueberuns/standorte/kindergaerten.html"}}
,{"type":"Feature","geometry":{"type":"Point","coordinates":[8.5485560083397,47.4266894145502,0]},"properties":{"adresse":"Kolbenacker 11","name":"Frohbühl II","ort":"Zürich","plz":"8052","tel":"044 302 53 08","www":"https://www.stadt-zuerich.ch/schulen/de/kolbenacker/ueberuns/standorte/kindergaerten.html"}}
,{"type":"Feature","geometry":{"type":"Point","coordinates":[8.54637881927895,47.4067753837762,0]},"properties":{"adresse":"Regensbergstrasse 108","name":"Halde A2","ort":"Zürich","plz":"8050","tel":"044 413 24 23","www":"https://www.stadt-zuerich.ch/schulen/de/gubel/ueberuns/standorte/kindergaerten.html"}}
,{"type":"Feature","geometry":{"type":"Point","coordinates":[8.50380774554416,47.4193703291548,0]},"properties":{"adresse":"Wehntalerstrasse 563","name":"Holderbach II","ort":"Zürich","plz":"8046","tel":"044 413 17 18","www":"https://www.stadt-zuerich.ch/schulen/de/holderbach/ueberuns/standorte/kindergaerten.html"}}
,{"type":"Feature","geometry":{"type":"Point","coordinates":[8.54690007572227,47.4228216755288,0]},"properties":{"adresse":"Katzenbachstrasse 90","name":"Katzenbach II","ort":"Zürich","plz":"8052","tel":"044 301 01 93","www":"https://www.stadt-zuerich.ch/schulen/de/buhn/ueberuns/standorte/kindergaerten.html"}}
,{"type":"Feature","geometry":{"type":"Point","coordinates":[8.54925941575267,47.4167629658764,0]},"properties":{"adresse":"Kosakenweg 4","name":"Kosaken II","ort":"Zürich","plz":"8052","tel":"044 302 69 53","www":"https://www.stadt-zuerich.ch/schulen/de/buhn/ueberuns/standorte/kindergaerten.html"}}
,{"type":"Feature","geometry":{"type":"Point","coordinates":[8.5141105024741,47.4231406702936,0]},"properties":{"adresse":"Wolfswinkel 3","name":"Reckenholz II","ort":"Zürich","plz":"8046","tel":"044 413 22 84","www":"https://www.stadt-zuerich.ch/schulen/de/imisengrind/ueberuns/standorte/kindergaerten.html"}}
,{"type":"Feature","geometry":{"type":"Point","coordinates":[8.53667175309999,47.4093617054321,0]},"properties":{"adresse":"Regensbergstrasse 195","name":"Holunderhof II","ort":"Zürich","plz":"8050","tel":"044 413 77 10","www":"https://www.stadt-zuerich.ch/schulen/de/kuegeliloo/ueberuns/standorte/kindergaerten.html"}}
,{"type":"Feature","geometry":{"type":"Point","coordinates":[8.5106948019355,47.4193088840716,0]},"properties":{"adresse":"Riedenhaldenstrasse 236","name":"Riedenhalden II","ort":"Zürich","plz":"8046","tel":"044 413 26 17","www":"https://www.stadt-zuerich.ch/schulen/de/riedenhalden/ueberuns/standorte/kindergaerten.html"}}
,{"type":"Feature","geometry":{"type":"Point","coordinates":[8.55303165021936,47.4071112162404,0]},"properties":{"adresse":"Salvatorstrasse 18","name":"Salvator II","ort":"Zürich","plz":"8050","tel":"044 311 42 65","www":"https://www.stadt-zuerich.ch/schulen/de/apfelbaum/ueberuns/standorte/kindergaerten.html"}}
,{"type":"Feature","geometry":{"type":"Point","coordinates":[8.53869054935633,47.4275126946495,0]},"properties":{"adresse":"Schönauring 61","name":"Schönauring II","ort":"Zürich","plz":"8052","tel":"044 413 73 01","www":"https://www.stadt-zuerich.ch/schulen/de/buchwiesen/ueberuns/standorte/kindergaerten.html"}}
,{"type":"Feature","geometry":{"type":"Point","coordinates":[8.53469527818041,47.4254440909742,0]},"properties":{"adresse":"Schwandenacker 51","name":"Schwandenwiesen II","ort":"Zürich","plz":"8052","tel":"044 413 76 42","www":"https://www.stadt-zuerich.ch/schulen/de/heumatt/ueberuns/standorte/kindergaerten.html"}}
,{"type":"Feature","geometry":{"type":"Point","coordinates":[8.5373412069396,47.4228544234411,0]},"properties":{"adresse":"Schwandenholzstrasse 12","name":"Heumatt I","ort":"Zürich","plz":"8052","tel":"044 413 76 07","www":"https://www.stadt-zuerich.ch/schulen/de/heumatt/ueberuns/standorte/kindergaerten.html"}}
,{"type":"Feature","geometry":{"type":"Point","coordinates":[8.53469527818041,47.4254440909742,0]},"properties":{"adresse":"Schwandenacker 51","name":"Schwandenwiesen I","ort":"Zürich","plz":"8052","tel":"044 413 76 41","www":"https://www.stadt-zuerich.ch/schulen/de/heumatt/ueberuns/standorte/kindergaerten.html"}}
,{"type":"Feature","geometry":{"type":"Point","coordinates":[8.526899084276,47.3573937253303,0]},"properties":{"adresse":"Waffenplatzstrasse 66","name":"Waffenplatzstrasse","ort":"Zürich","plz":"8002","tel":"044 413 75 64","www":"https://www.stadt-zuerich.ch/schulen/de/gabler/ueberuns/standorte/kindergaerten.html"}}
,{"type":"Feature","geometry":{"type":"Point","coordinates":[8.53287684678022,47.3384558191295,0]},"properties":{"adresse":"Honeggerweg 8","name":"Honeggerweg I","ort":"Zürich","plz":"8038","tel":"044 413 77 41","www":"https://www.stadt-zuerich.ch/schulen/de/wollishofen/ueberuns/standorte/kindergaerten.html"}}
,{"type":"Feature","geometry":{"type":"Point","coordinates":[8.53496714258549,47.3423973835383,0]},"properties":{"adresse":"Wettsteinstrasse 2","name":"Wettstein","ort":"Zürich","plz":"8038","tel":"044 413 75 99","www":"https://www.stadt-zuerich.ch/schulen/de/wollishofen/ueberuns/standorte/kindergaerten.html"}}
,{"type":"Feature","geometry":{"type":"Point","coordinates":[8.53287684678022,47.3384558191295,0]},"properties":{"adresse":"Honeggerweg 8","name":"Honeggerweg II","ort":"Zürich","plz":"8038","tel":"044 413 77 42","www":"https://www.stadt-zuerich.ch/schulen/de/wollishofen/ueberuns/standorte/kindergaerten.html"}}
,{"type":"Feature","geometry":{"type":"Point","coordinates":[8.5040727656315,47.3658498243043,0]},"properties":{"adresse":"Döltschiweg 135","name":"Döltschiweg II","ort":"Zürich","plz":"8055","tel":"044 413 77 39","www":"https://www.stadt-zuerich.ch/schulen/de/kuengenmatt/ueberuns/standorte/kindergaerten.html"}}
,{"type":"Feature","geometry":{"type":"Point","coordinates":[8.5040727656315,47.3658498243043,0]},"properties":{"adresse":"Döltschiweg 135","name":"Döltschiweg I","ort":"Zürich","plz":"8055","tel":"044 413 77 38","www":"https://www.stadt-zuerich.ch/schulen/de/kuengenmatt/ueberuns/standorte/kindergaerten.html"}}
,{"type":"Feature","geometry":{"type":"Point","coordinates":[8.50974139121174,47.3692772685658,0]},"properties":{"adresse":"Höfliweg 14","name":"Höfliweg I","ort":"Zürich","plz":"8055","tel":"044 413 77 35","www":"https://www.stadt-zuerich.ch/schulen/de/kuengenmatt/ueberuns/standorte/kindergaerten.html"}}
,{"type":"Feature","geometry":{"type":"Point","coordinates":[8.50010168401723,47.3670284789544,0]},"properties":{"adresse":"Schweighofstrasse 405a","name":"Unterer Schweighof","ort":"Zürich","plz":"8055","tel":"044 463 56 26","www":"https://www.stadt-zuerich.ch/schulen/de/kuengenmatt/ueberuns/standorte/kindergaerten.html"}}
,{"type":"Feature","geometry":{"type":"Point","coordinates":[8.49966565858918,47.3674531051261,0]},"properties":{"adresse":"Birmensdorferstrasse 467a","name":"Birmensdorferstrasse","ort":"Zürich","plz":"8055","tel":"044 413 77 37","www":"https://www.stadt-zuerich.ch/schulen/de/kuengenmatt/ueberuns/standorte/kindergaerten.html"}}
,{"type":"Feature","geometry":{"type":"Point","coordinates":[8.50974139121174,47.3692772685658,0]},"properties":{"adresse":"Höfliweg 14","name":"Höfliweg II","ort":"Zürich","plz":"8055","tel":"044 413 77 36","www":"https://www.stadt-zuerich.ch/schulen/de/kuengenmatt/ueberuns/standorte/kindergaerten.html"}}
,{"type":"Feature","geometry":{"type":"Point","coordinates":[8.5263295192518,47.3480191799366,0]},"properties":{"adresse":"Tannenrauchstrasse 10","name":"Waldkindergarten Manegg","ort":"Zürich","plz":"8038","tel":"044 413 14 47","www":"https://www.stadt-zuerich.ch/schulen/de/manegg/ueberuns/standorte/kindergaerten.html"}}
,{"type":"Feature","geometry":{"type":"Point","coordinates":[8.5262808790484,47.3532853561379,0]},"properties":{"adresse":"Rieterstrasse 106","name":"Rieterstrasse","ort":"Zürich","plz":"8002","tel":"044 201 12 65","www":"https://www.stadt-zuerich.ch/schulen/de/manegg/ueberuns/standorte/kindergaerten.html"}}
,{"type":"Feature","geometry":{"type":"Point","coordinates":[8.52925904902035,47.3416756775405,0]},"properties":{"adresse":"Rainstrasse 5","name":"Rain","ort":"Zürich","plz":"8038","tel":"044 483 00 02","www":"https://www.stadt-zuerich.ch/schulen/de/manegg/ueberuns/standorte/kindergaerten.html"}}
,{"type":"Feature","geometry":{"type":"Point","coordinates":[8.5263295192518,47.3480191799366,0]},"properties":{"adresse":"Tannenrauchstrasse 10","name":"Manegg III","ort":"Zürich","plz":"8038","tel":null,"www":"https://www.stadt-zuerich.ch/schulen/de/manegg/ueberuns/standorte/kindergaerten.html"}}
,{"type":"Feature","geometry":{"type":"Point","coordinates":[8.5263295192518,47.3480191799366,0]},"properties":{"adresse":"Tannenrauchstrasse 10","name":"Manegg I","ort":"Zürich","plz":"8038","tel":"044 413 14 47","www":"https://www.stadt-zuerich.ch/schulen/de/manegg/ueberuns/standorte/kindergaerten.html"}}
]}
