{"name":"Mobilitystandort","type":"FeatureCollection"
,"features":[
{"type":"Feature","geometry":{"type":"Point","coordinates":[8.55856889733874,47.403257227852]},"properties":{"adresse":"Frohburgstrasse 311","name":"Zürich Frohburg","ort":"Zürich","plz":"8057","www":"http://www.mobility.ch"}}
,{"type":"Feature","geometry":{"type":"Point","coordinates":[8.57203226420595,47.3411218730261]},"properties":{"adresse":"Zollikerstrasse 65","name":"Zollikon Zollikerstrasse","ort":"Zollikon","plz":"8702","www":"http://www.mobility.ch"}}
,{"type":"Feature","geometry":{"type":"Point","coordinates":[8.54418105191563,47.3924397688551]},"properties":{"adresse":"Zanggerweg 9","name":"Zürich Zanggerweg","ort":"Zürich","plz":"8006","www":"http://www.mobility.ch"}}
,{"type":"Feature","geometry":{"type":"Point","coordinates":[8.56060904199427,47.3548253126033]},"properties":{"adresse":"Altenhofstrasse 45","name":"Zürich Altenhofstrasse","ort":"Zürich","plz":"8008","www":"http://www.mobility.ch"}}
,{"type":"Feature","geometry":{"type":"Point","coordinates":[8.49839175097012,47.404562462837]},"properties":{"adresse":"Ferdinand-Hodler-Strasse 37","name":"Zürich Ferdinand-Hodler-Strasse","ort":"Zürich","plz":"8049","www":"http://www.mobility.ch"}}
,{"type":"Feature","geometry":{"type":"Point","coordinates":[8.54876270972022,47.3745674367833]},"properties":{"adresse":"Rämistrasse 71","name":"Zürich UNI / ETH","ort":"Zürich","plz":"8006","www":"http://www.mobility.ch"}}
,{"type":"Feature","geometry":{"type":"Point","coordinates":[8.54611083314187,47.4017941895248]},"properties":{"adresse":"Schaffhauserstrasse 222","name":"Zürich Hirschgarten","ort":"Zürich","plz":"8057","www":"http://www.mobility.ch"}}
,{"type":"Feature","geometry":{"type":"Point","coordinates":[8.52891239378738,47.3842374305342]},"properties":{"adresse":"Gasometerstrasse 23","name":"Zürich Limmatplatz / Gasometerstrasse","ort":"Zürich","plz":"8005","www":"http://www.mobility.ch"}}
,{"type":"Feature","geometry":{"type":"Point","coordinates":[8.54843335335226,47.3244312868319]},"properties":{"adresse":"Seestrasse 126","name":"Kilchberg (ZH) Bahnhof","ort":"Kilchberg (ZH)","plz":"8802","www":"http://www.mobility.ch"}}
,{"type":"Feature","geometry":{"type":"Point","coordinates":[8.43650184174681,47.3577548911292]},"properties":{"adresse":"Rebhalde 28","name":"Birmensdorf (ZH) Bahnhof","ort":"Birmensdorf (ZH)","plz":"8903","www":"http://www.mobility.ch"}}
,{"type":"Feature","geometry":{"type":"Point","coordinates":[8.52725895537422,47.3597142788038]},"properties":{"adresse":"Waffenplatzstrasse 39a","name":"Zürich Waffenplatz","ort":"Zürich","plz":"8002","www":"http://www.mobility.ch"}}
,{"type":"Feature","geometry":{"type":"Point","coordinates":[8.54602895393185,47.418876572088]},"properties":{"adresse":"Bahnhaldenstrasse 11","name":"Zürich Seebach Bahnhof","ort":"Zürich","plz":"8052","www":"http://www.mobility.ch"}}
,{"type":"Feature","geometry":{"type":"Point","coordinates":[8.5294636791401,47.3930474542644]},"properties":{"adresse":"Dammstrasse 54","name":"Zürich Wipkingen Bahnhof","ort":"Zürich","plz":"8037","www":"http://www.mobility.ch"}}
,{"type":"Feature","geometry":{"type":"Point","coordinates":[8.56230980124765,47.3488538654969]},"properties":{"adresse":"Bellerivestrasse 261","name":"Zürich Tiefenbrunnen Bahnhof","ort":"Zürich","plz":"8008","www":"http://www.mobility.ch"}}
,{"type":"Feature","geometry":{"type":"Point","coordinates":[8.53336845306975,47.3484394971276]},"properties":{"adresse":"Seestrasse 339","name":"Zürich Wollishofen Bahnhof","ort":"Zürich","plz":"8038","www":"http://www.mobility.ch"}}
,{"type":"Feature","geometry":{"type":"Point","coordinates":[8.49306140794999,47.4023444824991]},"properties":{"adresse":"Limmattalstrasse 247","name":"Zürich Höngg / Wartau VBZ","ort":"Zürich","plz":"8049","www":"http://www.mobility.ch"}}
,{"type":"Feature","geometry":{"type":"Point","coordinates":[8.49193131941001,47.3860737973854]},"properties":{"adresse":"Badenerstrasse 627","name":"Zürich Altstetten VBZ P+R","ort":"Zürich","plz":"8048","www":"http://www.mobility.ch"}}
,{"type":"Feature","geometry":{"type":"Point","coordinates":[8.59695311011712,47.3966361682819]},"properties":{"adresse":"Sagentobelbachstrasse ","name":"Zürich Stettbach Bahnhof","ort":"Zürich","plz":"8051","www":"http://www.mobility.ch"}}
,{"type":"Feature","geometry":{"type":"Point","coordinates":[8.53071001786178,47.3381921388611]},"properties":{"adresse":"Albisstrasse 105","name":"Zürich Wollishofen VBZ","ort":"Zürich","plz":"8038","www":"http://www.mobility.ch"}}
,{"type":"Feature","geometry":{"type":"Point","coordinates":[8.48450250771128,47.3740160772814]},"properties":{"adresse":"Triemlistrasse 11","name":"Zürich Albisrieden VBZ","ort":"Zürich","plz":"8047","www":"http://www.mobility.ch"}}
,{"type":"Feature","geometry":{"type":"Point","coordinates":[8.59262283378138,47.4119891937498]},"properties":{"adresse":"Richtistrasse ","name":"Wallisellen Bahnhof","ort":"Wallisellen","plz":"8304","www":"http://www.mobility.ch"}}
,{"type":"Feature","geometry":{"type":"Point","coordinates":[8.56179229606118,47.4310745606405]},"properties":{"adresse":"Schaffhauserstrasse 83","name":"Opfikon Bahnhof","ort":"Opfikon","plz":"8152","www":"http://www.mobility.ch"}}
,{"type":"Feature","geometry":{"type":"Point","coordinates":[8.58038148922651,47.3194510030088]},"properties":{"adresse":"Oberwachtstrasse ","name":"Küsnacht (ZH) Bahnhof","ort":"Küsnacht (ZH)","plz":"8700","www":"http://www.mobility.ch"}}
,{"type":"Feature","geometry":{"type":"Point","coordinates":[8.62412407902917,47.3996259006737]},"properties":{"adresse":"Bettlistrasse 5","name":"Dübendorf Bahnhof","ort":"Dübendorf","plz":"8600","www":"http://www.mobility.ch"}}
,{"type":"Feature","geometry":{"type":"Point","coordinates":[8.44643029759147,47.3990458924116]},"properties":{"adresse":"Güterstrasse 4","name":"Schlieren Bahnhof","ort":"Schlieren","plz":"8952","www":"http://www.mobility.ch"}}
,{"type":"Feature","geometry":{"type":"Point","coordinates":[8.5332092160524,47.3851592658375]},"properties":{"adresse":"Sihlquai 133","name":"Zürich Limmatplatz / Sihlquai","ort":"Zürich","plz":"8005","www":"http://www.mobility.ch"}}
,{"type":"Feature","geometry":{"type":"Point","coordinates":[8.6266343325768,47.4385039854205]},"properties":{"adresse":"Bahnhofstrasse 40","name":"Bassersdorf Bahnhof","ort":"Bassersdorf","plz":"8303","www":"http://www.mobility.ch"}}
,{"type":"Feature","geometry":{"type":"Point","coordinates":[8.58352427856407,47.4479608176148]},"properties":{"adresse":"Breitistrasse 25","name":"Kloten Bahnhof","ort":"Kloten","plz":"8302","www":"http://www.mobility.ch"}}
,{"type":"Feature","geometry":{"type":"Point","coordinates":[8.47119429591317,47.436821998163]},"properties":{"adresse":"Hardrainstrasse 24","name":"Regensdorf Bahnhof","ort":"Regensdorf","plz":"8105","www":"http://www.mobility.ch"}}
,{"type":"Feature","geometry":{"type":"Point","coordinates":[8.5225723082398,47.3701117891227]},"properties":{"adresse":"Weststrasse 41","name":"Zürich Weststrasse","ort":"Zürich","plz":"8003","www":"http://www.mobility.ch"}}
,{"type":"Feature","geometry":{"type":"Point","coordinates":[8.51413426265684,47.3823880919573]},"properties":{"adresse":"Hardplatz 15","name":"Zürich Hardplatz","ort":"Zürich","plz":"8004","www":"http://www.mobility.ch"}}
,{"type":"Feature","geometry":{"type":"Point","coordinates":[8.51406923256806,47.3785117982731]},"properties":{"adresse":"Zypressenstrasse 69","name":"Zürich Zypressen","ort":"Zürich","plz":"8004","www":"http://www.mobility.ch"}}
,{"type":"Feature","geometry":{"type":"Point","coordinates":[8.52514100979664,47.3746571627993]},"properties":{"adresse":"Ankerstrasse 53","name":"Zürich Ankerstrasse / BGZ","ort":"Zürich","plz":"8004","www":"http://www.mobility.ch"}}
,{"type":"Feature","geometry":{"type":"Point","coordinates":[8.55814828606601,47.3637095394609]},"properties":{"adresse":"Minervastrasse 120","name":"Zürich Minervastrasse","ort":"Zürich","plz":"8032","www":"http://www.mobility.ch"}}
,{"type":"Feature","geometry":{"type":"Point","coordinates":[8.54891305991324,47.3830574076446]},"properties":{"adresse":"Huttenstrasse 5","name":"Zürich Rigiplatz / Huttenstrasse","ort":"Zürich","plz":"8006","www":"http://www.mobility.ch"}}
,{"type":"Feature","geometry":{"type":"Point","coordinates":[8.53367797969961,47.381547765359]},"properties":{"adresse":"Klingenstrasse 24","name":"Zürich Klingenstrasse / Josefstrasse","ort":"Zürich","plz":"8005","www":"http://www.mobility.ch"}}
,{"type":"Feature","geometry":{"type":"Point","coordinates":[8.61861462791686,47.4194356172054]},"properties":{"adresse":"Bahnhofstrasse 30","name":"Dietlikon Bahnhof","ort":"Dietlikon","plz":"8305","www":"http://www.mobility.ch"}}
,{"type":"Feature","geometry":{"type":"Point","coordinates":[8.52213185741811,47.3797047346542]},"properties":{"adresse":"Hohlstrasse 118","name":"Zürich Hohlstrasse / Pflanzschulstrasse","ort":"Zürich","plz":"8004","www":"http://www.mobility.ch"}}
,{"type":"Feature","geometry":{"type":"Point","coordinates":[8.51542156507141,47.3897251018312]},"properties":{"adresse":"Pfingstweidstrasse 30","name":"Zürich Technopark","ort":"Zürich","plz":"8005","www":"http://www.mobility.ch"}}
,{"type":"Feature","geometry":{"type":"Point","coordinates":[8.52769286203121,47.3511467906029]},"properties":{"adresse":"Mutschellenstrasse 59-61","name":"Zürich Mutschellenstrasse","ort":"Zürich","plz":"8038","www":"http://www.mobility.ch"}}
,{"type":"Feature","geometry":{"type":"Point","coordinates":[8.45029199389385,47.4000915426113]},"properties":{"adresse":"Rütistrasse 12/14","name":"Schlieren Rütistrasse","ort":"Schlieren","plz":"8952","www":"http://www.mobility.ch"}}
,{"type":"Feature","geometry":{"type":"Point","coordinates":[8.5577741290634,47.4183946134964]},"properties":{"adresse":"Schärenmoosstrasse 80","name":"Zürich Publisuisse / Schärenmoosstrasse","ort":"Zürich","plz":"8052","www":"http://www.mobility.ch"}}
,{"type":"Feature","geometry":{"type":"Point","coordinates":[8.5349621988101,47.3898920740207]},"properties":{"adresse":"Nordstrasse 110","name":"Zürich Wipkingen / Lettensiedlung / Nordstrasse","ort":"Zürich","plz":"8037","www":"http://www.mobility.ch"}}
,{"type":"Feature","geometry":{"type":"Point","coordinates":[8.55964008324557,47.4144906787615]},"properties":{"adresse":"Hagenholzstrasse 104b","name":"Zürich Riedbach / Hagenholzstrasse","ort":"Zürich","plz":"8050","www":"http://www.mobility.ch"}}
,{"type":"Feature","geometry":{"type":"Point","coordinates":[8.51455653412302,47.3573957340968]},"properties":{"adresse":"Uetlibergstrasse 231","name":"Zürich Uetlihof / Uetlibergstrasse","ort":"Zürich","plz":"8045","www":"http://www.mobility.ch"}}
,{"type":"Feature","geometry":{"type":"Point","coordinates":[8.52829087288403,47.3939940154766]},"properties":{"adresse":"Nordstrasse 234","name":"Zürich Wipkingen Bahnhof / Nordstrasse","ort":"Zürich","plz":"8037","www":"http://www.mobility.ch"}}
,{"type":"Feature","geometry":{"type":"Point","coordinates":[8.49076455349815,47.3819917072369]},"properties":{"adresse":"Rautistrasse 58","name":"Zürich Altstetten / Flurstrasse","ort":"Zürich","plz":"8047","www":"http://www.mobility.ch"}}
,{"type":"Feature","geometry":{"type":"Point","coordinates":[8.55891311710336,47.4063931857958]},"properties":{"adresse":"Herbstweg 29","name":"Zürich Oerlikon / Herbstweg","ort":"Zürich","plz":"8050","www":"http://www.mobility.ch"}}
,{"type":"Feature","geometry":{"type":"Point","coordinates":[8.5593734109585,47.4181902167777]},"properties":{"adresse":"Schärenmoosstrasse 115","name":"Zürich Fernsehstudio / Schärenmoosstrasse","ort":"Zürich","plz":"8052","www":"http://www.mobility.ch"}}
,{"type":"Feature","geometry":{"type":"Point","coordinates":[8.53840354055423,47.3916943629259]},"properties":{"adresse":"Schaffhauserplatz 3","name":"Zürich Schaffhauserplatz","ort":"Zürich","plz":"8006","www":"http://www.mobility.ch"}}
,{"type":"Feature","geometry":{"type":"Point","coordinates":[8.56392659365917,47.4103922516636]},"properties":{"adresse":"Saatlenstrasse 240","name":"Zürich Saatlenstrasse / Reformierte Kirche Saatlen","ort":"Zürich","plz":"8050","www":"http://www.mobility.ch"}}
,{"type":"Feature","geometry":{"type":"Point","coordinates":[8.53977565778523,47.4112905833498]},"properties":{"adresse":"Erika-Mann-Weg ","name":"Zürich Oerlikon Bahnhof / Erika-Mann-Weg","ort":"Zürich","plz":"8050","www":"http://www.mobility.ch"}}
,{"type":"Feature","geometry":{"type":"Point","coordinates":[8.55672867256414,47.4190973506947]},"properties":{"adresse":"Schärenmoosstrasse 76","name":"Zürich Glattpark / Schärenmosstrasse","ort":"Zürich","plz":"8052","www":"http://www.mobility.ch"}}
,{"type":"Feature","geometry":{"type":"Point","coordinates":[8.50081275721199,47.4209921664484]},"properties":{"adresse":"Furttalstrasse 33","name":"Zürich Waidmatt Furttalstrasse","ort":"Zürich","plz":"8046","www":"http://www.mobility.ch"}}
,{"type":"Feature","geometry":{"type":"Point","coordinates":[8.5500925353061,47.372296863893]},"properties":{"adresse":"Rämistrasse 59","name":"Zürich Uni Asien-Orient-Institut / Kantonsschulstrasse","ort":"Zürich","plz":"8001","www":"http://www.mobility.ch"}}
,{"type":"Feature","geometry":{"type":"Point","coordinates":[8.51619105822746,47.362291823456]},"properties":{"adresse":"Grubenstrasse 12","name":"Zürich Louis-Braille-Strasse / Grubenstrasse","ort":"Zürich","plz":"8045","www":"http://www.mobility.ch"}}
,{"type":"Feature","geometry":{"type":"Point","coordinates":[8.54492428944,47.3956978809168]},"properties":{"adresse":"Winterthurerstrasse 161","name":"Zürich Irchel Tramdepot VBZ","ort":"Zürich","plz":"8057","www":"http://www.mobility.ch"}}
,{"type":"Feature","geometry":{"type":"Point","coordinates":[8.66140305419188,47.3839634932672]},"properties":{"adresse":"Bahnstrasse 3","name":"Schwerzenbach Bahnhof","ort":"Schwerzenbach","plz":"8603","www":"http://www.mobility.ch"}}
,{"type":"Feature","geometry":{"type":"Point","coordinates":[8.58315945408203,47.351491473556]},"properties":{"adresse":"Rehalpstrasse 90","name":"Zürich Rehalp","ort":"Zürich","plz":"8008","www":"http://www.mobility.ch"}}
,{"type":"Feature","geometry":{"type":"Point","coordinates":[8.49739750208085,47.3765610690581]},"properties":{"adresse":"Letzigraben 120","name":"Zürich Letzigraben","ort":"Zürich","plz":"8047","www":"http://www.mobility.ch"}}
,{"type":"Feature","geometry":{"type":"Point","coordinates":[8.545611350034,47.3879644813525]},"properties":{"adresse":"Stolzestrasse 30","name":"Zürich Stolzestrasse","ort":"Zürich","plz":"8006","www":"http://www.mobility.ch"}}
,{"type":"Feature","geometry":{"type":"Point","coordinates":[8.53334373776075,47.4110368686168]},"properties":{"adresse":"Affolternstrasse 140","name":"Zürich Affolternstrasse","ort":"Zürich","plz":"8050","www":"http://www.mobility.ch"}}
,{"type":"Feature","geometry":{"type":"Point","coordinates":[8.52575270807872,47.3961947447293]},"properties":{"adresse":"Lehenstrasse 17/11","name":"Zürich Lehenstrasse","ort":"Zürich","plz":"8037","www":"http://www.mobility.ch"}}
,{"type":"Feature","geometry":{"type":"Point","coordinates":[8.51847269490072,47.3723180374834]},"properties":{"adresse":"Zentralstrasse 63","name":"Zürich Wiedikon / Zentralstrasse","ort":"Zürich","plz":"8003","www":"http://www.mobility.ch"}}
,{"type":"Feature","geometry":{"type":"Point","coordinates":[8.5236725667775,47.3721253506686]},"properties":{"adresse":"Zweier-/Baumgartnerstrasse ","name":"Zürich Wiedikon Bahnhof","ort":"Zürich","plz":"8004","www":"http://www.mobility.ch"}}
,{"type":"Feature","geometry":{"type":"Point","coordinates":[8.57830799113056,47.3616861343397]},"properties":{"adresse":"In der Sommerau 19","name":"Zürich Witikon / In der Sommerau","ort":"Zürich","plz":"8053","www":"http://www.mobility.ch"}}
,{"type":"Feature","geometry":{"type":"Point","coordinates":[8.53768604853821,47.4069928537534]},"properties":{"adresse":"Hofwiesenstr. 267","name":"Zürich Hofwiesenstrasse / Bad Allenmoos","ort":"Zürich","plz":"8050","www":"http://www.mobility.ch"}}
,{"type":"Feature","geometry":{"type":"Point","coordinates":[8.54370089118388,47.410794363447]},"properties":{"adresse":"Schulstrasse 44","name":"Zürich Oerlikon Bahnhof / Parkhaus Swissôtel","ort":"Zürich","plz":"8050","www":"http://www.mobility.ch"}}
,{"type":"Feature","geometry":{"type":"Point","coordinates":[8.51951916449636,47.3684223565421]},"properties":{"adresse":"Steinstr./Schlossgasse ","name":"Zürich Schmiede Wiedikon","ort":"Zürich","plz":"8003","www":"http://www.mobility.ch"}}
,{"type":"Feature","geometry":{"type":"Point","coordinates":[8.5485837217714,47.4034795257316]},"properties":{"adresse":"Berninaplatz 2","name":"Zürich Berninaplatz","ort":"Zürich","plz":"8057","www":"http://www.mobility.ch"}}
,{"type":"Feature","geometry":{"type":"Point","coordinates":[8.51442858699059,47.3740108982975]},"properties":{"adresse":"Idaplatz 3","name":"Zürich Idaplatz","ort":"Zürich","plz":"8003","www":"http://www.mobility.ch"}}
,{"type":"Feature","geometry":{"type":"Point","coordinates":[8.52398874830575,47.3889432858846]},"properties":{"adresse":"Heinrichstrasse 240","name":"Zürich KV Heinrichstrasse","ort":"Zürich","plz":"8005","www":"http://www.mobility.ch"}}
,{"type":"Feature","geometry":{"type":"Point","coordinates":[8.52304810431247,47.3746228688772]},"properties":{"adresse":"Badenerstrasse 134","name":"Zürich Wengihof / Badenerstrasse","ort":"Zürich","plz":"8004","www":"http://www.mobility.ch"}}
,{"type":"Feature","geometry":{"type":"Point","coordinates":[8.51529198150725,47.3728334861621]},"properties":{"adresse":"Idastrasse 19","name":"Zürich Idastrasse","ort":"Zürich","plz":"8003","www":"http://www.mobility.ch"}}
,{"type":"Feature","geometry":{"type":"Point","coordinates":[8.54162371777899,47.3987967784612]},"properties":{"adresse":"Schaffhauserstrasse 151","name":"Zürich Milchbuck / Schaffhauserstrasse","ort":"Zürich","plz":"8057","www":"http://www.mobility.ch"}}
,{"type":"Feature","geometry":{"type":"Point","coordinates":[8.53991189739763,47.3960965906553]},"properties":{"adresse":"Schaffhauserstrasse 119","name":"Zürich Milchbuck / Buchmattweg","ort":"Zürich","plz":"8057","www":"http://www.mobility.ch"}}
,{"type":"Feature","geometry":{"type":"Point","coordinates":[8.55669125228312,47.3655676925342]},"properties":{"adresse":"Minervastrasse 65","name":"Zürich Kreuzplatz / Kirche St. Anton","ort":"Zürich","plz":"8032","www":"http://www.mobility.ch"}}
,{"type":"Feature","geometry":{"type":"Point","coordinates":[8.48581216968557,47.3860664781546]},"properties":{"adresse":"Altstetterstrasse 175","name":"Zürich Altstetten Post / Lindenplatz","ort":"Zürich","plz":"8048","www":"http://www.mobility.ch"}}
,{"type":"Feature","geometry":{"type":"Point","coordinates":[8.51050878667645,47.364782417806]},"properties":{"adresse":"Sieberstrasse 12","name":"Zürich Friesenberg / Sieberstrasse","ort":"Zürich","plz":"8055","www":"http://www.mobility.ch"}}
,{"type":"Feature","geometry":{"type":"Point","coordinates":[8.52674109007038,47.3764950964637]},"properties":{"adresse":"Molkenstrasse 5","name":"Zürich Helvetiaplatz","ort":"Zürich","plz":"8004","www":"http://www.mobility.ch"}}
,{"type":"Feature","geometry":{"type":"Point","coordinates":[8.55189133780799,47.3614223420957]},"properties":{"adresse":"Florastrasse 38","name":"Zürich Florastrasse","ort":"Zürich","plz":"8008","www":"http://www.mobility.ch"}}
,{"type":"Feature","geometry":{"type":"Point","coordinates":[8.5060982766777,47.3957483673565]},"properties":{"adresse":"Am Wasser 55","name":"Zürich Am Wasser","ort":"Zürich","plz":"8049","www":"http://www.mobility.ch"}}
,{"type":"Feature","geometry":{"type":"Point","coordinates":[8.53864144437864,47.3993649234298]},"properties":{"adresse":"Wehntalerstrasse 36","name":"Zürich Buchegg / Wehntalerstrasse","ort":"Zürich","plz":"8057","www":"http://www.mobility.ch"}}
,{"type":"Feature","geometry":{"type":"Point","coordinates":[8.57069118341093,47.4038496914859]},"properties":{"adresse":"Winterthurerstrasse 507","name":"Zürich Schwamendingen / Hirschen","ort":"Zürich","plz":"8051","www":"http://www.mobility.ch"}}
,{"type":"Feature","geometry":{"type":"Point","coordinates":[8.53311181721769,47.3913758300735]},"properties":{"adresse":"Nordstrasse 152","name":"Zürich Letten / Nordstrasse","ort":"Zürich","plz":"8037","www":"http://www.mobility.ch"}}
,{"type":"Feature","geometry":{"type":"Point","coordinates":[8.51132922120746,47.3785732673116]},"properties":{"adresse":"Badenerstrasse 338","name":"Zürich Albisriederplatz / Tiefgarage","ort":"Zürich","plz":"8004","www":"http://www.mobility.ch"}}
,{"type":"Feature","geometry":{"type":"Point","coordinates":[8.53133829208169,47.3830541282401]},"properties":{"adresse":"Josefstrasse 84","name":"Zürich Josefstrasse / Johannesgasse","ort":"Zürich","plz":"8005","www":"http://www.mobility.ch"}}
,{"type":"Feature","geometry":{"type":"Point","coordinates":[8.51549744378597,47.3764475956262]},"properties":{"adresse":"Hildastrasse 4","name":"Zürich Sihlfeld / Hildastrasse","ort":"Zürich","plz":"8004","www":"http://www.mobility.ch"}}
,{"type":"Feature","geometry":{"type":"Point","coordinates":[8.5045311762275,47.4087876311968]},"properties":{"adresse":"Einsteinstrasse ","name":"Zürich ETH Hönggerberg / Einsteinstrasse","ort":"Zürich","plz":"8093","www":"http://www.mobility.ch"}}
,{"type":"Feature","geometry":{"type":"Point","coordinates":[8.54236087273687,47.3806735267563]},"properties":{"adresse":"Stampfenbachstrasse 57","name":"Zürich Stampfenbachplatz / Walchestrasse","ort":"Zürich","plz":"8006","www":"http://www.mobility.ch"}}
,{"type":"Feature","geometry":{"type":"Point","coordinates":[8.51295292166647,47.3573027340451]},"properties":{"adresse":"Hegianwandweg 28","name":"Zürich Friesenberg / Hegianwandweg","ort":"Zürich","plz":"8045","www":"http://www.mobility.ch"}}
,{"type":"Feature","geometry":{"type":"Point","coordinates":[8.50786105735017,47.4142708321586]},"properties":{"adresse":"Lerchenrain 7","name":"Zürich Oberaffoltern / Lerchenrain","ort":"Zürich","plz":"8046","www":"http://www.mobility.ch"}}
,{"type":"Feature","geometry":{"type":"Point","coordinates":[8.54884230089376,47.4222316922369]},"properties":{"adresse":"Katzenbachstrasse 16","name":"Zürich Seebach VBZ Haltestelle","ort":"Zürich","plz":"8052","www":"http://www.mobility.ch"}}
,{"type":"Feature","geometry":{"type":"Point","coordinates":[8.48726206317926,47.3783176361077]},"properties":{"adresse":"Flurstrasse 130","name":"Zürich Albisrieden / Pflegezentrum Bachwiesen","ort":"Zürich","plz":"8047","www":"http://www.mobility.ch"}}
,{"type":"Feature","geometry":{"type":"Point","coordinates":[8.59397032658698,47.4002011276516]},"properties":{"adresse":"Helen-Keller-Strasse 12","name":"Zürich Pflegezentrum Mattenhof / Helen-Keller-Strasse","ort":"Zürich","plz":"8051","www":"http://www.mobility.ch"}}
,{"type":"Feature","geometry":{"type":"Point","coordinates":[8.53940135387559,47.3931870415547]},"properties":{"adresse":"Schaffhauserstrasse 78","name":"Zürich Schaffhauserplatz / Kantonale Verwaltung","ort":"Zürich","plz":"8050","www":"http://www.mobility.ch"}}
,{"type":"Feature","geometry":{"type":"Point","coordinates":[8.57257984924134,47.3550410781078]},"properties":{"adresse":"August-Forel-Strasse 31-33","name":"Zürich Balgrist","ort":"Zürich","plz":"8008","www":"http://www.mobility.ch"}}
,{"type":"Feature","geometry":{"type":"Point","coordinates":[8.53637856600104,47.4078418220069]},"properties":{"adresse":"Birchstrasse 95","name":"Zürich Unterstrass / Birchplatz","ort":"Zürich","plz":"8050","www":"http://www.mobility.ch"}}
,{"type":"Feature","geometry":{"type":"Point","coordinates":[8.54906946575901,47.3689515063322]},"properties":{"adresse":"Promenadengasse 11","name":"Zürich Stadelhofen / Promenadengasse","ort":"Zürich","plz":"8001","www":"http://www.mobility.ch"}}
,{"type":"Feature","geometry":{"type":"Point","coordinates":[8.50838458415654,47.4192222379551]},"properties":{"adresse":"In Böden 169","name":"Zürich Affoltern / In Böden","ort":"Zürich","plz":"8046","www":"http://www.mobility.ch"}}
,{"type":"Feature","geometry":{"type":"Point","coordinates":[8.46405265198966,47.4301483453087]},"properties":{"adresse":"Untere Mühlestrasse 15","name":"Regensdorf Untere Mühlestrasse","ort":"Regensdorf","plz":"8105","www":"http://www.mobility.ch"}}
,{"type":"Feature","geometry":{"type":"Point","coordinates":[8.49959446786417,47.4024196104505]},"properties":{"adresse":"Gsteigstrasse 8","name":"Zürich Höngg / Gsteigstrasse","ort":"Zürich","plz":"8049","www":"http://www.mobility.ch"}}
,{"type":"Feature","geometry":{"type":"Point","coordinates":[8.53895342533179,47.386894715544]},"properties":{"adresse":"Lindenbachstrasse 1","name":"Zürich Kornhausbrücke / Parkhaus Stampfenbach","ort":"Zürich","plz":"8006","www":"http://www.mobility.ch"}}
,{"type":"Feature","geometry":{"type":"Point","coordinates":[8.52828168136215,47.3948396409816]},"properties":{"adresse":"Guthirtstrasse 10","name":"Zürich Wipkingen / Guthirtstrasse","ort":"Zürich","plz":"8037","www":"http://www.mobility.ch"}}
,{"type":"Feature","geometry":{"type":"Point","coordinates":[8.51861453040576,47.385845378255]},"properties":{"adresse":"Geroldstrasse 31 / 33","name":"Zürich Hardbrücke Bahnhof / Geroldstrasse","ort":"Zürich","plz":"8005","www":"http://www.mobility.ch"}}
,{"type":"Feature","geometry":{"type":"Point","coordinates":[8.54204917051912,47.3848052880422]},"properties":{"adresse":"Kurvenstrasse 25","name":"Zürich Unterstrass / Kurvenstrasse","ort":"Zürich","plz":"8006","www":"http://www.mobility.ch"}}
,{"type":"Feature","geometry":{"type":"Point","coordinates":[8.62418793243161,47.3310898578181]},"properties":{"adresse":"Unterdorfstrasse 11","name":"Zumikon Unterdorf","ort":"Zumikon","plz":"8126","www":"http://www.mobility.ch"}}
,{"type":"Feature","geometry":{"type":"Point","coordinates":[8.49557736110371,47.3822625822721]},"properties":{"adresse":"Flüelastrasse 31","name":"Zürich Altstetten / Flüelastr. / Überbauung James","ort":"Zürich","plz":"8047","www":"http://www.mobility.ch"}}
,{"type":"Feature","geometry":{"type":"Point","coordinates":[8.52326284204454,47.3565496367714]},"properties":{"adresse":"Büttenweg 16","name":"Zürich Sihlcity","ort":"Zürich","plz":"8045","www":"http://www.mobility.ch"}}
,{"type":"Feature","geometry":{"type":"Point","coordinates":[8.59060230855558,47.357192406442]},"properties":{"adresse":"Stodolastrasse 22","name":"Zürich Witikon / Stodolastrasse","ort":"Zürich","plz":"8053","www":"http://www.mobility.ch"}}
,{"type":"Feature","geometry":{"type":"Point","coordinates":[8.53015125976884,47.3891100883405]},"properties":{"adresse":"Wasserwerkstrasse 129","name":"Zürich Wipkingen / Wasserwerkstrasse","ort":"Zürich","plz":"8037","www":"http://www.mobility.ch"}}
,{"type":"Feature","geometry":{"type":"Point","coordinates":[8.51631280575708,47.3637299062679]},"properties":{"adresse":"Binzallee 6","name":"Zürich Binz / Binzallee","ort":"Zürich","plz":"8055","www":"http://www.mobility.ch"}}
,{"type":"Feature","geometry":{"type":"Point","coordinates":[8.53921920121696,47.3895007763255]},"properties":{"adresse":"Schindlersteig 1","name":"Zürich Schaffhauserstr. / Ecke Schindlersteig","ort":"Zürich","plz":"8006","www":"http://www.mobility.ch"}}
,{"type":"Feature","geometry":{"type":"Point","coordinates":[8.54600092733184,47.3977834255768]},"properties":{"adresse":"Winterthurerstrasse 190","name":"Zürich Universität Irchel","ort":"Zürich","plz":"8057","www":"http://www.mobility.ch"}}
,{"type":"Feature","geometry":{"type":"Point","coordinates":[8.48819827238112,47.3975944202665]},"properties":{"adresse":"Tüffenwies 33-C","name":"Zürich Altstetten / Tüffenwies","ort":"Zürich","plz":"8064","www":"http://www.mobility.ch"}}
,{"type":"Feature","geometry":{"type":"Point","coordinates":[8.52578004732079,47.3404245329249]},"properties":{"adresse":"Verenastrasse 7","name":"Zürich Wollishofen / Verenastrasse","ort":"Zürich","plz":"8038","www":"http://www.mobility.ch"}}
,{"type":"Feature","geometry":{"type":"Point","coordinates":[8.5216792581337,47.3672147508887]},"properties":{"adresse":"Dubsstrasse 31","name":"Zürich Manesseplatz / Dubsstrasse","ort":"Zürich","plz":"8003","www":"http://www.mobility.ch"}}
,{"type":"Feature","geometry":{"type":"Point","coordinates":[8.52424773488692,47.3802065784697]},"properties":{"adresse":"Feldstrasse 133","name":"Zürich Aussersihl / Feldstrasse","ort":"Zürich","plz":"8004","www":"http://www.mobility.ch"}}
,{"type":"Feature","geometry":{"type":"Point","coordinates":[8.5312369903873,47.343890128223]},"properties":{"adresse":"Albisstrasse 33","name":"Zürich Wollishofen / Albisstrasse","ort":"Zürich","plz":"8038","www":"http://www.mobility.ch"}}
,{"type":"Feature","geometry":{"type":"Point","coordinates":[8.5615722076083,47.429439610402]},"properties":{"adresse":"Giebeleichstrasse 2","name":"Opfikon Bahnhof / Giebeleichstrasse","ort":"Opfikon","plz":"8152","www":"http://www.mobility.ch"}}
,{"type":"Feature","geometry":{"type":"Point","coordinates":[8.53395547656532,47.3782978795681]},"properties":{"adresse":"Freischützgasse 30","name":"Zürich Hauptbahnhof","ort":"Zürich","plz":"8004","www":"http://www.mobility.ch"}}
,{"type":"Feature","geometry":{"type":"Point","coordinates":[8.49093877445171,47.3908052389109]},"properties":{"adresse":"Hohlstrasse 550","name":"Zürich Altstetten Bahnhof","ort":"Zürich","plz":"8048","www":"http://www.mobility.ch"}}
,{"type":"Feature","geometry":{"type":"Point","coordinates":[8.53063741067376,47.3727702912862]},"properties":{"adresse":"Werdstrasse 21","name":"Zürich Werd / Werdstrasse","ort":"Zürich","plz":"8004","www":"http://www.mobility.ch"}}
,{"type":"Feature","geometry":{"type":"Point","coordinates":[8.51668125951564,47.3610009418369]},"properties":{"adresse":"Uetlibergstrasse 124","name":"Zürich Post Giesshübel / Uetlibergstrasse","ort":"Zürich","plz":"8045","www":"http://www.mobility.ch"}}
,{"type":"Feature","geometry":{"type":"Point","coordinates":[8.60279221067196,47.3467974931818]},"properties":{"adresse":"In der Tiefe 3","name":"Zollikerberg In der Tiefe","ort":"Zollikerberg","plz":"8125","www":"http://www.mobility.ch"}}
,{"type":"Feature","geometry":{"type":"Point","coordinates":[8.57911218679468,47.4073019578529]},"properties":{"adresse":"Luegislandstrasse 498","name":"Zürich Luegislandstrasse","ort":"Zürich","plz":"8051","www":"http://www.mobility.ch"}}
,{"type":"Feature","geometry":{"type":"Point","coordinates":[8.5196025458783,47.3881928543659]},"properties":{"adresse":"Hardstrasse 245","name":"Zürich Hardstrasse / Schiffbau","ort":"Zürich","plz":"8005","www":"http://www.mobility.ch"}}
,{"type":"Feature","geometry":{"type":"Point","coordinates":[8.5452343744877,47.4118950677675]},"properties":{"adresse":"Hofwiesenstrasse 379","name":"Zürich Oerlikon Bahnhof / Pestalozzi-Bibliothek","ort":"Zürich","plz":"8050","www":"http://www.mobility.ch"}}
,{"type":"Feature","geometry":{"type":"Point","coordinates":[8.54713005245298,47.378837819869]},"properties":{"adresse":"Sonneggstrasse 5","name":"Zürich Sonneggstrasse","ort":"Zürich","plz":"8006","www":"http://www.mobility.ch"}}
,{"type":"Feature","geometry":{"type":"Point","coordinates":[8.52169505259621,47.362780005573]},"properties":{"adresse":"Eichstrasse 1/3/5","name":"Zürich Giesshübel Bahnhof","ort":"Zürich","plz":"8045","www":"http://www.mobility.ch"}}
,{"type":"Feature","geometry":{"type":"Point","coordinates":[8.51722988598908,47.3854895197766]},"properties":{"adresse":"Maagplatz 1","name":"Zürich Hardbrücke Bahnhof / Prime Tower","ort":"Zürich","plz":"8005","www":"http://www.mobility.ch"}}
,{"type":"Feature","geometry":{"type":"Point","coordinates":[8.51589831242742,47.3772804039607]},"properties":{"adresse":"Agnesstrasse 2","name":"Zürich Agnesstrasse","ort":"Zürich","plz":"8004","www":"http://www.mobility.ch"}}
,{"type":"Feature","geometry":{"type":"Point","coordinates":[8.50575856225216,47.3688832271622]},"properties":{"adresse":"Wasserschöpfi 77","name":"Zürich Wasserschöpfi","ort":"Zürich","plz":"8055","www":"http://www.mobility.ch"}}
,{"type":"Feature","geometry":{"type":"Point","coordinates":[8.56969187865665,47.3374748599825]},"properties":{"adresse":"Bahnhofstrasse 20","name":"Zollikon Bahnhof","ort":"Zollikon","plz":"8702","www":"http://www.mobility.ch"}}
,{"type":"Feature","geometry":{"type":"Point","coordinates":[8.64207302407282,47.3702057807943]},"properties":{"adresse":"Wigartenstrasse 13","name":"Fällanden Verkehrsgarten","ort":"Fällanden","plz":"8117","www":"http://www.mobility.ch"}}
,{"type":"Feature","geometry":{"type":"Point","coordinates":[8.53239011645711,47.4542579644148]},"properties":{"adresse":"Bahnhofplatz 10","name":"Rümlang Bahnhof","ort":"Rümlang","plz":"8153","www":"http://www.mobility.ch"}}
,{"type":"Feature","geometry":{"type":"Point","coordinates":[8.42301099876988,47.3862769048016]},"properties":{"adresse":"Feldstrasse 61","name":"Urdorf Feldstrasse","ort":"Urdorf","plz":"8902","www":"http://www.mobility.ch"}}
,{"type":"Feature","geometry":{"type":"Point","coordinates":[8.4964409922883,47.3684023184928]},"properties":{"adresse":"Birmensdorferstrasse 486","name":"Zürich Triemli / Birmensdorferstrasse","ort":"Zürich","plz":"8055","www":"http://www.mobility.ch"}}
,{"type":"Feature","geometry":{"type":"Point","coordinates":[8.49473825259377,47.3713413134947]},"properties":{"adresse":"Alfred-Strebel-Weg 9","name":"Zürich Schulhaus Altweg / Alfred-Strebel-Weg","ort":"Zürich","plz":"8047","www":"http://www.mobility.ch"}}
,{"type":"Feature","geometry":{"type":"Point","coordinates":[8.56747001847558,47.3593999108122]},"properties":{"adresse":"Hammerstrasse 106","name":"Zürich Hirslanden / Hammerstrasse","ort":"Zürich","plz":"8032","www":"http://www.mobility.ch"}}
,{"type":"Feature","geometry":{"type":"Point","coordinates":[8.52384127971641,47.3934062493148]},"properties":{"adresse":"Wipkingerweg 4","name":"Zürich Wipkingen / Wipkingerplatz","ort":"Zürich","plz":"8037","www":"http://www.mobility.ch"}}
,{"type":"Feature","geometry":{"type":"Point","coordinates":[8.51931378036203,47.4144341269868]},"properties":{"adresse":"Binzmühlestrasse 405","name":"Zürich Neu-Affoltern","ort":"Zürich","plz":"8046","www":"http://www.mobility.ch"}}
,{"type":"Feature","geometry":{"type":"Point","coordinates":[8.48044142207007,47.3836954024948]},"properties":{"adresse":"Eulenweg 29-31","name":"Zürich Altstetten / Zwischenbächen","ort":"Zürich","plz":"8048","www":"http://www.mobility.ch"}}
,{"type":"Feature","geometry":{"type":"Point","coordinates":[8.53732207553589,47.3880706205755]},"properties":{"adresse":"Markusstrasse 12","name":"Zürich Kornhausbrücke / Markusstrasse","ort":"Zürich","plz":"8006","www":"http://www.mobility.ch"}}
,{"type":"Feature","geometry":{"type":"Point","coordinates":[8.51474366551865,47.3758429588294]},"properties":{"adresse":"Zentralstrasse 156","name":"Zürich Zentralstrasse / Martastrasse","ort":"Zürich","plz":"8003","www":"http://www.mobility.ch"}}
,{"type":"Feature","geometry":{"type":"Point","coordinates":[8.51496262175271,47.3722608719891]},"properties":{"adresse":"Aemtlerstrasse 39","name":"Zürich Zwinglihaus / Aemtlerstrasse","ort":"Zürich","plz":"8003","www":"http://www.mobility.ch"}}
,{"type":"Feature","geometry":{"type":"Point","coordinates":[8.44938304763923,47.4136189209682]},"properties":{"adresse":"Zürcherstrasse 42","name":"Unterengstringen Dreispitz / Zürcherstrasse","ort":"Unterengstringen","plz":"8103","www":"http://www.mobility.ch"}}
,{"type":"Feature","geometry":{"type":"Point","coordinates":[8.52628900918404,47.3867808057715]},"properties":{"adresse":"Heinrichstrasse 147","name":"Zürich Röntgenplatz","ort":"Zürich","plz":"8005","www":"http://www.mobility.ch"}}
,{"type":"Feature","geometry":{"type":"Point","coordinates":[8.55799137976613,47.3694769872847]},"properties":{"adresse":"Asylstrasse 15","name":"Zürich Hottingerplatz","ort":"Zürich","plz":"8032","www":"http://www.mobility.ch"}}
,{"type":"Feature","geometry":{"type":"Point","coordinates":[8.55083301228687,47.3639961840189]},"properties":{"adresse":"Kreuzstrasse 41","name":"Zürich Kreuzstrasse / Klarastrasse","ort":"Zürich","plz":"8008","www":"http://www.mobility.ch"}}
,{"type":"Feature","geometry":{"type":"Point","coordinates":[8.51581298218595,47.3304793187321]},"properties":{"adresse":"Leimbachstrasse 107","name":"Zürich Leimbach Post","ort":"Zürich","plz":"8041","www":"http://www.mobility.ch"}}
,{"type":"Feature","geometry":{"type":"Point","coordinates":[8.50139998979731,47.3979594799886]},"properties":{"adresse":"Tobeleggweg 19","name":"Zürich Tobeleggweg","ort":"Zürich","plz":"8049","www":"http://www.mobility.ch"}}
,{"type":"Feature","geometry":{"type":"Point","coordinates":[8.58598025759354,47.4001368159438]},"properties":{"adresse":"Dübendorfstrasse 230","name":"Zürich Probstei","ort":"Zürich","plz":"8051","www":"http://www.mobility.ch"}}
,{"type":"Feature","geometry":{"type":"Point","coordinates":[8.51175044746088,47.3751602134537]},"properties":{"adresse":"Aemtlerstrasse 114","name":"Zürich Friedhof Sihlfeld / Ecke Fritschistrasse","ort":"Zürich","plz":"8003","www":"http://www.mobility.ch"}}
,{"type":"Feature","geometry":{"type":"Point","coordinates":[8.58358248976115,47.4149305440143]},"properties":{"adresse":"Alte Winterthurerstrasse 1","name":"Wallisellen Alte Winterthurerstrasse","ort":"Wallisellen","plz":"8304","www":"http://www.mobility.ch"}}
,{"type":"Feature","geometry":{"type":"Point","coordinates":[8.43620123960723,47.453400950757]},"properties":{"adresse":"Bahnhofstrasse 24","name":"Buchs (ZH) Bahnhof Buchs-Dällikon","ort":"Buchs (ZH)","plz":"8107","www":"http://www.mobility.ch"}}
,{"type":"Feature","geometry":{"type":"Point","coordinates":[8.47945410896582,47.3887414912427]},"properties":{"adresse":"Dachslernstrasse 35","name":"Zürich Altstetten / Hallenbad","ort":"Zürich","plz":"8048","www":"http://www.mobility.ch"}}
,{"type":"Feature","geometry":{"type":"Point","coordinates":[8.54702240939043,47.3813035203334]},"properties":{"adresse":"Culmannstrasse 27","name":"Zürich Haldenbach","ort":"Zürich","plz":"8006","www":"http://www.mobility.ch"}}
,{"type":"Feature","geometry":{"type":"Point","coordinates":[8.53529975561314,47.3914900035393]},"properties":{"adresse":"Rotbuchstrasse 22","name":"Zürich Rotbuchstrasse","ort":"Zürich","plz":"8037","www":"http://www.mobility.ch"}}
,{"type":"Feature","geometry":{"type":"Point","coordinates":[8.54821758820991,47.3668278371121]},"properties":{"adresse":"Schanzengasse 11","name":"Zürich Stadelhofen Bahnhof","ort":"Zürich","plz":"8001","www":"http://www.mobility.ch"}}
,{"type":"Feature","geometry":{"type":"Point","coordinates":[8.50195270006869,47.3665976213324]},"properties":{"adresse":"Schweigmatt 54","name":"Zürich Friesenberg / Schweigmatt","ort":"Zürich","plz":"8055","www":"http://www.mobility.ch"}}
,{"type":"Feature","geometry":{"type":"Point","coordinates":[8.53414311401287,47.3957916458671]},"properties":{"adresse":"Wachterweg 25","name":"Zürich Bucheggplatz / Wachterweg","ort":"Zürich","plz":"8057","www":"http://www.mobility.ch"}}
,{"type":"Feature","geometry":{"type":"Point","coordinates":[8.54578413445958,47.4160275040174]},"properties":{"adresse":"Friesstrasse 41","name":"Zürich Seebach / Friesstrasse","ort":"Zürich","plz":"8050","www":"http://www.mobility.ch"}}
,{"type":"Feature","geometry":{"type":"Point","coordinates":[8.55029362822569,47.4047853650834]},"properties":{"adresse":"Friedheimstrasse 17","name":"Zürich Berninaplatz / Friedheimstrasse","ort":"Zürich","plz":"8057","www":"http://www.mobility.ch"}}
,{"type":"Feature","geometry":{"type":"Point","coordinates":[8.50918050147505,47.4001454085222]},"properties":{"adresse":"Appenzellerstrasse 1","name":"Zürich Höngg / Im Wingert","ort":"Zürich","plz":"8049","www":"http://www.mobility.ch"}}
,{"type":"Feature","geometry":{"type":"Point","coordinates":[8.51421071442395,47.3258256991497]},"properties":{"adresse":"Klebestrasse 7","name":"Zürich Mittelleimbach Zentrum","ort":"Zürich","plz":"8041","www":"http://www.mobility.ch"}}
,{"type":"Feature","geometry":{"type":"Point","coordinates":[8.62806432001232,47.4431666606972]},"properties":{"adresse":"Klotenerstrasse 1","name":"Bassersdorf Zentrum / Bibliothek","ort":"Bassersdorf","plz":"8303","www":"http://www.mobility.ch"}}
,{"type":"Feature","geometry":{"type":"Point","coordinates":[8.47267342897248,47.3867425666919]},"properties":{"adresse":"Rautistrasse 345","name":"Zürich Altstetten / Rautistrasse","ort":"Zürich","plz":"8048","www":"http://www.mobility.ch"}}
,{"type":"Feature","geometry":{"type":"Point","coordinates":[8.51642812860184,47.3962641335327]},"properties":{"adresse":"Trottenstrasse 100","name":"Zürich Wipkingen / Trottenstrasse","ort":"Zürich","plz":"8037","www":"http://www.mobility.ch"}}
,{"type":"Feature","geometry":{"type":"Point","coordinates":[8.44760319148298,47.396624998946]},"properties":{"adresse":"Brunngasse 6","name":"Schlieren Zentrum / Brunngasse","ort":"Schlieren","plz":"8952","www":"http://www.mobility.ch"}}
,{"type":"Feature","geometry":{"type":"Point","coordinates":[8.66817093299053,47.3403626533843]},"properties":{"adresse":"Zürichstrasse 8","name":"Maur Dorf","ort":"Maur","plz":"8124","www":"http://www.mobility.ch"}}
,{"type":"Feature","geometry":{"type":"Point","coordinates":[8.48376911613719,47.3811737265798]},"properties":{"adresse":"Altstetterstrasse 237","name":"Zürich Altstetten / Schulhaus Untermoos","ort":"Zürich","plz":"8048","www":"http://www.mobility.ch"}}
,{"type":"Feature","geometry":{"type":"Point","coordinates":[8.53131833417064,47.3898276585227]},"properties":{"adresse":"Imfeldstrasse 60","name":"Zürich Wipkingen / Imfeldstrasse","ort":"Zürich","plz":"8037","www":"http://www.mobility.ch"}}
,{"type":"Feature","geometry":{"type":"Point","coordinates":[8.48357384522511,47.4042926883199]},"properties":{"adresse":"Limmattalstrasse 371","name":"Zürich Frankental / Pflegezentrum Bombach","ort":"Zürich","plz":"8049","www":"http://www.mobility.ch"}}
,{"type":"Feature","geometry":{"type":"Point","coordinates":[8.52668025126528,47.3346051262879]},"properties":{"adresse":"Paradiesstrasse 45","name":"Zürich Wollishofen / Pflegezentrum Entlisberg","ort":"Zürich","plz":"8038","www":"http://www.mobility.ch"}}
,{"type":"Feature","geometry":{"type":"Point","coordinates":[8.54792236393362,47.3933573789915]},"properties":{"adresse":"Langensteinenstrasse 65","name":"Zürich Oberstrass / Pflegezentrum Irchelpark","ort":"Zürich","plz":"8057","www":"http://www.mobility.ch"}}
,{"type":"Feature","geometry":{"type":"Point","coordinates":[8.6124804027834,47.3960927215817]},"properties":{"adresse":"Neuweg 12","name":"Dübendorf Neuweg","ort":"Dübendorf","plz":"8600","www":"http://www.mobility.ch"}}
,{"type":"Feature","geometry":{"type":"Point","coordinates":[8.52633005176308,47.3926812207823]},"properties":{"adresse":"Leutholdstrasse 17","name":"Zürich Wipkingen / Leutholdstrasse","ort":"Zürich","plz":"8037","www":"http://www.mobility.ch"}}
,{"type":"Feature","geometry":{"type":"Point","coordinates":[8.55256317529252,47.415737470249]},"properties":{"adresse":"Thurgauerstrasse 56","name":"Zürich Oerlikon / Thurgauerstrasse","ort":"Zürich","plz":"8050","www":"http://www.mobility.ch"}}
,{"type":"Feature","geometry":{"type":"Point","coordinates":[8.54225757541552,47.3795231314512]},"properties":{"adresse":"Neumühlequai 30","name":"Zürich Stampfenbachplatz / Neumühlequai","ort":"Zürich","plz":"8006","www":"http://www.mobility.ch"}}
,{"type":"Feature","geometry":{"type":"Point","coordinates":[8.57143785517207,47.3604764245857]},"properties":{"adresse":"Hirslanderstrasse 47","name":"Zürich Hirslanden / Kapfstrasse","ort":"Zürich","plz":"8032","www":"http://www.mobility.ch"}}
,{"type":"Feature","geometry":{"type":"Point","coordinates":[8.48553232641178,47.3913670727269]},"properties":{"adresse":"Bachmattweg 11","name":"Zürich Altstetten / Bachmattweg","ort":"Zürich","plz":"8048","www":"http://www.mobility.ch"}}
,{"type":"Feature","geometry":{"type":"Point","coordinates":[8.62000058482969,47.3642445447407]},"properties":{"adresse":"Zürichstrasse 80","name":"Pfaffhausen Zürichstrasse","ort":"Pfaffhausen","plz":"8118","www":"http://www.mobility.ch"}}
,{"type":"Feature","geometry":{"type":"Point","coordinates":[8.5351522070597,47.4235677594685]},"properties":{"adresse":"Schwandenholzstrasse 14","name":"Zürich Seebach / Schwandenackerstrasse","ort":"Zürich","plz":"8052","www":"http://www.mobility.ch"}}
,{"type":"Feature","geometry":{"type":"Point","coordinates":[8.57023179607312,47.3491902142065]},"properties":{"adresse":"Bleulerstrasse 60","name":"Zürich EPI - Klinik","ort":"Zürich","plz":"8008","www":"http://www.mobility.ch"}}
,{"type":"Feature","geometry":{"type":"Point","coordinates":[8.53066392633626,47.4154068332548]},"properties":{"adresse":"Kügeliloostrasse 97","name":"Zürich Oerlikon / Neunbrunnenstrasse","ort":"Zürich","plz":"8046","www":"http://www.mobility.ch"}}
,{"type":"Feature","geometry":{"type":"Point","coordinates":[8.4277215850729,47.393891527593]},"properties":{"adresse":"Spitalstrasse 31","name":"Schlieren Spital Limmattal","ort":"Schlieren","plz":"8952","www":"http://www.mobility.ch"}}
,{"type":"Feature","geometry":{"type":"Point","coordinates":[8.51401342586304,47.3960797468884]},"properties":{"adresse":"Limmattalstrasse 5/7","name":"Zürich Wipkingen / Limmattalstrasse","ort":"Zürich","plz":"8049","www":"http://www.mobility.ch"}}
,{"type":"Feature","geometry":{"type":"Point","coordinates":[8.55826072067806,47.3526802594727]},"properties":{"adresse":"Nebelbachstrasse 10","name":"Zürich Seefeld / Nebelbachstrasse","ort":"Zürich","plz":"8008","www":"http://www.mobility.ch"}}
,{"type":"Feature","geometry":{"type":"Point","coordinates":[8.43586875755678,47.3543422449465]},"properties":{"adresse":"Lettenmattstrasse 8","name":"Birmensdorf (ZH) Zentrum","ort":"Birmensdorf (ZH)","plz":"8903","www":"http://www.mobility.ch"}}
,{"type":"Feature","geometry":{"type":"Point","coordinates":[8.46839005203296,47.3268910341148]},"properties":{"adresse":"Stationsstrasse 32","name":"Bonstetten Bahnhof Bonstetten-Wettswil","ort":"Bonstetten","plz":"8906","www":"http://www.mobility.ch"}}
,{"type":"Feature","geometry":{"type":"Point","coordinates":[8.55960487951875,47.4147069007392]},"properties":{"adresse":"Hagenholzstrasse 83","name":"Zürich Riedbach / Holcim","ort":"Zürich","plz":"8050","www":"http://www.mobility.ch"}}
,{"type":"Feature","geometry":{"type":"Point","coordinates":[8.52835150766455,47.3322146113737]},"properties":{"adresse":"Dangelstrasse 25","name":"Zürich Wollishofen / Dangelstrasse","ort":"Zürich","plz":"8038","www":"http://www.mobility.ch"}}
,{"type":"Feature","geometry":{"type":"Point","coordinates":[8.52485998150075,47.3758111873219]},"properties":{"adresse":"Langstrasse 35","name":"Zürich Helvetiaplatz / Langstrasse","ort":"Zürich","plz":"8004","www":"http://www.mobility.ch"}}
,{"type":"Feature","geometry":{"type":"Point","coordinates":[8.53680127465857,47.3885073407483]},"properties":{"adresse":"Schindlerstrasse 4","name":"Zürich Kornhausbrücke / Schindlerstrasse","ort":"Zürich","plz":"8006","www":"http://www.mobility.ch"}}
,{"type":"Feature","geometry":{"type":"Point","coordinates":[8.51302111000688,47.4243783206031]},"properties":{"adresse":"Wolfswinkel 18","name":"Zürich Unter-Affoltern / Wolfswinkel","ort":"Zürich","plz":"8046","www":"http://www.mobility.ch"}}
,{"type":"Feature","geometry":{"type":"Point","coordinates":[8.52824959177189,47.344709957896]},"properties":{"adresse":"Tannenrauchstrasse 84","name":"Zürich Wollishofen / Tannenrauchstrasse","ort":"Zürich","plz":"8038","www":"http://www.mobility.ch"}}
,{"type":"Feature","geometry":{"type":"Point","coordinates":[8.55533256259677,47.379712272117]},"properties":{"adresse":"Hinterbergstrasse 11","name":"Zürich Zürichberg / Hinterbergstrasse","ort":"Zürich","plz":"8044","www":"http://www.mobility.ch"}}
,{"type":"Feature","geometry":{"type":"Point","coordinates":[8.50294785120203,47.373334759303]},"properties":{"adresse":"Gutstrasse 151","name":"Zürich Im Gut / Gutstrasse","ort":"Zürich","plz":"8055","www":"http://www.mobility.ch"}}
,{"type":"Feature","geometry":{"type":"Point","coordinates":[8.5655615887801,47.4056269071469]},"properties":{"adresse":"Luegislandstrasse 25-33","name":"Zürich Schwamendingen / Diener Areal","ort":"Zürich","plz":"8051","www":"http://www.mobility.ch"}}
,{"type":"Feature","geometry":{"type":"Point","coordinates":[8.54419263782916,47.3936360092755]},"properties":{"adresse":"Langmauerstrasse 113","name":"Zürich Langmauerstrasse","ort":"Zürich","plz":"8006","www":"http://www.mobility.ch"}}
,{"type":"Feature","geometry":{"type":"Point","coordinates":[8.50172334157145,47.4247796745883]},"properties":{"adresse":"Weidmannstrasse 12","name":"Zürich Affoltern / Klee","ort":"Zürich","plz":"8046","www":"http://www.mobility.ch"}}
,{"type":"Feature","geometry":{"type":"Point","coordinates":[8.51972288869716,47.3719375352309]},"properties":{"adresse":"Bremgartnerstrasse 18","name":"Zürich Wiedikon / Bremgartnerstrasse","ort":"Zürich","plz":"8003","www":"http://www.mobility.ch"}}
,{"type":"Feature","geometry":{"type":"Point","coordinates":[8.54697377842201,47.4107899984715]},"properties":{"adresse":"Schaffhauserstrasse 362","name":"Zürich Oerlikon / Schaffhauserstrasse","ort":"Zürich","plz":"8050","www":"http://www.mobility.ch"}}
,{"type":"Feature","geometry":{"type":"Point","coordinates":[8.55834327986845,47.371101700636]},"properties":{"adresse":"Fehrenstrasse 15","name":"Zürich Kantonales Labor Zürich / Fehrenstrasse","ort":"Zürich","plz":"8032","www":"http://www.mobility.ch"}}
,{"type":"Feature","geometry":{"type":"Point","coordinates":[8.61307233193753,47.4001075372824]},"properties":{"adresse":"Überlandstrasse 138","name":"Dübendorf Givaudan / Überlandstrasse","ort":"Dübendorf","plz":"8600","www":"http://www.mobility.ch"}}
,{"type":"Feature","geometry":{"type":"Point","coordinates":[8.5263598963688,47.383766767349]},"properties":{"adresse":"Neugasse 81","name":"Zürich Neugasse","ort":"Zürich","plz":"8005","www":"http://www.mobility.ch"}}
,{"type":"Feature","geometry":{"type":"Point","coordinates":[8.56668986758392,47.3631945411035]},"properties":{"adresse":"Sempacherstrasse 15","name":"Zürich Klusplatz","ort":"Zürich","plz":"8032","www":"http://www.mobility.ch"}}
,{"type":"Feature","geometry":{"type":"Point","coordinates":[8.51009973222111,47.3813102050475]},"properties":{"adresse":"Bullingerstrasse 73","name":"Zürich Aussersihl / Bullingerstrasse","ort":"Zürich","plz":"8004","www":"http://www.mobility.ch"}}
,{"type":"Feature","geometry":{"type":"Point","coordinates":[8.49751877991357,47.3866523706301]},"properties":{"adresse":"Baslerstrasse 52","name":"Zürich Letzipark / Baslerstrasse","ort":"Zürich","plz":"8048","www":"http://www.mobility.ch"}}
,{"type":"Feature","geometry":{"type":"Point","coordinates":[8.51822803112774,47.373966428859]},"properties":{"adresse":"Weststrasse 164","name":"Zürich Weststrasse / Haslerstrasse","ort":"Zürich","plz":"8003","www":"http://www.mobility.ch"}}
,{"type":"Feature","geometry":{"type":"Point","coordinates":[8.54033510786055,47.3902996999443]},"properties":{"adresse":"Riedtlistrasse 11","name":"Zürich Schaffhauserplatz / Riedtlistrasse","ort":"Zürich","plz":"8006","www":"http://www.mobility.ch"}}
,{"type":"Feature","geometry":{"type":"Point","coordinates":[8.5320974893903,47.3993910760139]},"properties":{"adresse":"Rötelstrasse 150","name":"Zürich Bucheggplatz / Rötelstrasse","ort":"Zürich","plz":"8037","www":"http://www.mobility.ch"}}
,{"type":"Feature","geometry":{"type":"Point","coordinates":[8.5281066867069,47.3856392810506]},"properties":{"adresse":"Quellenstrasse 31","name":"Zürich Limmatplatz / Quellenstrasse","ort":"Zürich","plz":"8005","www":"http://www.mobility.ch"}}
,{"type":"Feature","geometry":{"type":"Point","coordinates":[8.47449221666645,47.3944531809524]},"properties":{"adresse":"Hermetschloostrasse 70","name":"Zürich Altstetten / Hermetschloostrasse","ort":"Zürich","plz":"8048","www":"http://www.mobility.ch"}}
,{"type":"Feature","geometry":{"type":"Point","coordinates":[8.49549563846438,47.402834960337]},"properties":{"adresse":"Wieslergasse 3","name":"Zürich Höngg / Wieslergasse","ort":"Zürich","plz":"8049","www":"http://www.mobility.ch"}}
,{"type":"Feature","geometry":{"type":"Point","coordinates":[8.54845757802194,47.4069618404097]},"properties":{"adresse":"Schaffhauserstrasse 308","name":"Zürich Oerlikon / Salersteig","ort":"Zürich","plz":"8050","www":"http://www.mobility.ch"}}
,{"type":"Feature","geometry":{"type":"Point","coordinates":[8.54236282955659,47.3877976788143]},"properties":{"adresse":"Turnerstrasse 47","name":"Zürich Turnerstrasse","ort":"Zürich","plz":"8006","www":"http://www.mobility.ch"}}
,{"type":"Feature","geometry":{"type":"Point","coordinates":[8.51075883520422,47.3923410650309]},"properties":{"adresse":"Förrlibuckstrasse 178","name":"Zürich Fischerweg / Förrlibuckstrasse","ort":"Zürich","plz":"8005","www":"http://www.mobility.ch"}}
,{"type":"Feature","geometry":{"type":"Point","coordinates":[8.40602317592922,47.4098975099907]},"properties":{"adresse":"Alfred-Comte-Strasse 3","name":"Dietikon Limmatfeld","ort":"Dietikon","plz":"8953","www":"http://www.mobility.ch"}}
,{"type":"Feature","geometry":{"type":"Point","coordinates":[8.53445247128897,47.4043880148176]},"properties":{"adresse":"Birchstrasse 3","name":"Zürich Birchstrasse / Wehntalerstrasse","ort":"Zürich","plz":"8057","www":"http://www.mobility.ch"}}
,{"type":"Feature","geometry":{"type":"Point","coordinates":[8.51964759038743,47.3643103847856]},"properties":{"adresse":"Austrasse 44/46","name":"Zürich Manesseplatz / Austrasse","ort":"Zürich","plz":"8045","www":"http://www.mobility.ch"}}
,{"type":"Feature","geometry":{"type":"Point","coordinates":[8.52127733794834,47.393043520219]},"properties":{"adresse":"Breitensteinstrasse 19","name":"Zürich Wipkingen / Breitensteinstrasse","ort":"Zürich","plz":"8037","www":"http://www.mobility.ch"}}
,{"type":"Feature","geometry":{"type":"Point","coordinates":[8.52604312185569,47.3643582403612]},"properties":{"adresse":"Brandschenkestrasse ","name":"Zürich Enge / Brandschenkestrasse","ort":"Zürich","plz":"8002","www":"http://www.mobility.ch"}}
,{"type":"Feature","geometry":{"type":"Point","coordinates":[8.5602252405067,47.3623760573395]},"properties":{"adresse":"Forchstrasse 95","name":"Zürich Hegibachplatz / Minervastrasse","ort":"Zürich","plz":"8032","www":"http://www.mobility.ch"}}
,{"type":"Feature","geometry":{"type":"Point","coordinates":[8.54212174902303,47.3831944599611]},"properties":{"adresse":"Obstgartenstrasse 21 ","name":"Zürich Unterstrass / Obstgartenstrasse","ort":"Zürich","plz":"8006","www":"http://www.mobility.ch"}}
,{"type":"Feature","geometry":{"type":"Point","coordinates":[8.55213477299208,47.4060269488819]},"properties":{"adresse":"Salvatorstrasse 8","name":"Zürich Oerlikon / Salvatorstrasse","ort":"Zürich","plz":"8050","www":"http://www.mobility.ch"}}
,{"type":"Feature","geometry":{"type":"Point","coordinates":[8.56375796786486,47.3603986765256]},"properties":{"adresse":"Forchstrasse 144","name":"Zürich Hirslanden / Forchstrasse","ort":"Zürich","plz":"8032","www":"http://www.mobility.ch"}}
,{"type":"Feature","geometry":{"type":"Point","coordinates":[8.53460262865975,47.3177000042875]},"properties":{"adresse":"Grütstrasse 29","name":"Adliswil Dietlimoos / Grütstrasse","ort":"Adliswil","plz":"8134","www":"http://www.mobility.ch"}}
,{"type":"Feature","geometry":{"type":"Point","coordinates":[8.53702906186839,47.4104711876134]},"properties":{"adresse":"Affolternstrasse 98","name":"Zürich Oerlikon / Affolternstrasse","ort":"Zürich","plz":"8050","www":"http://www.mobility.ch"}}
,{"type":"Feature","geometry":{"type":"Point","coordinates":[8.49288351607374,47.368614776475]},"properties":{"adresse":"Rossackerstrasse 15","name":"Zürich Triemli / Rossackerstrasse","ort":"Zürich","plz":"8047","www":"http://www.mobility.ch"}}
,{"type":"Feature","geometry":{"type":"Point","coordinates":[8.60221651238285,47.4010718673035]},"properties":{"adresse":"Neugutstrasse 83","name":"Dübendorf Micasa","ort":"Dübendorf","plz":"8600","www":"http://www.mobility.ch"}}
,{"type":"Feature","geometry":{"type":"Point","coordinates":[8.55433952585744,47.3759259222514]},"properties":{"adresse":"Moussonstrasse 2","name":"Zürich Moussonstrasse / Gloriastrasse","ort":"Zürich","plz":"8044","www":"http://www.mobility.ch"}}
,{"type":"Feature","geometry":{"type":"Point","coordinates":[8.60146083881018,47.4046865223365]},"properties":{"adresse":"Zwickystrasse 30","name":"Wallisellen Neugut - Zwicky-Areal","ort":"Wallisellen","plz":"8304","www":"http://www.mobility.ch"}}
,{"type":"Feature","geometry":{"type":"Point","coordinates":[8.55340216482919,47.3823935028192]},"properties":{"adresse":"Toblerstrasse 19","name":"Zürich Spyriplatz / Toblerstrasse","ort":"Zürich","plz":"8044","www":"http://www.mobility.ch"}}
,{"type":"Feature","geometry":{"type":"Point","coordinates":[8.57188075395248,47.4391975073139]},"properties":{"adresse":"Balz-Zimmermann-Strasse 7","name":"Kloten Balsberg","ort":"Kloten","plz":"8302","www":"http://www.mobility.ch"}}
,{"type":"Feature","geometry":{"type":"Point","coordinates":[8.50315419253342,47.3617921582758]},"properties":{"adresse":"Friesenbergstrasse 234","name":"Zürich Friesenberg / Friesenbergstrasse","ort":"Zürich","plz":"8055","www":"http://www.mobility.ch"}}
,{"type":"Feature","geometry":{"type":"Point","coordinates":[8.5521051258271,47.374193450907]},"properties":{"adresse":"Freiestrasse ","name":"Zürich Universitätsspital / Freiestrasse","ort":"Zürich","plz":"8032","www":"http://www.mobility.ch"}}
,{"type":"Feature","geometry":{"type":"Point","coordinates":[8.56045922462327,47.4256905115413]},"properties":{"adresse":"Lindbergh-Platz 1","name":"Opfikon-Glattbrugg Lindbergh-Platz","ort":"Opfikon","plz":"8152","www":"http://www.mobility.ch"}}
,{"type":"Feature","geometry":{"type":"Point","coordinates":[8.5096472853356,47.376591973919]},"properties":{"adresse":"Aemtlerstrasse 164","name":"Zürich Aemtlerstrasse / Friedaustrasse","ort":"Zürich","plz":"8003","www":"http://www.mobility.ch"}}
,{"type":"Feature","geometry":{"type":"Point","coordinates":[8.51348476325069,47.3698909437412]},"properties":{"adresse":"Goldbrunnenstrasse 107-109","name":"Zürich Goldbrunnenplatz","ort":"Zürich","plz":"8055","www":"http://www.mobility.ch"}}
,{"type":"Feature","geometry":{"type":"Point","coordinates":[8.54407543361916,47.3796946420575]},"properties":{"adresse":"Weinbergstrasse 35","name":"Zürich Haldenegg / Weinbergstrasse","ort":"Zürich","plz":"8092","www":"http://www.mobility.ch"}}
,{"type":"Feature","geometry":{"type":"Point","coordinates":[8.56121821517686,47.3692927127863]},"properties":{"adresse":"Rütistrasse 1","name":"Zürich Römerhofplatz","ort":"Zürich","plz":"8032","www":"http://www.mobility.ch"}}
,{"type":"Feature","geometry":{"type":"Point","coordinates":[8.54803197459369,47.3610906975838]},"properties":{"adresse":"Bellerivestrasse 2","name":"Zürich Utoquai /  Bellerivestrasse","ort":"Zürich","plz":"8008","www":"http://www.mobility.ch"}}
,{"type":"Feature","geometry":{"type":"Point","coordinates":[8.53777368567529,47.3874906340473]},"properties":{"adresse":"Kronenstrasse 33","name":"Zürich Kronenstrasse","ort":"Zürich","plz":"8006","www":"http://www.mobility.ch"}}
,{"type":"Feature","geometry":{"type":"Point","coordinates":[8.51920185706214,47.3357908151945]},"properties":{"adresse":"Leimbachstrasse 25","name":"Zürich Leimbach / Sihlbogen","ort":"Zürich","plz":"8041","www":"http://www.mobility.ch"}}
,{"type":"Feature","geometry":{"type":"Point","coordinates":[8.53099295166401,47.3926911869315]},"properties":{"adresse":"Nordstrasse 194","name":"Zürich Wipkingen / Nordstrasse","ort":"Zürich","plz":"8037","www":"http://www.mobility.ch"}}
,{"type":"Feature","geometry":{"type":"Point","coordinates":[8.58117291273737,47.4063910789443]},"properties":{"adresse":"Winterthurerstrasse 661","name":"Zürich Schwamendingen / Winterthurerstrasse","ort":"Zürich","plz":"8051","www":"http://www.mobility.ch"}}
,{"type":"Feature","geometry":{"type":"Point","coordinates":[8.55243631172271,47.3627933583801]},"properties":{"adresse":"Eisengasse 18","name":"Zürich Seefeld / Eisengasse","ort":"Zürich","plz":"8008","www":"http://www.mobility.ch"}}
,{"type":"Feature","geometry":{"type":"Point","coordinates":[8.53562402710051,47.3647893019825]},"properties":{"adresse":"Tödistrasse 9","name":"Zürich Enge / Tödistrasse","ort":"Zürich","plz":"8002","www":"http://www.mobility.ch"}}
,{"type":"Feature","geometry":{"type":"Point","coordinates":[8.47884441622974,47.4144906920215]},"properties":{"adresse":"Rütihofstrasse 24","name":"Zürich Höngg / Rütihofstrasse","ort":"Zürich","plz":"8049","www":"http://www.mobility.ch"}}
,{"type":"Feature","geometry":{"type":"Point","coordinates":[8.53055593836286,47.3687952069093]},"properties":{"adresse":"Gerechtigkeitsgasse 31","name":"Zürich Selnau / Gerechtigkeitsgasse","ort":"Zürich","plz":"8001","www":"http://www.mobility.ch"}}
,{"type":"Feature","geometry":{"type":"Point","coordinates":[8.48967199687538,47.3923909003756]},"properties":{"adresse":"Vulkanplatz ","name":"Zürich Altstetten / Vulkanplatz","ort":"Zürich","plz":"8048","www":"http://www.mobility.ch"}}
,{"type":"Feature","geometry":{"type":"Point","coordinates":[8.53009700283713,47.4497911244648]},"properties":{"adresse":"Glattalstrasse 201","name":"Rümlang Gemeindehaus","ort":"Rümlang","plz":"8153","www":"http://www.mobility.ch"}}
,{"type":"Feature","geometry":{"type":"Point","coordinates":[8.56275148002605,47.3628911759306]},"properties":{"adresse":"Hegibachstrasse 36 ","name":"Zürich Hegibachstrasse / Haltestelle Freiestrasse","ort":"Zürich","plz":"8032","www":"http://www.mobility.ch"}}
,{"type":"Feature","geometry":{"type":"Point","coordinates":[8.53479125560916,47.3333139952098]},"properties":{"adresse":"Nidelbadstrasse 79","name":"Zürich Neubühl","ort":"Zürich","plz":"8038","www":"http://www.mobility.ch"}}
,{"type":"Feature","geometry":{"type":"Point","coordinates":[8.50782848712774,47.3790015230046]},"properties":{"adresse":"Bramsstrasse 30a","name":"Zürich Albisriederplatz / Brahmshof","ort":"Zürich","plz":"8003","www":"http://www.mobility.ch"}}
,{"type":"Feature","geometry":{"type":"Point","coordinates":[8.54286215040403,47.3818560974338]},"properties":{"adresse":"Sumatrastrasse 31","name":"Zürich Sonnegg / Sumatrastrasse","ort":"Zürich","plz":"8006","www":"http://www.mobility.ch"}}
,{"type":"Feature","geometry":{"type":"Point","coordinates":[8.55624365351009,47.3581149819427]},"properties":{"adresse":"Höschgasse 78","name":"Zürich Höschgasse","ort":"Zürich","plz":"8008","www":"http://www.mobility.ch"}}
,{"type":"Feature","geometry":{"type":"Point","coordinates":[8.51746841296847,47.3750349520141]},"properties":{"adresse":"Meinrad-Lienert-Strasse 25","name":"Zürich Lochergut / Meinrad Lienertstr.","ort":"Zürich","plz":"8003","www":"http://www.mobility.ch"}}
,{"type":"Feature","geometry":{"type":"Point","coordinates":[8.56376288293397,47.3625125090395]},"properties":{"adresse":"Freiestrasse 178-168","name":"Zürich Freiestrasse","ort":"Zürich","plz":"8032","www":"http://www.mobility.ch"}}
,{"type":"Feature","geometry":{"type":"Point","coordinates":[8.58178205465893,47.451423216352]},"properties":{"adresse":"Schaffhauserstrasse 122","name":"Kloten Migros Markt","ort":"Kloten","plz":"8302","www":"http://www.mobility.ch"}}
,{"type":"Feature","geometry":{"type":"Point","coordinates":[8.53248198788361,47.3613559753177]},"properties":{"adresse":"Lavaterstrasse 60","name":"Zürich Museum Rietberg / Lavaterstrasse","ort":"Zürich","plz":"8002","www":"http://www.mobility.ch"}}
,{"type":"Feature","geometry":{"type":"Point","coordinates":[8.58561760555645,47.3593109561192]},"properties":{"adresse":"Witikonerstrasse 293","name":"Zürich Witikon Migros Markt","ort":"Zürich","plz":"8053","www":"http://www.mobility.ch"}}
,{"type":"Feature","geometry":{"type":"Point","coordinates":[8.52405138055953,47.3848679049171]},"properties":{"adresse":"Neugasse 145","name":"Zürich Neugasse / Depot SBB","ort":"Zürich","plz":"8005","www":"http://www.mobility.ch"}}
,{"type":"Feature","geometry":{"type":"Point","coordinates":[8.5455141529539,47.4132416392318]},"properties":{"adresse":"Wattstrasse 6","name":"Zürich Oerlikon Bahnhof / Wattstrasse","ort":"Zürich","plz":"8050","www":"http://www.mobility.ch"}}
,{"type":"Feature","geometry":{"type":"Point","coordinates":[8.51656370182285,47.3918372908817]},"properties":{"adresse":"Förrlibuckstrasse 10","name":"Zürich Förrlibuckstrasse","ort":"Zürich","plz":"8005","www":"http://www.mobility.ch"}}
,{"type":"Feature","geometry":{"type":"Point","coordinates":[8.50792276658029,47.3935906756578]},"properties":{"adresse":"Hardturmstrasse 261","name":"Zürich Kraft - Werk 1","ort":"Zürich","plz":"8005","www":"http://www.mobility.ch"}}
,{"type":"Feature","geometry":{"type":"Point","coordinates":[8.53048328652201,47.3639565108444]},"properties":{"adresse":"Grütlistrasse 4","name":"Zürich Enge Bahnhof","ort":"Zürich","plz":"8002","www":"http://www.mobility.ch"}}
,{"type":"Feature","geometry":{"type":"Point","coordinates":[8.55038829246419,47.3648909892271]},"properties":{"adresse":"Mühlebachstrasse 25 - 27","name":"Zürich Stadelhofen / Mühlebachstrasse","ort":"Zürich","plz":"8008","www":"http://www.mobility.ch"}}
,{"type":"Feature","geometry":{"type":"Point","coordinates":[8.53243216437578,47.3808579499405]},"properties":{"adresse":"Zollstrasse 62","name":"Zürich Zollstrasse","ort":"Zürich","plz":"8005","www":"http://www.mobility.ch"}}
,{"type":"Feature","geometry":{"type":"Point","coordinates":[8.56236142110137,47.450489284868]},"properties":{"adresse":"Vorfahrtsstrasse ","name":"Zürich Flughafen Bahnhof","ort":"Zürich","plz":"8058","www":"http://www.mobility.ch"}}
]}
