{"name":"Kinderkrippe","type":"FeatureCollection"
,"features":[
{"type":"Feature","geometry":{"type":"Point","coordinates":[8.54320611010894,47.3817733250192]},"properties":{"adresse":"Sumatrastrasse 30","name":"Kinderkrippe kihz Sumatra","ort":"Zürich","plz":"8006","tel":"+41 44 634 56 69","www":"http://www.kihz.uzh.ch/de/kitas/kihz-sumatra.html"}}
,{"type":"Feature","geometry":{"type":"Point","coordinates":[8.53756316210007,47.3772216371314]},"properties":{"adresse":"Gessnerallee 46","name":"KIMI Hauptbahnhof Zürich","ort":"Zürich","plz":"8037","tel":"+41 44 221 95 15","www":"https://www.kimikrippen.ch/de/standorte/hauptbahnhof.html"}}
,{"type":"Feature","geometry":{"type":"Point","coordinates":[8.52701818576286,47.3945380722293]},"properties":{"adresse":"Nordstrasse 250","name":"Krippe Schiguna Kronenwiese","ort":"Zürich","plz":null,"tel":null,"www":"http://www.schiguna.ch"}}
,{"type":"Feature","geometry":{"type":"Point","coordinates":[8.54599748368132,47.3892755184115]},"properties":{"adresse":"Winterthurerstrasse 63","name":"\"Fugu\" Kinderkrippe Zürich Oberstrass","ort":"Zürich","plz":"8006","tel":"+41 43 311 66 16","www":"http://www.kitafugu.ch"}}
,{"type":"Feature","geometry":{"type":"Point","coordinates":[8.55955969442684,47.413773319273]},"properties":{"adresse":"Dialogweg 7","name":"Nonna Rosa","ort":"Zürich","plz":"8050","tel":"+41 76 424 71 82","www":"http://www.kitanonnarosa.ch"}}
,{"type":"Feature","geometry":{"type":"Point","coordinates":[8.57855367977207,47.3514398606835]},"properties":{"adresse":"Forchstrasse 370","name":"globegarden Kinderhaus Seldwyla","ort":"Zürich","plz":"8008","tel":"+41 44 536 55 32","www":"http://www.globegarden.org"}}
,{"type":"Feature","geometry":{"type":"Point","coordinates":[8.54749883224123,47.3793125096389]},"properties":{"adresse":"Culmannstrasse 4","name":"Kita USZ Culmannstrasse","ort":"Zürich","plz":"8006","tel":"+41 44 255 98 68","www":null}}
,{"type":"Feature","geometry":{"type":"Point","coordinates":[8.52458303290705,47.3926990042235]},"properties":{"adresse":"Röschibachstrasse 22","name":"KiddieLand","ort":"Zürich","plz":"8037","tel":"+41 76 518 57 35","www":"http://www.kiddieland.ch"}}
,{"type":"Feature","geometry":{"type":"Point","coordinates":[8.51330087287298,47.3633275735834]},"properties":{"adresse":"Räffelstrasse 24","name":"Kinderkrippe Bambi Binz","ort":"Zürich","plz":"8045","tel":"+41 44 431 13 65","www":"https://www.kinderkrippe-bambi.ch/"}}
,{"type":"Feature","geometry":{"type":"Point","coordinates":[8.56409436757398,47.4107608826381]},"properties":{"adresse":"Wallisellenstrasse 332","name":"Kita Orchidee","ort":"Zürich","plz":"8050","tel":"+44 43 558 76 73","www":"http://www.kitaorchidee.ch/"}}
,{"type":"Feature","geometry":{"type":"Point","coordinates":[8.53013310213592,47.3344930328278]},"properties":{"adresse":"Albisstrasse 147","name":"Little Star Day School Albisstrasse","ort":"Zürich","plz":"8038","tel":"+41 43 377 54 00","www":"http://www.littlestardayschool.com"}}
,{"type":"Feature","geometry":{"type":"Point","coordinates":[8.49407214717739,47.3703951405594]},"properties":{"adresse":"Wydäckerring 52","name":"Kinderkrippe Bambi Albisrieden","ort":"Zürich","plz":"8047","tel":"+41 44 431 13 65","www":"http://www.kinderkrippe-bambi.ch"}}
,{"type":"Feature","geometry":{"type":"Point","coordinates":[8.55413853668944,47.3789772245022]},"properties":{"adresse":"Hochstrasse 48","name":"Magic Fish","ort":"Zürich","plz":"8044","tel":"+41 43 244 91 80","www":"http://www.kinderkrippemagicfish.ch"}}
,{"type":"Feature","geometry":{"type":"Point","coordinates":[8.51532691948169,47.3672845490834]},"properties":{"adresse":"Bühlstrasse 19","name":"Kinderkrippe Zauberschloss 2","ort":"Zürich","plz":"8055","tel":"+41 78 679 08 84","www":"http://www.kinderkrippe-zauberschloss.ch"}}
,{"type":"Feature","geometry":{"type":"Point","coordinates":[8.55420188301799,47.3585320743409]},"properties":{"adresse":"Seefeldstrasse 111","name":"Tandem IMS","ort":"Zürich","plz":"8008","tel":"+41 43 500 10 30","www":"http://www.tandem-ims.ch"}}
,{"type":"Feature","geometry":{"type":"Point","coordinates":[8.5453185604237,47.402504806626]},"properties":{"adresse":"Begonienstrasse 10","name":"Kinderkrippe Witzchistli","ort":"Zürich","plz":"8057","tel":"+41 44 501 04 40","www":"http://www.kita-witzchistli.ch/"}}
,{"type":"Feature","geometry":{"type":"Point","coordinates":[8.58078796743375,47.4019888035058]},"properties":{"adresse":"Dübendorfstrasse 145","name":"GFZ Kita 12  - Dübendorfstrasse","ort":"Zürich","plz":"8051","tel":"+41 44 325 10 30","www":"http://www.gfz-zh.ch"}}
,{"type":"Feature","geometry":{"type":"Point","coordinates":[8.49536929418056,47.3890750093487]},"properties":{"adresse":"Hohlstrasse 480","name":"Kids & Co Letzibach","ort":"Zürich","plz":"8048","tel":"+44 43 811 80 22","www":"https://www.profawo.ch/index.php?id=69&L=0"}}
,{"type":"Feature","geometry":{"type":"Point","coordinates":[8.58805459047187,47.3575236432972]},"properties":{"adresse":"Carl-Spitteler-Strasse 6","name":"Montessori Kinderhaus Zaubermond","ort":"Zürich","plz":"8053","tel":"+41 44 422 58 86","www":"http://www.montessori-zaubermond.ch"}}
,{"type":"Feature","geometry":{"type":"Point","coordinates":[8.52463524659242,47.3725135208785]},"properties":{"adresse":"Zweierstrasse 49","name":"Tandem Stauffacher 2","ort":"Zürich","plz":"8004","tel":"+41 43 317 97 10","www":"http://www.kita-tandem.ch/"}}
,{"type":"Feature","geometry":{"type":"Point","coordinates":[8.5331374369982,47.3448450725237]},"properties":{"adresse":"Albisstrasse 10","name":"Joey Kinderkrippe","ort":"Zürich","plz":"8038","tel":"+41 44 480 15 00","www":"http://www.joey-kinderkrippe.ch"}}
,{"type":"Feature","geometry":{"type":"Point","coordinates":[8.51345969152451,47.3771156011957]},"properties":{"adresse":"Badenerstrasse 296","name":"Kidischloss","ort":"Zürich","plz":"8004","tel":"+41 78 880 83 21","www":"http://www.kidischloss.ch"}}
,{"type":"Feature","geometry":{"type":"Point","coordinates":[8.48286971287744,47.397392087715]},"properties":{"adresse":"Bändlistrasse 68","name":"Chinderhuus Wirbelwind Bändli","ort":"Zürich","plz":"8064","tel":"+41 44 432 25 66","www":"http://www.stiftung-chinderhuus.ch/Startseite.htm"}}
,{"type":"Feature","geometry":{"type":"Point","coordinates":[8.55117289696853,47.3802216745294]},"properties":{"adresse":"Huttenstrasse 50","name":"Kita USZ Huttenstrasse","ort":"Zürich","plz":"8006","tel":"+41 44 255 98 68","www":"http://www.usz.ch/jobs/Seiten/Kindertagesstaette.aspx"}}
,{"type":"Feature","geometry":{"type":"Point","coordinates":[8.53664027420147,47.3703491323487]},"properties":{"adresse":"Talacker 23","name":"globegarden Talacker","ort":"Zürich","plz":"8001","tel":"+41 43 497 22 77","www":"http://www.globegarden.ch/de/kinderkrippe-zuerich/kinderkrippe-zürich-talacker/"}}
,{"type":"Feature","geometry":{"type":"Point","coordinates":[8.54263374502284,47.4084852138544]},"properties":{"adresse":"Gubelhangstrasse 6","name":"Kindertagesstätte Kid''s Island","ort":"Zürich","plz":"8050","tel":"+41 43 537 75 80","www":"http://www.kids-island.ch"}}
,{"type":"Feature","geometry":{"type":"Point","coordinates":[8.52555045755568,47.3777850460228]},"properties":{"adresse":"Hohlstrasse 52","name":"PLAYground education Hohlstrasse","ort":"Zürich","plz":"8004","tel":"+41 43 399 55 44","www":"http://www.playground-edu.ch"}}
,{"type":"Feature","geometry":{"type":"Point","coordinates":[8.58107043014349,47.3601763675692]},"properties":{"adresse":"Im Brächli 33","name":"Waldkinderkrippe Blüemli","ort":"Zürich","plz":"8053","tel":"+41 79 756 20 28","www":"http://www.kitabluemli.ch"}}
,{"type":"Feature","geometry":{"type":"Point","coordinates":[8.55565249426607,47.3658491395279]},"properties":{"adresse":"Klosbachstrasse 25","name":"Kinderhaus Artergut","ort":"Zürich","plz":"8032","tel":"+41 44 412 72 00","www":"http://www.stadt-zuerich.ch/kinderhaus-artergut"}}
,{"type":"Feature","geometry":{"type":"Point","coordinates":[8.55877678291536,47.3551235743678]},"properties":{"adresse":"Münchhaldenstrasse 33","name":"Kinderparadies Seefeld","ort":"Zürich","plz":"8008","tel":"+41 44 382 84 51","www":"http://www.krippekinderparadies.ch/"}}
,{"type":"Feature","geometry":{"type":"Point","coordinates":[8.55314047921,47.4255469248537]},"properties":{"adresse":"Schaffhauserstrasse 571","name":"Kita Chinderstern Zürich-Seebach","ort":"Zürich","plz":"8052","tel":"+41 43 300 11 62","www":"http://www.chinderstern.ch/zuerich-seebach"}}
,{"type":"Feature","geometry":{"type":"Point","coordinates":[8.4857089001891,47.3726660523536]},"properties":{"adresse":"Schützenrain 1","name":"Kita Schmetterling 5","ort":"Zürich","plz":"8047","tel":"+41 44 492 60 05","www":"http://www.krippe-schmetterling.ch"}}
,{"type":"Feature","geometry":{"type":"Point","coordinates":[8.55539988467187,47.3582146573744]},"properties":{"adresse":"Riesbachstrasse 61","name":"Little Frogs","ort":"Zürich","plz":"8008","tel":"+41 43 344 83 35","www":"http://www.LittleFrogs.ch"}}
,{"type":"Feature","geometry":{"type":"Point","coordinates":[8.49076272866554,47.3751297540829]},"properties":{"adresse":"Fellenbergstrasse 289","name":"Kita Schmetterling 3","ort":"Zürich","plz":"8047","tel":"+41 44 492 60 02","www":"http://www.krippe-schmetterling.ch"}}
,{"type":"Feature","geometry":{"type":"Point","coordinates":[8.52058959983227,47.3395482420779]},"properties":{"adresse":"Maneggplatz 18a (erst.)","name":"GFZ Kita 2","ort":null,"plz":"8041","tel":"+41 44 253 65 10","www":"http://www.gfz-zh.ch"}}
,{"type":"Feature","geometry":{"type":"Point","coordinates":[8.56140301580525,47.3541175872045]},"properties":{"adresse":"Zollikerstrasse 164","name":"Seepfärdli","ort":"Zürich","plz":"8008","tel":"+41 43 499 00 71","www":"http://www.seepfaerdli.com"}}
,{"type":"Feature","geometry":{"type":"Point","coordinates":[8.56414394109838,47.3667021990128]},"properties":{"adresse":"Carmenstrasse 52","name":"Bubble Bees Zürich City (Zürichberg)","ort":"Zürich","plz":"8032","tel":"+41 44 252 20 00","www":"http://www.bubblebees.com"}}
,{"type":"Feature","geometry":{"type":"Point","coordinates":[8.55073631111702,47.3700883363142]},"properties":{"adresse":"Hottingerstrasse 14","name":"Kindertagesstätte Lake Side Kids","ort":"Zürich","plz":"8032","tel":"+41 79 568 92 10","www":"http://www.kita-lakesidekids.ch"}}
,{"type":"Feature","geometry":{"type":"Point","coordinates":[8.49274941385784,47.3838548345925]},"properties":{"adresse":"Buckhauserstrasse 34 (freig.)","name":"Kita Bethanien Altstetten","ort":"Zürich","plz":"8048","tel":"+41 58 204 83 60","www":"https://bethanien.ch/kita-bethanien-altstetten"}}
,{"type":"Feature","geometry":{"type":"Point","coordinates":[8.52455781504031,47.3401136597246]},"properties":{"adresse":"Frohalpstrasse 76 (freig.)","name":"Kinderhaus Entlisberg","ort":"Zürich","plz":"8038","tel":"+41 44 412 89 89","www":"https://www.stadt-zuerich.ch/sd/de/index/familien_kinder_jugendliche/stadteigene_kitas/kinderhaus-entlisberg.html"}}
,{"type":"Feature","geometry":{"type":"Point","coordinates":[8.58970301358197,47.4031506765432]},"properties":{"adresse":"Grosswiesenstrasse 165","name":"KiTa Balu","ort":"Zürich","plz":"8051","tel":"+41 79 584 42 97","www":"http://kita-balu.ch/"}}
,{"type":"Feature","geometry":{"type":"Point","coordinates":[8.58970301358197,47.4031506765432]},"properties":{"adresse":"Grosswiesenstrasse 165","name":"KiTa Balu","ort":"Zürich","plz":"8051","tel":"+41 79 584 42 97","www":"http://kita-balu.ch/"}}
,{"type":"Feature","geometry":{"type":"Point","coordinates":[8.51305958646013,47.3776320433972]},"properties":{"adresse":"Zypressenstrasse 53","name":"Güxi Zypresse 53","ort":"Zürich","plz":"8004","tel":"+41 43 266 62 62","www":"http://www.guexi.ch/"}}
,{"type":"Feature","geometry":{"type":"Point","coordinates":[8.50883314621088,47.3709339505089]},"properties":{"adresse":"Leonhard-Ragaz-Weg 2","name":"Kita Kiddi 3","ort":"Zürich","plz":"8055","tel":"+41 44 492 54 39","www":"http://kiddi3.kitakiddi.ch/angebot/"}}
,{"type":"Feature","geometry":{"type":"Point","coordinates":[8.55156194224283,47.3842657396315]},"properties":{"adresse":"Winkelriedstrasse 35","name":"Kita Blumenwiese Winkelried","ort":"Zürich","plz":"8006","tel":"+41 43 233 88 49","www":"http://www.kitablumenwiese.ch"}}
,{"type":"Feature","geometry":{"type":"Point","coordinates":[8.49844375138189,47.3778300215651]},"properties":{"adresse":"Albisriederstrasse 180","name":"Villa Kunterbunt am Letzigraben Kita 3","ort":"Zürich","plz":"8047","tel":"+41 43 311 01 02","www":"http://www.villa-kunterbunt-zh.ch"}}
,{"type":"Feature","geometry":{"type":"Point","coordinates":[8.52018546909135,47.3398488709251]},"properties":{"adresse":"Maneggplatz 44 (erst.)","name":"Crossing Borders - bilingual day care / bilinguale Krippe","ort":"Zürich","plz":"8041","tel":"+41 44 586 38 44","www":"https://www.crossing-borders.ch/"}}
,{"type":"Feature","geometry":{"type":"Point","coordinates":[8.54174563734616,47.3828756895397]},"properties":{"adresse":"Beckenhofstrasse 6","name":"Bubble Bees Beckenhof / Stampfenbachplatz","ort":"Zürich","plz":"8006","tel":"+41 44 252 20 00","www":"http://bubblebees.com/de/bubble-bees-kinderkrippe-und-hort"}}
,{"type":"Feature","geometry":{"type":"Point","coordinates":[8.54805258747417,47.4059147112896]},"properties":{"adresse":"Regensbergstrasse 91","name":"Kinderkrippe Krümel","ort":null,"plz":null,"tel":"+41 44 312 03 03","www":"http://www.kinderkrippe-kruemel.ch"}}
,{"type":"Feature","geometry":{"type":"Point","coordinates":[8.52614143440053,47.378840906896]},"properties":{"adresse":"Dienerstrasse 59","name":"Kinderhaus im Lukashof","ort":"Zürich","plz":"8004","tel":"+41 44 242 90 80","www":"http://www.kinderhaus-stauffacher.ch"}}
,{"type":"Feature","geometry":{"type":"Point","coordinates":[8.52455781504031,47.3401136597246]},"properties":{"adresse":"Frohalpstrasse 76 (freig.)","name":"Tandem-Kita","ort":"Zürich","plz":"8038","tel":"+41 44 412 89 60","www":"http://www.stadt-zuerich.ch/kinderbetreuung"}}
,{"type":"Feature","geometry":{"type":"Point","coordinates":[8.55377618469669,47.3698251519546]},"properties":{"adresse":"Cäcilienstrasse 5","name":"SPRUNGBRETT Montessori-Schule, Vorkindergarten","ort":null,"plz":null,"tel":"+41 44 380 44 34","www":"http://www.sprungbrett.eu/"}}
,{"type":"Feature","geometry":{"type":"Point","coordinates":[8.51841882247606,47.3983516908517]},"properties":{"adresse":"Wunderlistrasse 60","name":"Kita-Satellit Waidspital","ort":"Zürich","plz":"8037","tel":"+41 44 366 30 01","www":"https://www.stadt-zuerich.ch/sd/de/index/familien_kinder_jugendliche/stadteigene_kitas/kita-tiechestrasse/kitasatellitwaidspital.html"}}
,{"type":"Feature","geometry":{"type":"Point","coordinates":[8.54030344506845,47.3887092878363]},"properties":{"adresse":"Weinbergstrasse 137","name":"Bubble Bees Zürich City Weinbergstrasse","ort":"Zürich","plz":"8006","tel":"+41 44 252 20 00","www":"http://www.bubblebees.com/"}}
,{"type":"Feature","geometry":{"type":"Point","coordinates":[8.51370780402836,47.3769423856439]},"properties":{"adresse":"Badenerstrasse 288","name":"Wald-Kita Güxi Albisriederplatz","ort":"Zürich","plz":"8004","tel":"+41 43 266 62 62","www":"http://www.guexi.ch"}}
,{"type":"Feature","geometry":{"type":"Point","coordinates":[8.53464589875262,47.3924870594496]},"properties":{"adresse":"Rötelstrasse 53","name":"Krippe Rötel","ort":"Zürich","plz":"8037","tel":"+41 44 368 55 22","www":"http://www.roetel.ch/angebot/krippe.html"}}
,{"type":"Feature","geometry":{"type":"Point","coordinates":[8.57514226770442,47.4043921881737]},"properties":{"adresse":"Winterthurerstrasse 544","name":"Kinderkrippe s'Nuscheli","ort":"Zürich","plz":"8051","tel":"+41 44 322 01 55","www":"http://www.stadt-zuerich.ch/kinderbetreuung"}}
,{"type":"Feature","geometry":{"type":"Point","coordinates":[8.56000445728404,47.4109805344733]},"properties":{"adresse":"Wallisellenstrasse 255","name":"Kinderkrippe Sonnenhaus","ort":"Zürich","plz":"8050","tel":"+41 43 321 55 40","www":"http://www.kinderkrippe-sonnenhaus.ch"}}
,{"type":"Feature","geometry":{"type":"Point","coordinates":[8.5240124417076,47.3750919785556]},"properties":{"adresse":"Wengistrasse 2a","name":"Kita4you","ort":"Zürich","plz":"8004","tel":"+41 77 408 24 33","www":"http://www.kita4you.ch"}}
,{"type":"Feature","geometry":{"type":"Point","coordinates":[8.50923118319341,47.3914120467136]},"properties":{"adresse":"Pfingstweidstrasse 104d","name":"Kinderkrippe Zwergenburg Hard Turm Park","ort":"Zürich","plz":"8005","tel":"+41 43 366 81 23","www":"http://www.zwergenburg-zh.ch"}}
,{"type":"Feature","geometry":{"type":"Point","coordinates":[8.53387620449744,47.3808187200612]},"properties":{"adresse":"Josefstrasse 19","name":"Kinderkrippe Zwergenburg Josefstrasse","ort":"Zürich","plz":"8005","tel":"+41 79 921 11 65","www":"http://www.zwergenburg-zh.ch"}}
,{"type":"Feature","geometry":{"type":"Point","coordinates":[8.53363448943463,47.3838793487234]},"properties":{"adresse":"Ackerstrasse 63","name":"Kinderkrippe Zwergenburg Limmatplatz","ort":"Zürich","plz":"8005","tel":"+41 43 366 81 23","www":"http://www.zwergenburg-zh.ch"}}
,{"type":"Feature","geometry":{"type":"Point","coordinates":[8.56328690847061,47.3718917793963]},"properties":{"adresse":"Dolderstrasse 71","name":"Kindervilla Ali Baba","ort":"Zürich","plz":"8032","tel":"+41 44 252 24 49","www":"http://www.kindervilla.ch"}}
,{"type":"Feature","geometry":{"type":"Point","coordinates":[8.51254333329543,47.371727064632]},"properties":{"adresse":"Saumstrasse 27","name":"Kindervilla Abraxas","ort":"Zürich","plz":"8003","tel":"+41 43 539 50 61","www":"http://www.kindervilla-abraxas.ch"}}
,{"type":"Feature","geometry":{"type":"Point","coordinates":[8.55509118161929,47.3643343797942]},"properties":{"adresse":"Forchstrasse 4","name":"Kita 7 Bears","ort":"Zürich","plz":"8008","tel":"+41 44 201 47 47","www":"http://www.stadt-zuerich.ch/content/sd/de/index/kinderbetreuung"}}
,{"type":"Feature","geometry":{"type":"Point","coordinates":[8.55904762702935,47.4032900235309]},"properties":{"adresse":"Hubenstrasse 20","name":"Waldkindergarten Troll Züriberg","ort":"Zürich","plz":"8057","tel":"+41 43 321 54 08","www":"http://www.waldkindergarten-zh.ch"}}
,{"type":"Feature","geometry":{"type":"Point","coordinates":[8.48773833106493,47.3957198984852]},"properties":{"adresse":"Bändlistrasse 28","name":"Chinderhuus Wirbelwind Werdwies","ort":"Zürich","plz":"8064","tel":"+41 44 343 02 70","www":"http://www.stiftung-chinderhuus.ch/Startseite.htm"}}
,{"type":"Feature","geometry":{"type":"Point","coordinates":[8.48262039877976,47.3880485334577]},"properties":{"adresse":"Feldblumenstrasse 10","name":"KiTa Wunderland","ort":"Zürich","plz":"8048","tel":"+41 44 431 97 80","www":"http://www.kita-wunderland.ch"}}
,{"type":"Feature","geometry":{"type":"Point","coordinates":[8.49321848921019,47.3700791148163]},"properties":{"adresse":"Wydäckerring 144","name":"KiTa Wydäcker","ort":"Zürich","plz":"8047","tel":"+41 43 537 02 91","www":"http://www.stadt-zuerich.ch/kinderbetreuung"}}
,{"type":"Feature","geometry":{"type":"Point","coordinates":[8.51512171017641,47.3754810077684]},"properties":{"adresse":"Zentralstrasse 140","name":"Kinderkrippe Zypresse","ort":"Zürich","plz":"8003","tel":"+41 43 321 81 79","www":"http://www.zyp.ch"}}
,{"type":"Feature","geometry":{"type":"Point","coordinates":[8.55025133937558,47.3608009811048]},"properties":{"adresse":"Dufourstrasse 71","name":"Little Star Day School Dufourstrasse","ort":"Zürich","plz":"8008","tel":"+41 43 377 54 00","www":"http://www.littlestardayschool.com"}}
,{"type":"Feature","geometry":{"type":"Point","coordinates":[8.52455781504031,47.3401136597246]},"properties":{"adresse":"Frohalpstrasse 76","name":"Kinderhaus Entlisberg","ort":"Zürich","plz":"8038","tel":"+41 44 412 89 89","www":"https://www.stadt-zuerich.ch/sd/de/index/familien_kinder_jugendliche/stadteigene_kitas/kinderhaus-entlisberg.html"}}
,{"type":"Feature","geometry":{"type":"Point","coordinates":[8.5321438641903,47.3596425792679]},"properties":{"adresse":"Seestrasse 97","name":"Pika Kinderkrippe","ort":"Zürich","plz":"8002","tel":"+41 44 201 09 33","www":"http://www.kinderkrippe-pika.ch"}}
,{"type":"Feature","geometry":{"type":"Point","coordinates":[8.55631034015025,47.3631876521551]},"properties":{"adresse":"Signaustrasse 7","name":"Vorkindergarten Montessori-Schule d''Insle","ort":"Zürich","plz":"8008","tel":"+41 43 443 00 30","www":"http://www.dinsle.ch"}}
,{"type":"Feature","geometry":{"type":"Point","coordinates":[8.5924888141638,47.3996417721098]},"properties":{"adresse":"Helen-Keller-Strasse 4a (erst.)","name":"Kita Mattenhof","ort":"Zürich","plz":"8051","tel":"+41 44 415 69 60","www":"http://www.stadt-zuerich.ch/kita-mattenhof"}}
,{"type":"Feature","geometry":{"type":"Point","coordinates":[8.52507436152851,47.3836633253584]},"properties":{"adresse":"Neugasse 99","name":"Kinderkrippe Minimuus","ort":"Zürich","plz":"8005","tel":"+41 44 271 06 29","www":"http://www.stadt-zuerich.ch/kinderbetreuung"}}
,{"type":"Feature","geometry":{"type":"Point","coordinates":[8.55755433662164,47.3542718854089]},"properties":{"adresse":"Münchhaldenstrasse 15","name":"globegarden Münchhalden","ort":"Zürich","plz":"8008","tel":"+41 43 344 58 02","www":"http://www.globegarden.ch/de/kinderkrippe-zuerich/kinderkrippe-seefeld/"}}
,{"type":"Feature","geometry":{"type":"Point","coordinates":[8.52896368569846,47.3633786553072]},"properties":{"adresse":"Bürglistrasse 6","name":"Alexi`s Kinderkrippe (Bürglistrasse)","ort":"Zürich","plz":"8002","tel":"+41 44 201 33 10","www":"http://www.kinderkrippe-alexis.ch"}}
,{"type":"Feature","geometry":{"type":"Point","coordinates":[8.51320872468002,47.369265211277]},"properties":{"adresse":"Friesenbergstrasse 23","name":"Chinderhus Teddybär","ort":"Zürich","plz":"8055","tel":"+41 44 463 63 69","www":"https://chinderhusteddybaer.jimdo.com/"}}
,{"type":"Feature","geometry":{"type":"Point","coordinates":[8.55877683405382,47.4162455540469]},"properties":{"adresse":"Heidi-Abel-Weg 9","name":"Chinderhuus Babar","ort":"Zürich","plz":"8050","tel":"+41 44 344 44 88","www":"http://www.chinderhuus-babar.ch"}}
,{"type":"Feature","geometry":{"type":"Point","coordinates":[8.48522261659988,47.3768981352878]},"properties":{"adresse":"Bachwiesenstrasse 117a","name":"Kita Schmetterling 2","ort":"Zürich","plz":"8047","tel":"+41 44 492 60 02","www":"http://www.krippe-schmetterling.ch"}}
,{"type":"Feature","geometry":{"type":"Point","coordinates":[8.54193974100064,47.3948103403479]},"properties":{"adresse":"Scheuchzerstrasse 189","name":"Chinderhuus Bärätatze","ort":"Zürich","plz":"8057","tel":"+41 44 361 06 06","www":"https://www.baeraetatze.ch/"}}
,{"type":"Feature","geometry":{"type":"Point","coordinates":[8.56473175369367,47.3694579951748]},"properties":{"adresse":"Titlisstrasse 39","name":"Sunshine Kinderkrippe Zürichberg","ort":"Zürich","plz":"8032","tel":"+41 41 558 43 07","www":"http://www.sunshine-kinderkrippe.ch"}}
,{"type":"Feature","geometry":{"type":"Point","coordinates":[8.48592800516636,47.4114505422114]},"properties":{"adresse":"Heizenholz 41","name":"Kinderkrippe Wallaby","ort":"Zürich","plz":"8049","tel":"+41 43 366 81 23","www":"http://www.zwergenburg-zh.ch"}}
,{"type":"Feature","geometry":{"type":"Point","coordinates":[8.53247761221979,47.3572722147179]},"properties":{"adresse":"Seestrasse 133","name":"MIC - Montessori Infant Community Belvoir","ort":"Zürich","plz":"8002","tel":"+41 44 205 94 00","www":"http://www.montessori-infants.ch"}}
,{"type":"Feature","geometry":{"type":"Point","coordinates":[8.55367604853781,47.4169425102135]},"properties":{"adresse":"Thurgauerstrasse 66","name":"Kita Sternenstaub","ort":"Zürich","plz":"8050","tel":"+41 44 300 32 32","www":"http://www.kitasternenstaub.ch"}}
,{"type":"Feature","geometry":{"type":"Point","coordinates":[8.49814046843303,47.4218633539809]},"properties":{"adresse":"Georg-Kempf-Strasse 14a","name":"Kita Gwunderfitz für kids","ort":"Zürich","plz":"8046","tel":"+41 76 386 54 50","www":"http://www.gwunderfitzfuerkids.ch"}}
,{"type":"Feature","geometry":{"type":"Point","coordinates":[8.51058673046882,47.371880165756]},"properties":{"adresse":"Goldbrunnenstrasse 151","name":"KiTa Little Angels","ort":"Zürich","plz":"8055","tel":"+41 43 539 69 12","www":"http://www.kitalittleangels.com/"}}
,{"type":"Feature","geometry":{"type":"Point","coordinates":[8.56233217416965,47.4145379670527]},"properties":{"adresse":"Genossenschaftsstrasse 16a","name":"Kita Leutschenbach","ort":"Zürich","plz":"8050","tel":"+41 44 415 69 66","www":"http://www.stadt-zuerich.ch/kita-leutschenbach"}}
,{"type":"Feature","geometry":{"type":"Point","coordinates":[8.51297610904209,47.4168511748215]},"properties":{"adresse":"In Böden 45","name":"Kinderparadies In Böden","ort":"Zürich","plz":"8046","tel":"+41 44 451 04 42","www":"http://www.krippekinderparadies.ch"}}
,{"type":"Feature","geometry":{"type":"Point","coordinates":[8.52328739449593,47.3941233980909]},"properties":{"adresse":"Dorfstrasse 23","name":"Kita zum Waidberg","ort":"Zürich","plz":"8037","tel":"+41 43 960 30 45","www":"https://www.krippe-alilec.ch/standorte/zum-waidberg/"}}
,{"type":"Feature","geometry":{"type":"Point","coordinates":[8.52350207458454,47.4137755306228]},"properties":{"adresse":"Binzmühlestrasse 370 (erst.)","name":"Kinderhaus am Hürstwald","ort":null,"plz":null,"tel":"+41 79 697 67 13","www":"http://www.kinderhaus-am-stauffacher.ch/huerstwald/standort/"}}
,{"type":"Feature","geometry":{"type":"Point","coordinates":[8.54531010536848,47.3874291112006]},"properties":{"adresse":"Riedtlistrasse 71","name":"KiTa Riedtli 2","ort":"Zürich","plz":"8006","tel":"+41 44 443 61 92","www":"http://www.kita-riedtli.ch"}}
,{"type":"Feature","geometry":{"type":"Point","coordinates":[8.53464028179378,47.3774023230487]},"properties":{"adresse":"Lagerstrasse 2","name":"Kids & Co Campus Pädagogische Hochschule Zürich","ort":"Zürich","plz":"8004","tel":"+41 43 305 54 32","www":"https://www.profawo.ch/angebot/kids-co-kitas/zuerich/campus-ph-zuerich/"}}
,{"type":"Feature","geometry":{"type":"Point","coordinates":[8.51144698840063,47.3922550203004]},"properties":{"adresse":"Förrlibuckstrasse 150","name":"keiki förrlibuck","ort":"Zürich","plz":"8005","tel":"+41 76 311 26 26","www":"http://www.kitakeiki.ch"}}
,{"type":"Feature","geometry":{"type":"Point","coordinates":[8.511320788635,47.3905921077523]},"properties":{"adresse":"Pfingstweidstrasse 96","name":"Dachspatzen","ort":"Zürich","plz":"8003","tel":"+41 43 446 70 00","www":"http://www.thkt.ch"}}
,{"type":"Feature","geometry":{"type":"Point","coordinates":[8.54251548237497,47.4149267931518]},"properties":{"adresse":"Binzmühlestrasse 78","name":"Mariakäfer 1 (Biinzmühlestr 78)","ort":"Zürich","plz":"8050","tel":"+41 44 492 90 45","www":"http://www.kinderkrippe-mariakaefer.ch"}}
,{"type":"Feature","geometry":{"type":"Point","coordinates":[8.54867508398951,47.3620304943202]},"properties":{"adresse":"Färberstrasse 15","name":"Kinderkrippe Operinos","ort":"Zürich","plz":"8008","tel":"+41 44 262 40 90","www":"http://www.stadt-zuerich.ch/kinderbetreuung"}}
,{"type":"Feature","geometry":{"type":"Point","coordinates":[8.5062240935652,47.378837791111]},"properties":{"adresse":"Brahmsstrasse 44","name":"Kindertagesstätte Pilgerbrunnen","ort":"Zürich","plz":"8003","tel":"+41 44 405 73 50","www":"http://www.vefz.ch/pilgerbrunnen/"}}
,{"type":"Feature","geometry":{"type":"Point","coordinates":[8.52628886183765,47.3711396975908]},"properties":{"adresse":"Werdgartengasse 3","name":"RasselChischte","ort":"Zürich","plz":"8004","tel":"+41 43 322 08 00","www":"http://www.rasselchischte.ch"}}
,{"type":"Feature","geometry":{"type":"Point","coordinates":[8.5453970314483,47.3877880831131]},"properties":{"adresse":"Stolzestrasse 23","name":"KiTa Riedtli 1","ort":"Zürich","plz":"8006","tel":"+41 44 361 92 44","www":"http://www.kita-riedtli.ch"}}
,{"type":"Feature","geometry":{"type":"Point","coordinates":[8.5623738682704,47.3511936857631]},"properties":{"adresse":"Hambergersteig 8","name":"Kinderkrippe Bambi Seefeld","ort":"Zürich","plz":"8008","tel":"+41 44 431 13 65","www":"http://www.kinderkrippe-bambi.ch"}}
,{"type":"Feature","geometry":{"type":"Point","coordinates":[8.55340348076157,47.4153170355232]},"properties":{"adresse":"Leutschenbachstrasse 41","name":"globegarden Thurgauerstrasse","ort":"Zürich","plz":"8050","tel":"+41 44 536 55 32","www":"http://www.globegarden.ch/de/kinderkrippe-oerlikon/kinderkrippe-thurgauerstrasse/"}}
,{"type":"Feature","geometry":{"type":"Point","coordinates":[8.54191534478554,47.4096254494318]},"properties":{"adresse":"Baumackerstrasse 53","name":"Kinderkrippe Bambola","ort":"Zürich","plz":"8050","tel":"+41 44 311 41 40","www":"http://www.gfkb.ch"}}
,{"type":"Feature","geometry":{"type":"Point","coordinates":[8.54536798356344,47.4144497668396]},"properties":{"adresse":"Schaffhauserstrasse 405","name":"Kinderkrippe Beba","ort":"Zürich","plz":"8050","tel":"+41 43 311 66 22","www":"http://www.gfkb.ch"}}
,{"type":"Feature","geometry":{"type":"Point","coordinates":[8.54869869459689,47.3714302270811]},"properties":{"adresse":"Kantonsschulstrasse 3","name":"kihz Wolfbach","ort":"Zürich","plz":"8001","tel":"+41 43 305 55 11","www":"http://www.kihz.ch"}}
,{"type":"Feature","geometry":{"type":"Point","coordinates":[8.5533499474105,47.4247893238176]},"properties":{"adresse":"Schaffhauserstrasse 554","name":"Kinderhaus Ettenfeld","ort":"Zürich","plz":"8052","tel":"+41 43 443 92 22","www":"http://kinderhaus-seebach.org"}}
,{"type":"Feature","geometry":{"type":"Point","coordinates":[8.51996529206194,47.3746801796346]},"properties":{"adresse":"Badenerstrasse 177","name":"KiTa Bethanien Kalkbreite","ort":"Zürich","plz":"8004","tel":"+41 43 322 05 45","www":"http://www.bethanien.ch/kita-bethanien-kalkbreite"}}
,{"type":"Feature","geometry":{"type":"Point","coordinates":[8.55219273268097,47.3738882550842]},"properties":{"adresse":"Schönleinstrasse 14","name":"Kids & Co Schönleinstrasse","ort":"Zürich","plz":"8032","tel":"+41 44 253 27 06","www":"https://www.profawo.ch/angebot/kids-co-kitas/zuerich/kreis-7/"}}
,{"type":"Feature","geometry":{"type":"Point","coordinates":[8.56100738351825,47.3705376894626]},"properties":{"adresse":"Carmenstrasse 6","name":"globegarden Carmenstrasse","ort":"Zürich ","plz":"8032","tel":"+41 44 536 55 32","www":"http://www.globegarden.ch/de/kinderkrippe-zuerich/kinderkrippe-zuerich-hottingen/"}}
,{"type":"Feature","geometry":{"type":"Point","coordinates":[8.53973406283746,47.385512457547]},"properties":{"adresse":"Stampfenbachstrasse 131","name":"Trilingual Dayschool DEF","ort":"Zürich","plz":"8006","tel":"+41 77 430 99 13","www":"http://www.dayschool.ch"}}
,{"type":"Feature","geometry":{"type":"Point","coordinates":[8.54544378070564,47.4155464356358]},"properties":{"adresse":"Schaffhauserstrasse 424","name":"Kita Yemayà","ort":"Zürich","plz":"8050","tel":"+41 76 567 84 06","www":"http://www.kita-yemaya.ch"}}
,{"type":"Feature","geometry":{"type":"Point","coordinates":[8.49558223279407,47.3811124489532]},"properties":{"adresse":"Anemonenstrasse 40","name":"Kinderkrippe Gummibärli im James","ort":"Zürich","plz":"8047","tel":"+41 43 311 61 03","www":"http://www.kk-gummibaerli.ch"}}
,{"type":"Feature","geometry":{"type":"Point","coordinates":[8.53280717495295,47.3693870467904]},"properties":{"adresse":"Brandschenkestrasse 18","name":"globegarden Friedensgasse","ort":"Zürich","plz":"8002","tel":"+41 43 222 47 40","www":"http://www.globegarden.ch/de/kinderkrippe-zuerich/kinderkrippe-friedensgasse/"}}
,{"type":"Feature","geometry":{"type":"Point","coordinates":[8.5710341266323,47.4062225394201]},"properties":{"adresse":"Aprikosenstrasse 12","name":"Kinderhaus Schwamendingen","ort":"Zürich","plz":"8051","tel":"+41 43 299 32 00","www":"http://www.stadt-zuerich.ch/kitas"}}
,{"type":"Feature","geometry":{"type":"Point","coordinates":[8.51411122928141,47.4159681070605]},"properties":{"adresse":"Neuwiesenstrasse 9","name":"Chinderhuus Kaya","ort":"Zürich","plz":"8046","tel":"+41 44 371 17 00","www":"http://www.krippenverein.ch"}}
,{"type":"Feature","geometry":{"type":"Point","coordinates":[8.5570719948966,47.3634606696669]},"properties":{"adresse":"Forchstrasse 40","name":"d''Insle Montessori-Schule AG, Vorkindergarten 2","ort":"Zürich","plz":"8008","tel":"+41 43 443 00 30","www":"http://www.dinsle.ch"}}
,{"type":"Feature","geometry":{"type":"Point","coordinates":[8.49100966282163,47.3748936330932]},"properties":{"adresse":"Fellenbergstrasse 281","name":"Kita Schmetterling 4","ort":"Zürich","plz":"8047","tel":"+41 44 492 60 02","www":"http://www.krippe-schmetterling.ch"}}
,{"type":"Feature","geometry":{"type":"Point","coordinates":[8.52629374710733,47.3630156030916]},"properties":{"adresse":"Brandschenkestrasse 172","name":"MIC - Montessori Infant Community","ort":"Zürich","plz":"8002","tel":"+41 43 243 09 81","www":"http://www.montessori-infants.ch"}}
,{"type":"Feature","geometry":{"type":"Point","coordinates":[8.55919563099522,47.3719045582188]},"properties":{"adresse":"Hofstrasse 49","name":"GFZ Kita 7 - Hofstrasse / Bergstrasse","ort":"Zürich","plz":"8032","tel":"+41 44 260 21 15","www":"http://www.gfz-zh.ch"}}
,{"type":"Feature","geometry":{"type":"Point","coordinates":[8.5527327171746,47.3604442460451]},"properties":{"adresse":"Feldeggstrasse 52","name":"Kinderkrippe \"Feldegger Stadtzwerge\"","ort":"Zürich","plz":"8008","tel":"+41 79 937 84 36","www":"http://www.stadtzwerge.ch"}}
,{"type":"Feature","geometry":{"type":"Point","coordinates":[8.53311014415969,47.3647966493447]},"properties":{"adresse":"Gotthardstrasse 55","name":"Bambis Chinderland","ort":"Zürich","plz":"8002","tel":"+41 44 201 67 18","www":"http://www.bambis.ch"}}
,{"type":"Feature","geometry":{"type":"Point","coordinates":[8.54893020591259,47.4035225898432]},"properties":{"adresse":"Dörflistrasse 4","name":"Bubble Bees Zürich-Oerlikon","ort":"Zürich","plz":"8057","tel":"+41 44 252 20 00","www":"http://www.bubblebees.com"}}
,{"type":"Feature","geometry":{"type":"Point","coordinates":[8.51930795228393,47.3625775063102]},"properties":{"adresse":"Eichstrasse 29","name":"Wings School AG - Krippe","ort":"Zürich","plz":"8045","tel":"+41 43 333 36 46","www":"http://www.wingsschool.ch"}}
,{"type":"Feature","geometry":{"type":"Point","coordinates":[8.51953779054948,47.3888604410938]},"properties":{"adresse":"Schiffbaustrasse 2a (freig.)","name":"globegarden Schiffbauplatz","ort":"Zürich","plz":"8005","tel":"+41 44 536 55 32","www":"http://www.globegarden.org"}}
,{"type":"Feature","geometry":{"type":"Point","coordinates":[8.50226332554845,47.3655076243572]},"properties":{"adresse":"Schweighofstrasse 357","name":"Waldkindergarten Troll Uetliberg","ort":"Zürich","plz":"8055","tel":"+41 43 321 54 08","www":"http://www.waldkindergarten-zh.ch"}}
,{"type":"Feature","geometry":{"type":"Point","coordinates":[8.52888378454968,47.3944305349756]},"properties":{"adresse":"Uhlandstrasse 6","name":"Kinderkrippe Zauberhimmel","ort":"Zürich","plz":"8037","tel":"+41 44 271 80 37","www":"http://www.zauberhimmel.ch"}}
,{"type":"Feature","geometry":{"type":"Point","coordinates":[8.53036798659296,47.3362718672468]},"properties":{"adresse":"Albisstrasse 129","name":"Ameisenburg Wollishofen","ort":"Zürich","plz":"8038","tel":"+41 43 534 69 25","www":"http://www.ameisenburg.ch"}}
,{"type":"Feature","geometry":{"type":"Point","coordinates":[8.53858875422737,47.3871334912774]},"properties":{"adresse":"Gaugerstrasse 3","name":"Tandem Stampfenbach","ort":"Zürich","plz":"8006","tel":"+41 43 810 09 50","www":"http://www.kita-tandem.ch/"}}
,{"type":"Feature","geometry":{"type":"Point","coordinates":[8.50998015666433,47.3766172132607]},"properties":{"adresse":"Friedaustrasse 3","name":"Kinderkrippe Frida","ort":"Zürich","plz":"8003","tel":"+41 76 331 97 29","www":"http://www.fridakrippe.ch"}}
,{"type":"Feature","geometry":{"type":"Point","coordinates":[8.49579564296612,47.3731768490375]},"properties":{"adresse":"Langgrütstrasse 102","name":"Villa Kunterbunt am Letzigraben Kita 2","ort":"Zürich","plz":"8047","tel":"+41 43 311 01 02","www":"http://www.villa-kunterbunt-zh.ch"}}
,{"type":"Feature","geometry":{"type":"Point","coordinates":[8.59192392948746,47.4004749653189]},"properties":{"adresse":"Heerenschürlistrasse 8","name":"Kita Zwergenschiff","ort":"Zürich","plz":"8051","tel":"+41 43 321 64 26","www":"http://www.vkka.ch"}}
,{"type":"Feature","geometry":{"type":"Point","coordinates":[8.52756919609097,47.3670528372908]},"properties":{"adresse":"Brandschenkestrasse 72","name":"Kinderkrippe Delfin","ort":"Zürich","plz":"8002","tel":"+41 43 344 52 27","www":"http://www.stadt-zuerich.ch/kinderbetreuung"}}
,{"type":"Feature","geometry":{"type":"Point","coordinates":[8.4999339071351,47.4253999068732]},"properties":{"adresse":"Mühlackerstrasse 104","name":"Kinderkrippe Dino","ort":"Zürich","plz":"8046","tel":"+41 78 697 00 11","www":"http://www.stadt-zuerich.ch/kinderbetreuung"}}
,{"type":"Feature","geometry":{"type":"Point","coordinates":[8.49574020265263,47.3664478129008]},"properties":{"adresse":"Birmensdorferstrasse 505","name":"Tagesstruktur Plus Kinderhaus Inselhof","ort":"Zürich","plz":"8063","tel":"+41 44 498 50 31","www":"http://www.zentrum-inselhof.ch"}}
,{"type":"Feature","geometry":{"type":"Point","coordinates":[8.56986137646993,47.4140147770806]},"properties":{"adresse":"Auzelg 47","name":"Villa Kunterbunt","ort":"Zürich","plz":"8050","tel":"+41 44 321 21 10","www":"http://www.villa-kunterbunt.ch/"}}
,{"type":"Feature","geometry":{"type":"Point","coordinates":[8.55084135163511,47.3649690685612]},"properties":{"adresse":"Mühlebachstrasse 27","name":"globegarden Stadelhofen","ort":"Zürich","plz":"8008","tel":"+41 44 536 55 32","www":"http://www.globegarden.org"}}
,{"type":"Feature","geometry":{"type":"Point","coordinates":[8.52239521065682,47.3880331131585]},"properties":{"adresse":"Heinrichstrasse 255","name":"Kita pop e poppa Frechdachs","ort":"Zürich","plz":"8005","tel":"+41 43 366 89 77","www":"http://www.popepoppa.ch/de/kita-frechdachs.php"}}
,{"type":"Feature","geometry":{"type":"Point","coordinates":[8.50150259564756,47.4010630915648]},"properties":{"adresse":"Limmattalstrasse 157","name":"GFZ Kita 10a - Limmattalstrasse","ort":"Zürich","plz":"8049","tel":"+41 44 341 63 93","www":"http://www.gfz-zh.ch"}}
,{"type":"Feature","geometry":{"type":"Point","coordinates":[8.48857463735031,47.3796741742008]},"properties":{"adresse":"Freilagerstrasse 77","name":"Fugu Kinderkrippe Zürich Freilager","ort":"Zürich","plz":"8047","tel":"+41 43 311 66 16","www":"http://www.kitafugu.ch/"}}
,{"type":"Feature","geometry":{"type":"Point","coordinates":[8.50533137873588,47.4070184897162]},"properties":{"adresse":"Paul-Feyerabend-Hof 1","name":"kihz Feyerabend","ort":"Zürich","plz":"8049","tel":"+41 44 633 01 56","www":"http://www.kihz.uzh.ch"}}
,{"type":"Feature","geometry":{"type":"Point","coordinates":[8.53608426909853,47.3703544166135]},"properties":{"adresse":"Talstrasse 58","name":"globegarden Paradeplatz","ort":"Zürich","plz":"8001","tel":"+41 44 536 55 32","www":"http://www.globegarden.ch/"}}
,{"type":"Feature","geometry":{"type":"Point","coordinates":[8.54155058064732,47.3824098055252]},"properties":{"adresse":"Stampfenbachstrasse 85","name":"Kinderkrippe Dayschool 2","ort":"Zürich","plz":"8006","tel":null,"www":null}}
,{"type":"Feature","geometry":{"type":"Point","coordinates":[8.57585882060468,47.3498995075262]},"properties":{"adresse":"Enzenbühlstrasse 47","name":"MURMEL Kindertagesstätte der Klinik Hirslanden","ort":"Zürich","plz":"8032","tel":"+41 44 362 64 84","www":"http://www.kinderkrippe-murmel.ch"}}
,{"type":"Feature","geometry":{"type":"Point","coordinates":[8.49813590856558,47.3730024909677]},"properties":{"adresse":"Espenhofweg 42","name":"Kinderkrippe s''Rägäbögeli","ort":"Zürich","plz":"8047","tel":"+41 43 311 67 60","www":"http://www.stadt-zuerich.ch/kinderbetreuung"}}
,{"type":"Feature","geometry":{"type":"Point","coordinates":[8.51391694934137,47.3807453614194]},"properties":{"adresse":"Hirzelstrasse 20","name":"Sunneblueme Hirzelstrasse","ort":"Zürich","plz":"8004","tel":"+41 44 405 20 00","www":"http://www.stadt-zuerich.ch/kinderbetreuung"}}
,{"type":"Feature","geometry":{"type":"Point","coordinates":[8.4772130531127,47.4130223292861]},"properties":{"adresse":"Rütihofstrasse 55","name":"Kita minido","ort":"Zürich","plz":"8049","tel":"+41 44 341 72 22","www":"http://www.minido.ch"}}
,{"type":"Feature","geometry":{"type":"Point","coordinates":[8.51367113785726,47.3652760702576]},"properties":{"adresse":"Bühlstrasse 47","name":"Tandem Binz 1","ort":"Zürich","plz":"8055","tel":"+41 43 317 97 10","www":"http://www.kita-tandem.ch"}}
,{"type":"Feature","geometry":{"type":"Point","coordinates":[8.53144612950628,47.374041422355]},"properties":{"adresse":"Müllerstrasse 8","name":"Tandem Stauffacher 1","ort":"Zürich","plz":"8004","tel":"+41 43 317 97 10","www":"http://www.kita-tandem.ch"}}
,{"type":"Feature","geometry":{"type":"Point","coordinates":[8.55148892590164,47.4042355766571]},"properties":{"adresse":"Viktoriastrasse 30b","name":"Kinderkrippe Trippel-Trappel","ort":"Zürich","plz":"8057","tel":"+41 44 312 04 52","www":"http://www.stadt-zuerich.ch/kinderbetreuung"}}
,{"type":"Feature","geometry":{"type":"Point","coordinates":[8.57288662001959,47.3600591473137]},"properties":{"adresse":"Bergheimstrasse 22","name":"WaKiTa","ort":"Zürich","plz":"8032","tel":"+41 44 421 12 13","www":"http://www.wakita.ch"}}
,{"type":"Feature","geometry":{"type":"Point","coordinates":[8.5307535995438,47.3984066876988]},"properties":{"adresse":"Obere Waidstrasse 11","name":"Waldkindergarten Troll Chäferberg","ort":"Zürich","plz":"8037","tel":"+41 43 321 54 08","www":"http://www.waldkindergarten-zh.ch"}}
,{"type":"Feature","geometry":{"type":"Point","coordinates":[8.53260487707206,47.4111441520707]},"properties":{"adresse":"Affolternstrasse 146","name":"Kinderkrippe Harmonie","ort":"Zürich","plz":"8050","tel":"+41 43 536 71 21","www":"http://www.grow2gether.ch"}}
,{"type":"Feature","geometry":{"type":"Point","coordinates":[8.50698736829082,47.3799191391287]},"properties":{"adresse":"Badenerstrasse 414","name":"Güxi Norastrasse","ort":"Zürich","plz":"8004","tel":"+41 43 266 62 62","www":"http://www.guexi.ch"}}
,{"type":"Feature","geometry":{"type":"Point","coordinates":[8.48754876690784,47.3941654837262]},"properties":{"adresse":"Herostrasse 7","name":"Kinderplanet / Pianeta Bimbi","ort":"Zürich","plz":"8048","tel":"+41 43 322 10 80","www":"http://www.enaip.ch/html/enaipch/kita/index.html"}}
,{"type":"Feature","geometry":{"type":"Point","coordinates":[8.52030173477479,47.3762511735037]},"properties":{"adresse":"Pflanzschulstrasse 30","name":"GFZ Kita 4 - Pflanzschulstrasse","ort":"Zürich","plz":"8004","tel":"+41 44 242 63 49","www":"http://www.gfz-zh.ch"}}
,{"type":"Feature","geometry":{"type":"Point","coordinates":[8.5645160287716,47.4106488352565]},"properties":{"adresse":"Wallisellenstrasse 340","name":"Cartonaurio Wallisellenstrasse","ort":"Zürich","plz":"8050","tel":"+41 43 321 66 12","www":"http://www.cartonaurio.ch"}}
,{"type":"Feature","geometry":{"type":"Point","coordinates":[8.53231339147446,47.3956574362742]},"properties":{"adresse":"Rötelstrasse 96","name":"Kinderhaus Ringelrosen Rötelstrasse","ort":"Zürich","plz":"8057","tel":"+41 44 350 61 66","www":"http://www.ringelrosen.ch"}}
,{"type":"Feature","geometry":{"type":"Point","coordinates":[8.53563864309238,47.3435530068771]},"properties":{"adresse":"Seestrasse 395","name":"Chindsgi Rote Fabrik","ort":"Zürich","plz":"8038","tel":"+41 44 451 18 37","www":"http://www.chindsgirotefabrik.ch"}}
,{"type":"Feature","geometry":{"type":"Point","coordinates":[8.58251300339587,47.4064333255702]},"properties":{"adresse":"Luegislandstrasse 597","name":"Kita Schatzinsel","ort":"Zürich","plz":"8051","tel":"+41 43 321 64 25","www":"http://www.kita-schatzinsel.ch"}}
,{"type":"Feature","geometry":{"type":"Point","coordinates":[8.50237656375332,47.3997147942248]},"properties":{"adresse":"Ackersteinstrasse 161","name":"Krippe Schiguna","ort":"Zürich","plz":"8006","tel":"+41 44 361 11 68","www":"http://www.schiguna.ch"}}
,{"type":"Feature","geometry":{"type":"Point","coordinates":[8.49671969601663,47.373033462293]},"properties":{"adresse":"Langgrütstrasse 88a","name":"Kita Schmetterling 1","ort":"Zürich","plz":"8047","tel":"+41 44 492 60 03","www":"http://www.krippe-schmetterling.ch"}}
,{"type":"Feature","geometry":{"type":"Point","coordinates":[8.49757671875472,47.4035097886266]},"properties":{"adresse":"Regensdorferstrasse 18","name":"Fugu Kinderkrippe Zürich Höngg","ort":"Zürich","plz":"8049","tel":"+41 44 341 03 05","www":"http://www.kitafugu.ch"}}
,{"type":"Feature","geometry":{"type":"Point","coordinates":[8.4852447565026,47.3881417271997]},"properties":{"adresse":"Badenerstrasse 682","name":"Güxi Lindenplatz","ort":"Zürich","plz":"8048","tel":"+41 43 818 70 00","www":"http://www.guexi.ch"}}
,{"type":"Feature","geometry":{"type":"Point","coordinates":[8.54744104452461,47.4013600780642]},"properties":{"adresse":"Bülachstrasse 13","name":"Irchelkrippe","ort":"Zürich","plz":"8057","tel":"+41 44 311 67 78","www":"http://www.irchelkrippe.ch"}}
,{"type":"Feature","geometry":{"type":"Point","coordinates":[8.51372576271427,47.3778327326247]},"properties":{"adresse":"Zypressenstrasse 60","name":"Güxi Zypressenstrasse","ort":"Zürich","plz":"8004","tel":"+41 43 266 62 62","www":"http://www.guexi.ch"}}
,{"type":"Feature","geometry":{"type":"Point","coordinates":[8.53119158729606,47.3693753550823]},"properties":{"adresse":"Gerechtigkeitsgasse 16","name":"Kinderkrippe Maon Jom","ort":"Zürich","plz":"8002","tel":"+41 44 201 48 80","www":"http://www.stadt-zuerich.ch/kinderbetreuung"}}
,{"type":"Feature","geometry":{"type":"Point","coordinates":[8.54248264651747,47.414621275589]},"properties":{"adresse":"Binzmühlestrasse 76a","name":"Mariakäfer 1 (Binzmühlestr 76a)","ort":"Zürich","plz":"8050","tel":"+41 44 492 90 45","www":"http://www.kinderkrippe-mariakaefer.ch"}}
,{"type":"Feature","geometry":{"type":"Point","coordinates":[8.5165402202054,47.3637741268794]},"properties":{"adresse":"Binzallee 11","name":"Kinderkrippe Glitzerstärn","ort":"Zürich","plz":"8055","tel":"+41 43 305 74 56","www":"http://www.kinderkrippe-glitzerstaern.ch"}}
,{"type":"Feature","geometry":{"type":"Point","coordinates":[8.50845422169769,47.3541062785427]},"properties":{"adresse":"Frauentalweg 100","name":"Verein Kindertagesstätte Albatros Zürich","ort":"Zürich","plz":"8045","tel":"+41 78 600 37 14","www":"http://www.kita-albatros.ch"}}
,{"type":"Feature","geometry":{"type":"Point","coordinates":[8.51447733646351,47.3658622414387]},"properties":{"adresse":"Binzallee 37","name":"Tandem Binz 3 Binzallee 37/39","ort":"Zürich","plz":"8055","tel":"+41 44 450 34 11","www":"http://www.kita-tandem.ch/"}}
,{"type":"Feature","geometry":{"type":"Point","coordinates":[8.56894106474251,47.363156210778]},"properties":{"adresse":"Biberlinstrasse 16","name":"Kindervilla Lummerland","ort":"Zürich","plz":"8032","tel":"+41 43 499 98 28","www":"http://www.kindervilla-lummerland.ch"}}
,{"type":"Feature","geometry":{"type":"Point","coordinates":[8.53139972367804,47.3827581298585]},"properties":{"adresse":"Josefstrasse 76","name":"GFZ Kita 5 - Josefstrasse","ort":"Zürich","plz":"8005","tel":"+41 44 271 70 80","www":"http://www.gfz-zh.ch"}}
,{"type":"Feature","geometry":{"type":"Point","coordinates":[8.55720226227298,47.3595734795589]},"properties":{"adresse":"Zollikerstrasse 78","name":"GFZ Kita 8 - Zollikertrasse","ort":"Zürich","plz":"8008","tel":"+41 44 383 02 57","www":"http://www.gfz-zh.ch"}}
,{"type":"Feature","geometry":{"type":"Point","coordinates":[8.55161565993886,47.3690814017827]},"properties":{"adresse":"Zeltweg 21b","name":"GFZ Kita 1 - Zeltweg","ort":"Zürich","plz":"8032","tel":"+41 44 253 75 10","www":"http://www.gfz-zh.ch"}}
,{"type":"Feature","geometry":{"type":"Point","coordinates":[8.52301232784244,47.3929746117492]},"properties":{"adresse":"Hönggerstrasse 60","name":"GFZ Kita 10 - Hönggerstrasse","ort":"Zürich","plz":"8037","tel":"+41 44 271 15 81","www":"http://www.gfz-zh.ch"}}
,{"type":"Feature","geometry":{"type":"Point","coordinates":[8.54654795652608,47.4297659749471]},"properties":{"adresse":"Eichrainstrasse 11","name":"GFZ Kita 11 - Eichrainstrasse","ort":"Zürich","plz":"8052","tel":"+41 43 300 91 60","www":"http://www.gfz-zh.ch"}}
,{"type":"Feature","geometry":{"type":"Point","coordinates":[8.52121340877085,47.3683269295412]},"properties":{"adresse":"Zelgstrasse 37","name":"GFZ Kita 3 - Zelgstrasse","ort":"Zürich","plz":"8003","tel":"+41 44 462 72 70","www":"http://www.gfz-zh.ch"}}
,{"type":"Feature","geometry":{"type":"Point","coordinates":[8.48278442184531,47.3883079067789]},"properties":{"adresse":"Im Struppen 1","name":"Kita Abrakadabra","ort":"Zürich","plz":"8048","tel":"+41 43 311 98 10","www":"http://www.kita-abrakadabra.ch"}}
,{"type":"Feature","geometry":{"type":"Point","coordinates":[8.49154084902931,47.3736294833812]},"properties":{"adresse":"Langgrütweg 21","name":"Kinderkrippe Albisrieden","ort":"Zürich","plz":"8047","tel":"+41 44 406 87 87","www":"http://www.kinderkrippe-albisrieden.ch"}}
,{"type":"Feature","geometry":{"type":"Point","coordinates":[8.52818387648581,47.3919455017309]},"properties":{"adresse":"Landenbergstrasse 10","name":"Kita am Wasser","ort":"Zürich","plz":"8037","tel":"+41 43 321 30 04","www":"http://www.kitaamwasser.ch"}}
,{"type":"Feature","geometry":{"type":"Point","coordinates":[8.47813804599379,47.3918398615574]},"properties":{"adresse":"Badenerstrasse 760","name":"Kinderparadies Bambi Badenerstrasse","ort":"Zürich","plz":"8048","tel":"+41 44 401 20 70","www":"http://www.kinderkrippe-bambi.ch"}}
,{"type":"Feature","geometry":{"type":"Point","coordinates":[8.55611734707367,47.3798141448082]},"properties":{"adresse":"Herzogstrasse 2","name":"Kita Bethanien Fluntern","ort":"Zürich","plz":"8044","tel":"+41 44 262 96 56","www":"http://www.bethanien.ch/content/kita-bethanien-fluntern-betreuungsm%C3%B6glichkeiten"}}
,{"type":"Feature","geometry":{"type":"Point","coordinates":[8.51579760970218,47.4128581290683]},"properties":{"adresse":"Glaubtenstrasse 32","name":"Kinderkrippe Biene Maya","ort":"Zürich","plz":"8046","tel":"+41 44 370 14 90","www":"http://www.gfkb.ch"}}
,{"type":"Feature","geometry":{"type":"Point","coordinates":[8.54729816811028,47.3792154890704]},"properties":{"adresse":"Sonneggstrasse 16","name":"Kita USZ Sonneggstrasse","ort":"Zürich","plz":"8006","tel":"+41 44 255 98 68","www":"http://www.stadt-zuerich.ch/kinderbetreuung"}}
,{"type":"Feature","geometry":{"type":"Point","coordinates":[8.54140796192221,47.3812777814134]},"properties":{"adresse":"Walchestrasse 27","name":"globegarden Central","ort":"Zürich","plz":"8006","tel":"+41 44 536 55 32","www":"http://www.globegarden.ch/de/kinderkrippe-zuerich/kinderkrippe-central/"}}
,{"type":"Feature","geometry":{"type":"Point","coordinates":[8.54903408066458,47.3595623600131]},"properties":{"adresse":"Bellerivestrasse 20","name":"globegarden Bellerivestrasse","ort":"Zürich","plz":"8008","tel":"+41 44 536 55 32","www":"http://www.globegarden.ch"}}
,{"type":"Feature","geometry":{"type":"Point","coordinates":[8.55377561927174,47.3558736091861]},"properties":{"adresse":"Dufourstrasse 146","name":"Villa Rumpelkiste","ort":"Zürich","plz":"8008","tel":"+41 44 381 60 57","www":"http://www.villa-rumpelkiste.ch"}}
,{"type":"Feature","geometry":{"type":"Point","coordinates":[8.53309056007779,47.4122099626687]},"properties":{"adresse":"Regina-Kägi-Hof 3","name":"Windrädli","ort":"Zürich","plz":"8050","tel":"+41 44 310 81 68","www":"http://www.stadt-zuerich.ch/kinderbetreuung"}}
,{"type":"Feature","geometry":{"type":"Point","coordinates":[8.51713174107452,47.3321505570848]},"properties":{"adresse":"Leimbachstrasse 80","name":"24h-Kita und Krisenintervention","ort":"Zürich","plz":"8041","tel":"+41 44 412 89 81","www":"http://www.stadt-zuerich.ch/kinderbetreuung"}}
,{"type":"Feature","geometry":{"type":"Point","coordinates":[8.50529622888182,47.36092812393]},"properties":{"adresse":"Borrweg 76","name":"Kindertagesstätte am Friesenberg","ort":"Zürich","plz":"8055","tel":"+41 43 960 25 72","www":"http://www.friesi-krippe.ch"}}
,{"type":"Feature","geometry":{"type":"Point","coordinates":[8.57404191634679,47.3552533293346]},"properties":{"adresse":"Russenweg 39","name":"Kinderkrippe Gigelisuppe","ort":"Zürich","plz":"8008","tel":"+41 44 262 65 95","www":"http://www.gigelisuppe.ch"}}
,{"type":"Feature","geometry":{"type":"Point","coordinates":[8.54900775145416,47.4142349613826]},"properties":{"adresse":"Allmannstrasse 4","name":"ABB Kinderkrippe Zwärgehuus","ort":"Zürich","plz":"8050","tel":"+41 58 585 33 56","www":"http://www.abbkinderkrippen.ch"}}
,{"type":"Feature","geometry":{"type":"Point","coordinates":[8.51041865580437,47.368130765747]},"properties":{"adresse":"Höfliweg 1","name":"Kinderparadies Bambi Heuried","ort":"Zürich","plz":"8055","tel":"+41 43 333 12 00","www":"http://www.stadt-zuerich.ch/kinderbetreuung"}}
,{"type":"Feature","geometry":{"type":"Point","coordinates":[8.54561241694646,47.419196803255]},"properties":{"adresse":"Bahnhaldenstrasse 12","name":"Kinderkrippe Bambi 3 Seebach","ort":"Zürich","plz":"8052","tel":"+41 43 300 19 91","www":"http://www.kinderkrippe-bambi.ch"}}
,{"type":"Feature","geometry":{"type":"Point","coordinates":[8.51901999249038,47.372467232453]},"properties":{"adresse":"Stationsstrasse 22","name":"Kinderkrippe Bambi Wiedikon","ort":"Zürich","plz":"8003","tel":"+41 44 461 88 00","www":"https://www.kinderkrippe-bambi.ch/"}}
,{"type":"Feature","geometry":{"type":"Point","coordinates":[8.52353659326766,47.4245781897663]},"properties":{"adresse":"Schwandenholzstrasse 190a","name":"Kinderkrippe Bambina","ort":"Zürich","plz":"8046","tel":"+41 44 370 15 15","www":"http://www.gfkb.ch"}}
,{"type":"Feature","geometry":{"type":"Point","coordinates":[8.53311858054103,47.3645626953024]},"properties":{"adresse":"Alfred-Escher-Strasse 17","name":"Bambis Chinderland 2","ort":"Zürich","plz":"8002","tel":"+41 44 201 67 18","www":"http://www.bambis.ch"}}
,{"type":"Feature","geometry":{"type":"Point","coordinates":[8.54991032318551,47.374926688961]},"properties":{"adresse":"Rämistrasse 84","name":"Kids & Co Freie Strasse (Aussengruppe Rämistrasse)","ort":"Zürich","plz":"8006","tel":"+41 44 253 26 76","www":"http://www.profawo.ch/de/eltern/dienstleistungen/kids-co/zrich/kids-co-kreis-7.html"}}
,{"type":"Feature","geometry":{"type":"Point","coordinates":[8.55611277010968,47.3745430252261]},"properties":{"adresse":"Nägelistrasse 16","name":"globegarden Nägelistrasse","ort":"Zürich","plz":"8002","tel":"+41 44 536 55 32","www":"http://www.globegarden.org"}}
,{"type":"Feature","geometry":{"type":"Point","coordinates":[8.55682384082012,47.4052814844191]},"properties":{"adresse":"Magdalenenstrasse 74","name":"Kinderparadies Magdalenenstrasse","ort":"Zürich","plz":"8050","tel":"+41 44 321 05 20","www":"http://www.krippekinderparadies.ch"}}
,{"type":"Feature","geometry":{"type":"Point","coordinates":[8.51875501268389,47.3574298466639]},"properties":{"adresse":"Wannerstrasse 13","name":"Kids & Co Wannerstrasse","ort":"Zürich","plz":"8045","tel":"+41 44 461 02 60","www":"https://www.profawo.ch/angebot/kids-co-kitas/zuerich/wannerstrasse/"}}
,{"type":"Feature","geometry":{"type":"Point","coordinates":[8.52680077780798,47.334596458387]},"properties":{"adresse":"Paradiesstrasse 45","name":"Kita Paradies","ort":"Zürich","plz":"8038","tel":"+41 44 414 71 60","www":"http://www.stadt-zuerich.ch/kita-paradies"}}
,{"type":"Feature","geometry":{"type":"Point","coordinates":[8.51508713425999,47.3652448908784]},"properties":{"adresse":"Binzallee 29","name":"Tandem Binz 3 Binzallee 29","ort":"Zürich","plz":"8055","tel":"+41 44 450 34 11","www":"http://www.kita-tandem.ch"}}
,{"type":"Feature","geometry":{"type":"Point","coordinates":[8.51224125815608,47.3619881593339]},"properties":{"adresse":"Binzstrasse 38","name":"Güxi Friesenberg","ort":"Zürich","plz":"8045","tel":"+41 44 321 20 20","www":"http://www.guexi.ch"}}
,{"type":"Feature","geometry":{"type":"Point","coordinates":[8.52935876873149,47.3962790363459]},"properties":{"adresse":"Rosengartenstrasse 61","name":"Kinderhaus Ringelrosen Rosengartenstrasse","ort":"Zürich","plz":"8037","tel":"+41 44 350 61 66","www":"http://www.ringelrosen.ch"}}
,{"type":"Feature","geometry":{"type":"Point","coordinates":[8.56379624532895,47.3627746815993]},"properties":{"adresse":"Freiestrasse 175","name":"Children First Association","ort":"Zürich","plz":"8032","tel":"+41 44 252 91 21","www":"http://www.childrenfirst.ch"}}
,{"type":"Feature","geometry":{"type":"Point","coordinates":[8.52396655907599,47.3565804121527]},"properties":{"adresse":"Büttenweg 16","name":"Little Star Day School Büttenweg","ort":"Zürich","plz":"8045","tel":"+41 43 377 54 00","www":"http://www.littlestardayschool.com"}}
,{"type":"Feature","geometry":{"type":"Point","coordinates":[8.49484908370895,47.3842134506056]},"properties":{"adresse":"Flurstrasse 55","name":"Kita Chinderstern Zürich-Altstetten","ort":"Zürich","plz":"8048","tel":"+41 43 818 64 39","www":"http://www.chinderstern.ch"}}
,{"type":"Feature","geometry":{"type":"Point","coordinates":[8.54271125745495,47.3860147568705]},"properties":{"adresse":"Granitweg 6","name":"KITA BÄLIS","ort":"Zürich","plz":"8006","tel":"+41 44 544 21 31","www":"http://www.baerlis.ch/index.php"}}
,{"type":"Feature","geometry":{"type":"Point","coordinates":[8.54946257080011,47.3833054748329]},"properties":{"adresse":"Gladbachstrasse 2","name":"KITA cha cha cha Gladbachstrasse","ort":"Zürich","plz":"8006","tel":"+41 43 255 09 75","www":"http://www.kita-chachacha.com/gladbachstrasse"}}
,{"type":"Feature","geometry":{"type":"Point","coordinates":[8.48366581813718,47.3825970936881]},"properties":{"adresse":"Altstetterstrasse 218","name":"Kita pop e poppa Chinderburg","ort":"Zürich","plz":"8048","tel":"+41 44 431 79 77","www":"http://www.chinderburg.ch"}}
,{"type":"Feature","geometry":{"type":"Point","coordinates":[8.48681880124043,47.4055417721172]},"properties":{"adresse":"Imbisbühlstrasse 100","name":"Chrabelschloss I (Imbisbühlstrasse)","ort":"Zürich","plz":"8049","tel":"+41 43 300 22 33","www":"http://www.chrabelschloss.ch"}}
,{"type":"Feature","geometry":{"type":"Point","coordinates":[8.49625191919101,47.4028472944925]},"properties":{"adresse":"Wieslergasse 10","name":"Chrabelschloss II (Wieslergasse)","ort":"Zürich","plz":"8049","tel":"+41 43 300 22 33","www":"http://www.chrabelschloss.ch/"}}
,{"type":"Feature","geometry":{"type":"Point","coordinates":[8.52094467926728,47.3610329945831]},"properties":{"adresse":"Staffelstrasse 10","name":"myKita","ort":"Zürich","plz":"8045","tel":"+41 43 344 52 60","www":"http://www.stadt-zuerich.ch/kinderbetreuung"}}
,{"type":"Feature","geometry":{"type":"Point","coordinates":[8.53084466476131,47.3698913592187]},"properties":{"adresse":"Sihlamtsstrasse 14","name":"Kita Selnau","ort":"Zürich","plz":"8001","tel":"+41 44 415 69 30","www":"http://www.stadt-zuerich.ch/kita-selnau"}}
,{"type":"Feature","geometry":{"type":"Point","coordinates":[8.54951188154912,47.3735992381965]},"properties":{"adresse":"Schönberggasse 4","name":"kihz Schönberg","ort":"Zürich","plz":"8001","tel":"+41 44 634 40 27","www":"http://www.kihz.ethz.ch"}}
,{"type":"Feature","geometry":{"type":"Point","coordinates":[8.49755855246143,47.3805996230779]},"properties":{"adresse":"Dennlerstrasse 37","name":"KiTa Sonnenschein","ort":"Zürich","plz":"8047","tel":"+41 43 321 95 37","www":"http://www.stadt-zuerich.ch/kinderbetreuung"}}
,{"type":"Feature","geometry":{"type":"Point","coordinates":[8.54516464972091,47.4027491472678]},"properties":{"adresse":"Oerlikonerstrasse 50","name":"Joy Factory Oerlikon","ort":"Zürich","plz":"8057","tel":"+41 77 448 81 58","www":"http://www.joyfactory.ch"}}
,{"type":"Feature","geometry":{"type":"Point","coordinates":[8.537782769962,47.4141983177027]},"properties":{"adresse":"Birchstrasse 183a","name":"Kinderhaus im Birch","ort":"Zürich","plz":"8050","tel":"+41 43 443 92 22","www":"http://www.kinderhaus-seebach.org"}}
,{"type":"Feature","geometry":{"type":"Point","coordinates":[8.5754564795241,47.3520640854701]},"properties":{"adresse":"Witellikerstrasse 22","name":"Kinderkrippe Spatzennest","ort":"Zürich","plz":"8008","tel":"+41 44 384 29 64","www":"http://www.stadt-zuerich.ch/kinderbetreuung"}}
,{"type":"Feature","geometry":{"type":"Point","coordinates":[8.55398237589172,47.3765155657777]},"properties":{"adresse":"Häldeliweg 10","name":"Kinderkrippe Spielchischte","ort":"Zürich","plz":"8044","tel":"+41 44 262 78 78","www":"http://www.unizh.ch/leben/kinder/spielchischte"}}
,{"type":"Feature","geometry":{"type":"Point","coordinates":[8.54959486049889,47.3667801021977]},"properties":{"adresse":"Schanzengasse 11","name":"Kita Sputnik","ort":"Zürich","plz":"8001","tel":"+41 44 261 48 74","www":"http://www.kitasputnik.ch"}}
,{"type":"Feature","geometry":{"type":"Point","coordinates":[8.54714158521711,47.392062026304]},"properties":{"adresse":"Letzistrasse 21","name":"Kita Blumenwiese Letzi","ort":null,"plz":"8006","tel":"+41 43 233 88 49","www":"http://www.kitablumenwiese.ch"}}
,{"type":"Feature","geometry":{"type":"Point","coordinates":[8.56703282640732,47.3730785904242]},"properties":{"adresse":"Dolderstrasse 103","name":"GFZ Kita 6 USZ - Dolderstrasse","ort":"Zürich","plz":"8032","tel":"+41 44 268 10 40","www":"http://www.gfz-zh.ch"}}
,{"type":"Feature","geometry":{"type":"Point","coordinates":[8.50762050222611,47.3804529868227]},"properties":{"adresse":"Norastrasse 7","name":"Güxi Albisriederplatz","ort":"Zürich","plz":"8004","tel":"+41 44 401 20 20","www":"http://www.guexi.ch"}}
,{"type":"Feature","geometry":{"type":"Point","coordinates":[8.54151225238232,47.424075306858]},"properties":{"adresse":"Katzenbachstrasse 229","name":"Joy Factory Seebach","ort":"Zürich","plz":"8052","tel":"+41 44 310 26 36","www":"http://www.joyfactory.ch"}}
,{"type":"Feature","geometry":{"type":"Point","coordinates":[8.55726838643419,47.3564155187926]},"properties":{"adresse":"Wildbachstrasse 44","name":"The First Step Wildbachstrasse","ort":"Zürich","plz":"8008","tel":"+41 43 343 92 43","www":"http://www.thefirststep.ch"}}
,{"type":"Feature","geometry":{"type":"Point","coordinates":[8.53850007947831,47.4142814453008]},"properties":{"adresse":"Armin-Bollinger-Weg 1","name":"ABB Kinderkrippe Mupfelchischte Haus A","ort":"Zürich","plz":"8050","tel":"+41 58 585 33 56","www":"http://www.abbkinderkrippen.ch"}}
,{"type":"Feature","geometry":{"type":"Point","coordinates":[8.5533499474105,47.4247893238176]},"properties":{"adresse":"Schaffhauserstrasse 554","name":"Kinderhaus Seebach","ort":"Zürich","plz":"8052","tel":"+41 43 443 92 22","www":"http://www.kinderhaus-seebach.org"}}
,{"type":"Feature","geometry":{"type":"Point","coordinates":[8.48139717399342,47.4060855342663]},"properties":{"adresse":"Frankentalerstrasse 20 (erst.)","name":"Kinderkrippe Bambi Höngg","ort":"Zürich","plz":"8049","tel":"+41 44 431 13 65","www":"http://www.kinderkrippe-bambi.ch "}}
,{"type":"Feature","geometry":{"type":"Point","coordinates":[8.49154329880287,47.3791164479909]},"properties":{"adresse":"Freilagerstrasse 32","name":"Kita Kiddi (Freilagerstrasse)","ort":"Zürich","plz":"8047","tel":"+41 43 931 78 14","www":"http://www.kita-kiddi.jimdo.com"}}
,{"type":"Feature","geometry":{"type":"Point","coordinates":[8.51623470254147,47.3604487770366]},"properties":{"adresse":"Uetlibergstrasse 132","name":"globegarden Sihlcity","ort":"Zürich","plz":"8045","tel":"+41 44 536 55 32","www":"http://www.globegarden.ch/de/kinderkrippe-zuerich/kinderkrippe-sihlcity/"}}
,{"type":"Feature","geometry":{"type":"Point","coordinates":[8.5159471446395,47.3324584621387]},"properties":{"adresse":"Wegackerstrasse 46","name":"Kinderhaus Rütschlibach","ort":"Zürich","plz":"8041","tel":"+41 43 243 13 35","www":"http://www.kinderhaus-ruetschlibach.ch"}}
,{"type":"Feature","geometry":{"type":"Point","coordinates":[8.58577238462762,47.3584386452332]},"properties":{"adresse":"Witikonerstrasse 285","name":"KiTa Blüemli 2 (Witikonerstrasse)","ort":"Zürich","plz":"8053","tel":"+41 79 756 20 28","www":"http://www.kitabluemli.ch"}}
,{"type":"Feature","geometry":{"type":"Point","coordinates":[8.58790813994986,47.3580306116008]},"properties":{"adresse":"Carl-Spitteler-Strasse 2","name":"Little Learners Bilingual Day Care","ort":"Zürich","plz":"8053","tel":"+41 44 422 86 69","www":"http://www.littlelearners.ch"}}
,{"type":"Feature","geometry":{"type":"Point","coordinates":[8.52904138740543,47.374298021137]},"properties":{"adresse":"Lutherstrasse 20","name":"Kinderhaus am Stauffacher","ort":"Zürich","plz":"8004","tel":"+41 44 242 90 80","www":"http://www.kinderhaus-stauffacher.ch/"}}
,{"type":"Feature","geometry":{"type":"Point","coordinates":[8.49836901541717,47.4027109671027]},"properties":{"adresse":"Regensdorferstrasse 9","name":"Kinderhaus Quelle","ort":"Zürich","plz":"8049","tel":"+41 44 341 04 66","www":"http://www.montessori-schulung.ch"}}
,{"type":"Feature","geometry":{"type":"Point","coordinates":[8.53028681751623,47.3963152484156]},"properties":{"adresse":"Scheffelstrasse 46","name":"Kinderhaus Ringelrosen Scheffelstrasse","ort":"Zürich","plz":"8037","tel":"+41 44 350 61 66","www":"http://www.ringelrosen.ch"}}
,{"type":"Feature","geometry":{"type":"Point","coordinates":[8.53844429097814,47.4160719861047]},"properties":{"adresse":"Margrit-Rainer-Strasse 14","name":"Kinderhaus Züri Nord","ort":"Zürich","plz":"8050","tel":"+41 43 443 92 32","www":"http://www.kinderhaus-seebach.org"}}
,{"type":"Feature","geometry":{"type":"Point","coordinates":[8.49764002101295,47.3853662537096]},"properties":{"adresse":"Grundstrasse 28","name":"Kinderkrippe Little Einsteins","ort":"Zürich","plz":"8048","tel":"+41 44 492 24 88","www":"http://www.stadt-zuerich.ch/kinderbetreuung"}}
,{"type":"Feature","geometry":{"type":"Point","coordinates":[8.54761754396145,47.4041108775485]},"properties":{"adresse":"Schaffhauserstrasse 265","name":"Tagesschule Blüemlisalp AG","ort":"Zürich","plz":"8057","tel":"+41 44 310 18 83","www":"http://www.tsba.ch/"}}
,{"type":"Feature","geometry":{"type":"Point","coordinates":[8.5073430497048,47.3705789479885]},"properties":{"adresse":"Burstwiesenstrasse 18","name":"Kinderkrippe Zauberstei","ort":"Zürich","plz":"8055","tel":"+41 44 454 45 08","www":"http://www.zauberstei.ch"}}
,{"type":"Feature","geometry":{"type":"Point","coordinates":[8.55294208489931,47.3995981009369]},"properties":{"adresse":"Frohburgstrasse 211","name":"kihz Tierspital","ort":"Zürich","plz":"8057","tel":"+41 44 634 56 69","www":"http://www.kihz.ch"}}
,{"type":"Feature","geometry":{"type":"Point","coordinates":[8.5194046841905,47.3711953222803]},"properties":{"adresse":"Erikastrasse 25","name":"Kinderkrippe Schmiedhof","ort":"Zürich","plz":"8003","tel":"+41 44 462 65 30","www":"http://www.schmiedhof.ch"}}
,{"type":"Feature","geometry":{"type":"Point","coordinates":[8.53887377397105,47.4131265252993]},"properties":{"adresse":"Binzmühlestrasse 103","name":"Kinderkrippe Schnappi","ort":"Zürich","plz":"8050","tel":"+41 44 301 18 66","www":"http://www.grow2gether.ch"}}
,{"type":"Feature","geometry":{"type":"Point","coordinates":[8.58331014706605,47.4065333748395]},"properties":{"adresse":"Winterthurerstrasse 689","name":"KiTa Zauberburg","ort":"Zürich","plz":"8051","tel":"+41 43 321 64 26","www":"http://www.kita-zauberburg.ch"}}
,{"type":"Feature","geometry":{"type":"Point","coordinates":[8.51558304978799,47.3694769702853]},"properties":{"adresse":"Schrennengasse 21","name":"Kinderkrippe Zauberschloss","ort":"Zürich","plz":"8003","tel":"+41 44 462 85 78","www":"http://www.stadt-zuerich.ch/kinderbetreuung"}}
,{"type":"Feature","geometry":{"type":"Point","coordinates":[8.5333613932001,47.4099136657238]},"properties":{"adresse":"Goldregenweg 30","name":"Kinderkrippe Goldräge","ort":"Zürich","plz":"8050","tel":"+41 43 288 59 88","www":"http://www.kinderkrippe-goldraege.ch"}}
,{"type":"Feature","geometry":{"type":"Point","coordinates":[8.5327614219775,47.3697382908125]},"properties":{"adresse":"Friedensgasse 3","name":"PASITOS","ort":"Zürich","plz":"8002","tel":"+41 44 281 12 40","www":"http://www.stadt-zuerich.ch/kinderbetreuung"}}
,{"type":"Feature","geometry":{"type":"Point","coordinates":[8.57382414744072,47.404090313676]},"properties":{"adresse":"Dübendorfstrasse 2","name":"Güxi Dübendorfstrasse","ort":"Zürich","plz":"8051","tel":"+41 43 321 51 57","www":"http://www.guexi.ch"}}
,{"type":"Feature","geometry":{"type":"Point","coordinates":[8.57202453403069,47.4041979271832]},"properties":{"adresse":"Winterthurerstrasse 525","name":"Güxi Post","ort":"Zürich","plz":"8051","tel":"+41 44 321 10 10","www":"http://www.guexi.ch"}}
,{"type":"Feature","geometry":{"type":"Point","coordinates":[8.52964066399474,47.3751109188369]},"properties":{"adresse":"Müllerstrasse 43","name":"Kinderkrippe Schneeflocke","ort":"Zürich","plz":"8004","tel":"+41 43 243 89 85","www":"http://www.kinderkrippeschneeflocke.ch"}}
,{"type":"Feature","geometry":{"type":"Point","coordinates":[8.5392284421481,47.3898888957104]},"properties":{"adresse":"Schaffhauserstrasse 26","name":"KITA cha cha cha Schaffhauserstrasse","ort":"Zürich","plz":"8006","tel":"+41 44 350 23 15","www":"http://www.kita-chachacha.com/schaffhauserstrasse"}}
,{"type":"Feature","geometry":{"type":"Point","coordinates":[8.55783618303603,47.3613933646345]},"properties":{"adresse":"Neumünsterallee 17","name":"Kinderkrippe der Heilsarmee","ort":"Zürich","plz":"8008","tel":"+41 44 383 47 00","www":"http://www.stadt-zuerich.ch/kinderbetreuung"}}
,{"type":"Feature","geometry":{"type":"Point","coordinates":[8.53901889679516,47.4137368060398]},"properties":{"adresse":"Binzmühlestrasse 102","name":"ABB Kinderkrippe Mupfelchischte Haus B","ort":"Zürich","plz":"8050","tel":"+41 44 310 34 73","www":"http://www.abbkinderkrippen.ch"}}
,{"type":"Feature","geometry":{"type":"Point","coordinates":[8.50014521087283,47.365518116225]},"properties":{"adresse":"Paul-Clairmont-Strasse 30","name":"Kita Triemlispital","ort":"Zürich","plz":"8055","tel":"+41 44 416 14 80","www":"http://www.stadt-zuerich.ch/kita-triemlispital"}}
,{"type":"Feature","geometry":{"type":"Point","coordinates":[8.54475027158351,47.3815156821172]},"properties":{"adresse":"Clausiusstrasse 72","name":"KIKRI ETH-Zentrum","ort":"Zürich","plz":"8006","tel":"+41 44 632 48 38","www":"http://www.kikri.ethz.ch"}}
,{"type":"Feature","geometry":{"type":"Point","coordinates":[8.51100853909275,47.3645452333978]},"properties":{"adresse":"Sieberstrasse 16","name":"Kinderparadies Sieberstrasse","ort":"Zürich","plz":"8055","tel":"+41 44 960 94 41","www":"http://www.krippekinderparadies.ch"}}
,{"type":"Feature","geometry":{"type":"Point","coordinates":[8.58708382515528,47.3584795809457]},"properties":{"adresse":"Witikonerstrasse 311b","name":"Apfelblüte Kinderkrippe","ort":"Zürich","plz":"8053","tel":"+41 76 371 01 05","www":"http://www.apfelbluete.ch"}}
,{"type":"Feature","geometry":{"type":"Point","coordinates":[8.53505295261592,47.3330881219151]},"properties":{"adresse":"Nidelbadstrasse 79","name":"HaZoKita","ort":"Zürich","plz":"8038","tel":"+41 43 243 19 61","www":"http://www.hazo-kita.ch"}}
,{"type":"Feature","geometry":{"type":"Point","coordinates":[8.5153295989182,47.3929834874757]},"properties":{"adresse":"Hardturmstrasse 120","name":"globegarden Hardturmstrasse","ort":"Zürich","plz":"8005","tel":"+41 44 536 55 32","www":"http://www.globegarden.ch"}}
,{"type":"Feature","geometry":{"type":"Point","coordinates":[8.54887914315055,47.3833365826632]},"properties":{"adresse":"Winkelriedstrasse 4","name":"Montessori Kindergarten Fiorella+Irene","ort":"Zürich","plz":"8006","tel":"+41 44 361 15 72","www":"http://www.montessori-kindergarten.ch/"}}
,{"type":"Feature","geometry":{"type":"Point","coordinates":[8.52310311272416,47.3870806199662]},"properties":{"adresse":"Josefstrasse 212","name":"Kita Regenbogen","ort":"Zürich","plz":"8005","tel":"+41 44 440 01 80","www":"http://www.ortefuerkinder.ch"}}
,{"type":"Feature","geometry":{"type":"Point","coordinates":[8.50224304559539,47.4235527157261]},"properties":{"adresse":"Weidmannstrasse 12","name":"Kinderkrippe Dinolina","ort":"Zürich","plz":"8046","tel":"+41 43 535 84 10","www":"http://www.grow2gether.ch"}}
,{"type":"Feature","geometry":{"type":"Point","coordinates":[8.47627547708418,47.3873411113309]},"properties":{"adresse":"Eugen-Huber-Strasse 97","name":"Kinderkrippe Luna","ort":"Zürich","plz":"8048","tel":"+41 44 431 40 30","www":"http://www.stadt-zuerich.ch/kinderbetreuung"}}
,{"type":"Feature","geometry":{"type":"Point","coordinates":[8.5448554974626,47.392965454874]},"properties":{"adresse":"Winterthurerstrasse 117","name":"Kinderkrippe Murmel","ort":"Zürich","plz":"8006","tel":"+41 44 362 64 84","www":"http://www.kita-murmel.ch"}}
,{"type":"Feature","geometry":{"type":"Point","coordinates":[8.48390658520546,47.4137805397995]},"properties":{"adresse":"Regensdorferstrasse 200","name":"Krippe Heizenholz","ort":"Zürich","plz":"8049","tel":"+41 44 344 36 76","www":"http://www.heizenholz.ch"}}
,{"type":"Feature","geometry":{"type":"Point","coordinates":[8.49274996432561,47.3846091367928]},"properties":{"adresse":"Buckhauserstrasse 28","name":"Kinderkrippe Schlümpfli","ort":"Zürich","plz":"8047","tel":null,"www":null}}
,{"type":"Feature","geometry":{"type":"Point","coordinates":[8.49736003517051,47.3832729735855]},"properties":{"adresse":"Fuchsiastrasse 14","name":"Kita Fuchsia","ort":"Zürich","plz":"8047","tel":"+41 43 541 84 84","www":"http://www.kita-fuchsia.ch"}}
,{"type":"Feature","geometry":{"type":"Point","coordinates":[8.49484908370895,47.3842134506056]},"properties":{"adresse":"Flurstrasse 55","name":"Kita Chinderstern Altstetten","ort":"Zürich","plz":"8048","tel":"+41 43 818 64 39","www":"http://www.chinderstern.ch"}}
,{"type":"Feature","geometry":{"type":"Point","coordinates":[8.51489092283645,47.3647070118341]},"properties":{"adresse":"Bühlstrasse 45b","name":"Tandem Binz 2","ort":"Zürich","plz":"8055","tel":"+41 43 317 97 10","www":"http://www.kita-tandem.ch"}}
,{"type":"Feature","geometry":{"type":"Point","coordinates":[8.50704832914492,47.4021183436093]},"properties":{"adresse":"Lebristweg 45","name":"Chindsgi Hönggerberg","ort":"Zürich","plz":"8049","tel":"+41 44 341 02 78","www":"http://www.chindsgi-hoenggerberg.ch"}}
,{"type":"Feature","geometry":{"type":"Point","coordinates":[8.57747140094119,47.3509647967678]},"properties":{"adresse":"Witellikerstrasse 45","name":"Kinderkrippe Hoppel","ort":"Zürich","plz":"8008","tel":"+41 44 381 30 90","www":"http://www.kita-hoppel.ch"}}
,{"type":"Feature","geometry":{"type":"Point","coordinates":[8.53484242273007,47.3885183609521]},"properties":{"adresse":"Imfeldstrasse 11","name":"KIMI Central","ort":"Zürich","plz":"8037","tel":"+41 43 255 24 00","www":"http://www.pazh.ch"}}
,{"type":"Feature","geometry":{"type":"Point","coordinates":[8.50940619346552,47.4179187171882]},"properties":{"adresse":"Wehntalerstrasse 506","name":"Kita In Böden","ort":"Zürich","plz":"8046","tel":"+41 44 415 33 04","www":"http://www.stadt-zuerich.ch/kita-inboeden"}}
,{"type":"Feature","geometry":{"type":"Point","coordinates":[8.49572825461796,47.3664401471247]},"properties":{"adresse":"Birmensdorferstrasse 505","name":"Zentrum Inselhof - Kindertagesstätte","ort":"Zürich","plz":"8063","tel":"+41 44 498 51 31","www":"http://www.zentrum-inselhof.ch"}}
,{"type":"Feature","geometry":{"type":"Point","coordinates":[8.51875255906912,47.3971702214182]},"properties":{"adresse":"Griesernweg 26","name":"Kita Käferberg","ort":"Zürich","plz":"8037","tel":"+41 43 321 39 20","www":"http://www.kita-kaeferberg.ch"}}
,{"type":"Feature","geometry":{"type":"Point","coordinates":[8.52781758239833,47.3980026340465]},"properties":{"adresse":"Tièchestrasse 51 (erst.)","name":"Kita Tièchestrasse","ort":"Zürich","plz":"8037","tel":"+41 44 415 69 70","www":"http://www.stadt-zuerich.ch/kita-tiechestrasse"}}
,{"type":"Feature","geometry":{"type":"Point","coordinates":[8.48868495879161,47.38191293748]},"properties":{"adresse":"Rautistrasse 75","name":"KiBiZ Sternli","ort":"Zürich","plz":"8048","tel":"+41 44 400 12 86","www":"http://www.kibiz-zuerich.ch"}}
,{"type":"Feature","geometry":{"type":"Point","coordinates":[8.55229131695631,47.3735364932613]},"properties":{"adresse":"Freiestrasse 11","name":"Kids & Co Freiestrasse","ort":"Zürich","plz":"8032","tel":"+41 44 254 60 50","www":"http://www.childcare.ch"}}
,{"type":"Feature","geometry":{"type":"Point","coordinates":[8.5114020123689,47.3827836392395]},"properties":{"adresse":"Hohlstrasse 301","name":"Kids & Co Hohlstrasse","ort":"Zürich","plz":"8004","tel":"+41 44 401 04 46","www":"https://www.profawo.ch/angebot/kids-co-kitas/zuerich/wannerstrasse/hohlstrasse/"}}
,{"type":"Feature","geometry":{"type":"Point","coordinates":[8.57408131087656,47.4068312961918]},"properties":{"adresse":"Kreuzwiesen 2","name":"Kids & Co Kreuzwiesen","ort":"Zürich","plz":"8051","tel":"+41 44 321 95 40","www":"https://www.profawo.ch/angebot/kids-co-kitas/zuerich/kreuzwiesen/"}}
,{"type":"Feature","geometry":{"type":"Point","coordinates":[8.48151680357508,47.3858007503625]},"properties":{"adresse":"Zwischenbächen 2","name":"GFZ Kita 9","ort":"Zürich","plz":"8048","tel":"+41 44 431 01 00","www":"http://www.gfz-zh.ch"}}
,{"type":"Feature","geometry":{"type":"Point","coordinates":[8.59659817955153,47.3540398385457]},"properties":{"adresse":"Schäracher 16","name":"chinderhuus jota nido","ort":"Zürich","plz":"8053","tel":"+41 44 381 84 00","www":null}}
,{"type":"Feature","geometry":{"type":"Point","coordinates":[8.47640467038067,47.3898945321095]},"properties":{"adresse":"Dachslernstrasse 67","name":"Chinderhuus Kribbel Krabbel (Dachslern)","ort":"Zürich","plz":"8048","tel":"+41 43 817 02 87","www":"http://www.kribbelkrabbel.ch"}}
,{"type":"Feature","geometry":{"type":"Point","coordinates":[8.50181502831255,47.3855168069566]},"properties":{"adresse":"Freihofstrasse 21","name":"Chinderhuus Kribbel Krabbel (Freihof)","ort":"Zürich","plz":"8048","tel":"+41 43 817 02 82","www":"http://www.kribbelkrabbel.ch"}}
,{"type":"Feature","geometry":{"type":"Point","coordinates":[8.51332334450378,47.3664126925766]},"properties":{"adresse":"Im Tiergarten 12","name":"Kids & Co Tiergarten","ort":"Zürich","plz":"8055","tel":"+41 44 451 52 76","www":"https://www.profawo.ch/angebot/kids-co-kitas/zuerich/tiergarten/"}}
,{"type":"Feature","geometry":{"type":"Point","coordinates":[8.54684909467192,47.4015636476269]},"properties":{"adresse":"Bülachhof 4","name":"kihz Bülachhof","ort":"Zürich","plz":"8057","tel":"+41 43 333 49 80","www":"http://www.kihz.ch"}}
,{"type":"Feature","geometry":{"type":"Point","coordinates":[8.50915756553742,47.4108239794499]},"properties":{"adresse":"Hönggerbergring 39","name":"kihz Hönggerberg","ort":"Zürich","plz":"8049","tel":"+41 44 633 45 32","www":"http://www.kihz.ethz.ch"}}
,{"type":"Feature","geometry":{"type":"Point","coordinates":[8.51794028719955,47.3865006759932]},"properties":{"adresse":"Hardstrasse 223","name":"Kids & Co Prime Tower","ort":"Zürich","plz":"8005","tel":"+41 43 960 34 30","www":"https://www.profawo.ch/angebot/kids-co-kitas/zuerich/prime-tower/"}}
,{"type":"Feature","geometry":{"type":"Point","coordinates":[8.52234034862215,47.3612371859327]},"properties":{"adresse":"Staffelstrasse 3","name":"KiTa Märliwält","ort":"Zürich","plz":"8045","tel":"+41 44 512 59 66","www":"https://www.kita-maerliwelt.ch/"}}
,{"type":"Feature","geometry":{"type":"Point","coordinates":[8.59330319497941,47.3987071362603]},"properties":{"adresse":"Mattenhof 11 (erst.)","name":"Kita Sunnige Hof","ort":"Zürich","plz":"8051","tel":"+41 43 321 64 26","www":"http://www.vkka.ch"}}
,{"type":"Feature","geometry":{"type":"Point","coordinates":[8.52445101004259,47.3920705901751]},"properties":{"adresse":"Hönggerstrasse 65","name":"Bubble Bees Zürich Wipkingerplatz / Escher-Wyss-Platz","ort":"Zürich","plz":"8037","tel":"+41 44 252 20 00","www":"http://bubblebees.com/de"}}
,{"type":"Feature","geometry":{"type":"Point","coordinates":[8.55896893569098,47.4178178267344]},"properties":{"adresse":"Leutschenbachstrasse 95","name":"globegarden Leutschenbach","ort":"Zürich","plz":"8050","tel":"+41 44 536 55 32","www":"http://www.globegarden.org"}}
,{"type":"Feature","geometry":{"type":"Point","coordinates":[8.50630513062431,47.4218871905964]},"properties":{"adresse":"Dora-Staudinger-Strasse 15","name":"Chinderhuus Sitara","ort":"Zürich","plz":"8046","tel":"+41 43 811 38 55","www":"http://www.krippenverein.ch"}}
,{"type":"Feature","geometry":{"type":"Point","coordinates":[8.58599629535891,47.3577707712518]},"properties":{"adresse":"Heilighüsli 9","name":"Chrippe am Hügeli","ort":"Zürich","plz":"8053","tel":"+41 44 383 44 70","www":"http://www.chrippeamhuegeli.ch"}}
,{"type":"Feature","geometry":{"type":"Point","coordinates":[8.50902301128253,47.3902805992928]},"properties":{"adresse":"Pfingstweidstrasse 101","name":"Kinderkrippe Wirbelschloss","ort":"Zürich","plz":"8005","tel":"+41 44 278 54 66","www":"http://www.stadt-zuerich.ch/kinderbetreuung"}}
,{"type":"Feature","geometry":{"type":"Point","coordinates":[8.50180459799139,47.4221715265541]},"properties":{"adresse":"Blumenfeldstrasse 7","name":"Kinderkrippe Bambi Affoltern","ort":"Zürich","plz":"8046","tel":"+41 43 811 40 00","www":"http://www.kinderkrippe-bambi.ch"}}
,{"type":"Feature","geometry":{"type":"Point","coordinates":[8.55832413759958,47.4136233827818]},"properties":{"adresse":"Hagenholzstrasse 94","name":"Kinderstube Oerlikon","ort":"Zürich","plz":"8050","tel":"+41 43 300 12 14","www":"http://www.stadt-zuerich.ch/kinderbetreuung"}}
,{"type":"Feature","geometry":{"type":"Point","coordinates":[8.54176952060147,47.4121814333534]},"properties":{"adresse":"Elias-Canetti-Strasse 2","name":"globegarden Elias-Canetti Strasse","ort":"Zürich","plz":"8050","tel":"+41 44 536 55 32","www":"http://www.globegarden.ch/de/kinderkrippen-oerlikon/kinderkrippe-oerlikon/"}}
,{"type":"Feature","geometry":{"type":"Point","coordinates":[8.5240124417076,47.3750919785556]},"properties":{"adresse":"Wengistrasse 2a","name":"globegarden Wengistrasse","ort":"Zürich","plz":"8004","tel":"+41 44 536 55 32","www":"http://www.globegarden.org"}}
,{"type":"Feature","geometry":{"type":"Point","coordinates":[8.51531309010154,47.3875776109313]},"properties":{"adresse":"Turbinenstrasse 21","name":"Kinderkrippe Hardbrüggli","ort":"Zürich","plz":"8005","tel":"+41 76 226 10 51","www":"http://www.hardbrueggli.ch"}}
,{"type":"Feature","geometry":{"type":"Point","coordinates":[8.53348299327543,47.3629670978173]},"properties":{"adresse":"Alfred-Escher-Strasse 34","name":"globegarden Alfred-Escher","ort":"Zürich","plz":"8002","tel":"+41 44 536 55 32","www":"http://www.globegarden.ch/de/kinderkrippe-zuerich/kinderkrippe-enge/"}}
,{"type":"Feature","geometry":{"type":"Point","coordinates":[8.5493921681704,47.423136350601]},"properties":{"adresse":"Glatttalstrasse 11","name":"GFZ Kita 11a - Glattalstrasse","ort":"Zürich","plz":"8052","tel":"+41 44 301 31 93","www":"http://www.gfz-zh.ch"}}
,{"type":"Feature","geometry":{"type":"Point","coordinates":[8.54608980336769,47.4192102212161]},"properties":{"adresse":"Bahnhaldenstrasse 10","name":"Kinderkrippe Bambi Seebach","ort":"Zürich","plz":"8052","tel":"+41 44 431 13 65","www":"http://www.kinderkrippe-bambi.ch/"}}
,{"type":"Feature","geometry":{"type":"Point","coordinates":[8.56952216164372,47.3693302323909]},"properties":{"adresse":"Oberer Heuelsteig 15","name":"Güxi Sonnenberg","ort":"Zürich","plz":"8032","tel":"+41 43 266 62 62","www":"http://www.guexi.ch"}}
,{"type":"Feature","geometry":{"type":"Point","coordinates":[8.49557792163321,47.3869052978115]},"properties":{"adresse":"Baslerstrasse 62","name":"Little Green House","ort":"Zürich","plz":"8048","tel":"+41 41 748 30 60","www":"http://www.littlegreenhouse.ch/de/kinderkrippe/zurich-altstetten-kinderkrippe/"}}
,{"type":"Feature","geometry":{"type":"Point","coordinates":[8.55507782146456,47.3725471105016]},"properties":{"adresse":"Plattenstrasse 45","name":"kihz Platten","ort":"Zürich","plz":"8032","tel":"+41 44 634 50 27","www":"http://www.kihz.ch"}}
,{"type":"Feature","geometry":{"type":"Point","coordinates":[8.52299624433652,47.3596388870242]},"properties":{"adresse":"Giesshübelstrasse 15","name":"globegarden Giesshübelstrasse","ort":"Zürich","plz":"8045","tel":"+41 44 536 55 32","www":"http://www.globegarden.ch/de/kinderkrippe-zuerich/kinderkrippe-giesshuebelstrasse/"}}
,{"type":"Feature","geometry":{"type":"Point","coordinates":[8.56562403711834,47.3615604948813]},"properties":{"adresse":"Hofackerstrasse 44","name":"globegarden Hofackerstrasse","ort":"Zürich","plz":"8032","tel":"+41 43 243 06 49","www":"http://www.globegarden.ch/de/kinderkrippe-zuerich/kinderkrippe-hegibachplatz/"}}
,{"type":"Feature","geometry":{"type":"Point","coordinates":[8.55355661786796,47.406806230742]},"properties":{"adresse":"Magdalenenstrasse 37","name":"Kita Bethanien Oerlikon","ort":"Zürich ","plz":"8050","tel":"+41 44 311 81 63","www":"http://www.bethanien.ch/content/kita-bethanien-oerlikon-betreuungsm%C3%B6glichkeiten"}}
,{"type":"Feature","geometry":{"type":"Point","coordinates":[8.53149821184822,47.406935950541]},"properties":{"adresse":"Wehntalerstrasse 184","name":"Kinderkrippe Nessie","ort":"Zürich","plz":"8057","tel":"+41 44 536 75 61","www":"http://www.grow2gether.ch"}}
,{"type":"Feature","geometry":{"type":"Point","coordinates":[8.52534136658649,47.3779219397981]},"properties":{"adresse":"Herbartstrasse 11","name":"PLAYground nature","ort":"Zürich","plz":"8004","tel":"+41 43 399 55 44","www":"http://playground-edu.ch/"}}
,{"type":"Feature","geometry":{"type":"Point","coordinates":[8.52529884116266,47.3849295220362]},"properties":{"adresse":"Neugasse 138","name":"globegarden Neugasse","ort":"Zürich","plz":"8005","tel":"+41 44 536 55 32","www":"http://www.globegarden.org"}}
,{"type":"Feature","geometry":{"type":"Point","coordinates":[8.55942748311578,47.3766337699445]},"properties":{"adresse":"Vorderberg 11","name":"globegarden Fluntern","ort":"Zürich","plz":"8044","tel":"+41 44 536 55 32","www":"http://www.globegarden.ch/de/kinderkrippe-zuerich/kinderkrippe-fluntern-fluntern/"}}
,{"type":"Feature","geometry":{"type":"Point","coordinates":[8.55277666669406,47.3612803755607]},"properties":{"adresse":"Mainaustrasse 49","name":"The First Step Mainaustrasse","ort":"Zürich","plz":"8008","tel":"+41 43 343 92 43","www":"http://www.firststep.ch"}}
,{"type":"Feature","geometry":{"type":"Point","coordinates":[8.50914310271298,47.3771376931968]},"properties":{"adresse":"Hardaustrasse 23","name":"MUKITA musische Kindertagesstätte","ort":"Zürich","plz":"8050","tel":"+41 79 379 68 30","www":"http://www.mukita.ch"}}
,{"type":"Feature","geometry":{"type":"Point","coordinates":[8.49423824758574,47.3734339586957]},"properties":{"adresse":"Langgrütstrasse 112","name":"Villa Kunterbunt am Letzigraben Kita 1","ort":"Zürich","plz":"8047","tel":"+41 43 311 01 02","www":"http://www.villa-kunterbunt-zh.ch/"}}
,{"type":"Feature","geometry":{"type":"Point","coordinates":[8.52583802565047,47.3522811044036]},"properties":{"adresse":"Allmendstrasse 9","name":"Kita Erdmännli","ort":"Zürich","plz":"8027","tel":"+41 44 201 00 49","www":"http://www.erdmaennli.ch"}}
,{"type":"Feature","geometry":{"type":"Point","coordinates":[8.5326142873898,47.3452263638984]},"properties":{"adresse":"Renggerstrasse 49","name":"Kita TakaTukaLand","ort":"Zürich","plz":"8038","tel":"+41 79 276 88 29","www":"http://www.kita-takatukaland.com"}}
,{"type":"Feature","geometry":{"type":"Point","coordinates":[8.50146109053896,47.3976543637439]},"properties":{"adresse":"Tobeleggweg 9","name":"Krippe Schiguna Tobeleggweg","ort":"Zürich","plz":"8049","tel":"+41 44 361 11 68","www":"http://www.schiguna.ch"}}
,{"type":"Feature","geometry":{"type":"Point","coordinates":[8.5423001843392,47.3930258702059]},"properties":{"adresse":"Im Eisernen Zeit 51","name":"globegarden Kreis 6","ort":"Zürich","plz":"8006","tel":"+41 44 536 55 32","www":"http://www.globegarden.org"}}
,{"type":"Feature","geometry":{"type":"Point","coordinates":[8.49339577989993,47.3683324498833]},"properties":{"adresse":"Triemlistrasse 152","name":"Kita Kiddi (Triemlistrasse)","ort":"Zürich","plz":"8047","tel":"+41 44 536 79 69","www":"http://kiddi1.kitakiddi.ch/angebot/"}}
,{"type":"Feature","geometry":{"type":"Point","coordinates":[8.5334089093639,47.3432413505022]},"properties":{"adresse":"Kilchbergsteig 13","name":"globegarden Kilchbergsteig","ort":"Zürich","plz":"8038","tel":"+41 44 536 55 32","www":"http://www.globegarden.ch/de/kinderkrippe-zuerich/kinderkrippe-kilchbergsteig/"}}
,{"type":"Feature","geometry":{"type":"Point","coordinates":[8.56459474178246,47.3604641235578]},"properties":{"adresse":"Forchstrasse 155","name":"Rachel's Kinderkrippe","ort":"Zürich","plz":"8032","tel":"+41 44 381 40 90","www":"http://www.rachelskinderkrippe.ch"}}
,{"type":"Feature","geometry":{"type":"Point","coordinates":[8.53112591777344,47.3687553114376]},"properties":{"adresse":"Brandschenkestrasse 38","name":"globegarden Brandschenkestrasse","ort":"Zürich","plz":"8002","tel":"+41 44 536 55 32","www":"http://www.globegarden.org"}}
,{"type":"Feature","geometry":{"type":"Point","coordinates":[8.52643119407287,47.3657862510184]},"properties":{"adresse":"Brandschenkestrasse 90","name":"Kinderkrippe BAMBI Enge","ort":null,"plz":"8002","tel":"+41 44 401 25 22","www":"https://kinderkrippe-bambi.ch/index.php/de/kinderkrippen/standorte/kinderkrippe-enge"}}
]}
