{"name":"PubliBike","type":"FeatureCollection"
,"features":[
{"type":"Feature","geometry":{"type":"Point","coordinates":[8.51816880202895,47.3917840121547]},"properties":{"id_publibike":"91","name":"Puls 5","adresse":"Hardturmstrasse 11","plz":8005,"status":"Active","datum":"20181126000017"}}
,{"type":"Feature","geometry":{"type":"Point","coordinates":[8.55271580207278,47.3599780121376]},"properties":{"id_publibike":"263","name":"Feldeggstrasse","adresse":"Seefeldstrasse 96","plz":8008,"status":"Active","datum":"20181126000017"}}
,{"type":"Feature","geometry":{"type":"Point","coordinates":[8.53043580204696,47.372710012147]},"properties":{"id_publibike":"362","name":"Stauffachertor","adresse":"Werdstrasse 25","plz":8004,"status":"Active","datum":"20181126000017"}}
,{"type":"Feature","geometry":{"type":"Point","coordinates":[8.53781480204166,47.4135140121537]},"properties":{"id_publibike":"277","name":"Lamprechtweg","adresse":"Birchstrasse 183","plz":8050,"status":"Active","datum":"20181126000017"}}
,{"type":"Feature","geometry":{"type":"Point","coordinates":[8.54123780205655,47.3759910121445]},"properties":{"id_publibike":"274","name":"Beatenplatz","adresse":"Beatenplatz 1","plz":8001,"status":"Active","datum":"20181126000017"}}
,{"type":"Feature","geometry":{"type":"Point","coordinates":[8.52372080203504,47.3899000121527]},"properties":{"id_publibike":"143","name":"Escher-Wyss-Platz","adresse":"Limmatstrasse 310","plz":8005,"status":"Active","datum":"20181126000017"}}
,{"type":"Feature","geometry":{"type":"Point","coordinates":[8.54171080204472,47.4161550121531]},"properties":{"id_publibike":"363","name":"Wahlenpark","adresse":"Eggbühlstrasse 21","plz":8050,"status":"Active","datum":"20181126000017"}}
,{"type":"Feature","geometry":{"type":"Point","coordinates":[8.51898080203127,47.3867410121534]},"properties":{"id_publibike":"108","name":"Bahnhof Hardbrücke","adresse":"Geroldstrasse 4","plz":8005,"status":"Active","datum":"20181126000017"}}
,{"type":"Feature","geometry":{"type":"Point","coordinates":[8.53061480204955,47.3647900121452]},"properties":{"id_publibike":"107","name":"Bederbrücke","adresse":"Gutenbergstrasse 1","plz":8002,"status":"Active","datum":"20181126000017"}}
,{"type":"Feature","geometry":{"type":"Point","coordinates":[8.53606780205103,47.3775020121463]},"properties":{"id_publibike":"105","name":"Sihlpost","adresse":"Kasernenstrasse 101","plz":8004,"status":"Active","datum":"20181126000017"}}
,{"type":"Feature","geometry":{"type":"Point","coordinates":[8.52211580203214,47.3945540121542]},"properties":{"id_publibike":"361","name":"Dorfstrasse","adresse":"Dorfstrasse 40","plz":8037,"status":"Active","datum":"20181126000017"}}
,{"type":"Feature","geometry":{"type":"Point","coordinates":[8.54856080206663,47.3669100121404]},"properties":{"id_publibike":"285","name":"Bahnhof Stadelhofen","adresse":"Galerie über Gleis 2/3","plz":8001,"status":"Active","datum":"20181126000017"}}
,{"type":"Feature","geometry":{"type":"Point","coordinates":[8.56092080208028,47.3619070121357]},"properties":{"id_publibike":"368","name":"Hegibachplatz","adresse":"Forchstrasse 99","plz":8032,"status":"Active","datum":"20181126000017"}}
,{"type":"Feature","geometry":{"type":"Point","coordinates":[8.49162880200335,47.3898230121619]},"properties":{"id_publibike":"152","name":"Luggweg","adresse":"Hohlstrasse 563","plz":8048,"status":"Active","datum":"20181126000017"}}
,{"type":"Feature","geometry":{"type":"Point","coordinates":[8.55032880205599,47.4070980121487]},"properties":{"id_publibike":"366","name":"Dorflinde","adresse":"Schwamendingenstrasse 41","plz":8050,"status":"Active","datum":"20181126000017"}}
,{"type":"Feature","geometry":{"type":"Point","coordinates":[8.53643180204793,47.3886890121487]},"properties":{"id_publibike":"365","name":"Kornhausstrasse","adresse":"Kornhausstrasse 30","plz":8006,"status":"Active","datum":"20181126000018"}}
,{"type":"Feature","geometry":{"type":"Point","coordinates":[8.55953280207625,47.3708390121381]},"properties":{"id_publibike":"364","name":"Kinderspital","adresse":"Dolderstrasse 32","plz":8032,"status":"Active","datum":"20181126000018"}}
,{"type":"Feature","geometry":{"type":"Point","coordinates":[8.52713880204377,47.3723290121478]},"properties":{"id_publibike":"154","name":"Werd","adresse":"Werdstrasse 75","plz":8004,"status":"Active","datum":"20181126000018"}}
,{"type":"Feature","geometry":{"type":"Point","coordinates":[8.54214480205386,47.3876980121469]},"properties":{"id_publibike":"360","name":"Kirche Unterstrass","adresse":"Turnerstrasse 47","plz":8006,"status":"Active","datum":"20181126000018"}}
,{"type":"Feature","geometry":{"type":"Point","coordinates":[8.51237980202281,47.3934090121567]},"properties":{"id_publibike":"359","name":"Fischerweg","adresse":"Hardturmstrasse 161","plz":8005,"status":"Active","datum":"20181126000018"}}
,{"type":"Feature","geometry":{"type":"Point","coordinates":[8.5524308020664,47.3801760121422]},"properties":{"id_publibike":"356","name":"Siriuswiese","adresse":"Hochstrasse 34","plz":8044,"status":"Active","datum":"20181126000018"}}
,{"type":"Feature","geometry":{"type":"Point","coordinates":[8.52729680204467,47.3701410121473]},"properties":{"id_publibike":"357","name":"Hallwylstrasse","adresse":"Hallwylstrasse 71","plz":8004,"status":"Active","datum":"20181126000018"}}
,{"type":"Feature","geometry":{"type":"Point","coordinates":[8.55411280207268,47.3651190121384]},"properties":{"id_publibike":"131","name":"Kreuzplatz","adresse":"Kreuzplatz 2","plz":8032,"status":"Active","datum":"20181126000018"}}
,{"type":"Feature","geometry":{"type":"Point","coordinates":[8.51669080202819,47.3897770121547]},"properties":{"id_publibike":"102","name":"Turbinenplatz","adresse":"Technoparkstrasse 4","plz":8005,"status":"Active","datum":"20181126000018"}}
,{"type":"Feature","geometry":{"type":"Point","coordinates":[8.51814180203768,47.3631480121484]},"properties":{"id_publibike":"128","name":"Binz","adresse":"Haldenstrasse 8","plz":8045,"status":"Active","datum":"20181126000018"}}
,{"type":"Feature","geometry":{"type":"Point","coordinates":[8.52305880204353,47.3598720121462]},"properties":{"id_publibike":"150","name":"Utoplatz","adresse":"Giesshübelstrasse 15","plz":8045,"status":"Active","datum":"20181126000018"}}
,{"type":"Feature","geometry":{"type":"Point","coordinates":[8.5440608020619,47.3675570121418]},"properties":{"id_publibike":"136","name":"Bellevue Kanzel","adresse":"Bellevueplatz 5","plz":8001,"status":"Active","datum":"20181126000018"}}
,{"type":"Feature","geometry":{"type":"Point","coordinates":[8.49382080200292,47.3985550121632]},"properties":{"id_publibike":"286","name":"Tüffenwies","adresse":"Meierwiesenstrasse 12-4","plz":8064,"status":"Active","datum":"20181126000018"}}
,{"type":"Feature","geometry":{"type":"Point","coordinates":[8.54560080204806,47.4177010121524]},"properties":{"id_publibike":"278","name":"Emil-Oberhänsli","adresse":"Felsenrainstrasse 2","plz":8050,"status":"Active","datum":"20181126000018"}}
,{"type":"Feature","geometry":{"type":"Point","coordinates":[8.51667480203244,47.3758190121516]},"properties":{"id_publibike":"266","name":"Lochergut","adresse":"Badenerstrasse 246","plz":8004,"status":"Active","datum":"20181126000018"}}
,{"type":"Feature","geometry":{"type":"Point","coordinates":[8.49083580200357,47.3865960121614]},"properties":{"id_publibike":"156","name":"Luggwegstrasse VBZ","adresse":"Badenerstrasse 627","plz":8048,"status":"Active","datum":"20181126000018"}}
,{"type":"Feature","geometry":{"type":"Point","coordinates":[8.5476378020674,47.3612660121393]},"properties":{"id_publibike":"135","name":"Seebad Utoquai","adresse":"Utoquai 50","plz":8008,"status":"Active","datum":"20181126000018"}}
,{"type":"Feature","geometry":{"type":"Point","coordinates":[8.55708680207749,47.358557012136]},"properties":{"id_publibike":"134","name":"Mühlebachstrasse","adresse":"Mühlebachstrasse 131","plz":8008,"status":"Active","datum":"20181126000018"}}
,{"type":"Feature","geometry":{"type":"Point","coordinates":[8.53484180205431,47.3625940121434]},"properties":{"id_publibike":"101","name":"Rentenanstalt","adresse":"Breitingerstrasse 5","plz":8002,"status":"Active","datum":"20181126000018"}}
,{"type":"Feature","geometry":{"type":"Point","coordinates":[8.5104168020245,47.3813560121547]},"properties":{"id_publibike":"126","name":"Hardau","adresse":"Bullingerstrasse 73","plz":8004,"status":"Active","datum":"20181126000018"}}
,{"type":"Feature","geometry":{"type":"Point","coordinates":[8.49672580201185,47.378521012158]},"properties":{"id_publibike":"125","name":"Utogrund","adresse":"Albisriederstrasse 200","plz":8047,"status":"Active","datum":"20181126000018"}}
,{"type":"Feature","geometry":{"type":"Point","coordinates":[8.54141780205031,47.3972460121492]},"properties":{"id_publibike":"358","name":"Milchbuck","adresse":"Schaffhauserstrasse 137","plz":8057,"status":"Active","datum":"20181126000018"}}
,{"type":"Feature","geometry":{"type":"Point","coordinates":[8.54935480205445,47.4088270121494]},"properties":{"id_publibike":"139","name":"ewz Tramstrasse","adresse":"Tramstrasse 35","plz":8050,"status":"Active","datum":"20181126000018"}}
,{"type":"Feature","geometry":{"type":"Point","coordinates":[8.54124980205565,47.3789830121452]},"properties":{"id_publibike":"84","name":"Landesmuseum","adresse":"Museumstrasse 2","plz":8001,"status":"Active","datum":"20181126000018"}}
,{"type":"Feature","geometry":{"type":"Point","coordinates":[8.50569680201672,47.3917960121583]},"properties":{"id_publibike":"90","name":"Sportweg","adresse":"Sportweg 25","plz":8005,"status":"Active","datum":"20181126000018"}}
,{"type":"Feature","geometry":{"type":"Point","coordinates":[8.50682180201291,47.4078120121615]},"properties":{"id_publibike":"86","name":"ETH Hönggerberg","adresse":"Stefano-Franscini-Platz 5","plz":8093,"status":"Active","datum":"20181126000019"}}
,{"type":"Feature","geometry":{"type":"Point","coordinates":[8.54006080205597,47.3743920121445]},"properties":{"id_publibike":"60","name":"Demo Station Werdmühleplatz","adresse":"Uraniastrasse 7","plz":8001,"status":"Active","datum":"20181126000019"}}
,{"type":"Feature","geometry":{"type":"Point","coordinates":[8.53571680205608,47.3596750121424]},"properties":{"id_publibike":"82","name":"Hafen Enge","adresse":"Mythenquai 50","plz":8002,"status":"Active","datum":"20181126000019"}}
,{"type":"Feature","geometry":{"type":"Point","coordinates":[8.5204478020324,47.3881510121533]},"properties":{"id_publibike":"112","name":"Steinfelsareal","adresse":"Josefstrasse 224","plz":8005,"status":"Active","datum":"20181126000019"}}
,{"type":"Feature","geometry":{"type":"Point","coordinates":[8.52462780203712,47.3860720121516]},"properties":{"id_publibike":"160","name":"Josefwiese","adresse":"Josefstrasse 188","plz":8005,"status":"Active","datum":"20181126000019"}}
,{"type":"Feature","geometry":{"type":"Point","coordinates":[8.52713680203915,47.3875310121511]},"properties":{"id_publibike":"164","name":"Markthalle","adresse":"Röntgenstrasse 87","plz":8005,"status":"Active","datum":"20181126000019"}}
,{"type":"Feature","geometry":{"type":"Point","coordinates":[8.54493380206305,47.3667520121414]},"properties":{"id_publibike":"141","name":"Bellevue","adresse":"Bellevueplatz 2","plz":8001,"status":"Active","datum":"20181126000019"}}
,{"type":"Feature","geometry":{"type":"Point","coordinates":[8.53364580204235,47.3980800121517]},"properties":{"id_publibike":"279","name":"Bucheggplatz","adresse":"Bucheggplatz 2","plz":8057,"status":"Active","datum":"20181126000019"}}
,{"type":"Feature","geometry":{"type":"Point","coordinates":[8.54304080205876,47.3747110121437]},"properties":{"id_publibike":"155","name":"Rudolf-Brun-Brücke","adresse":"Limmatquai 100","plz":8001,"status":"Active","datum":"20181126000019"}}
,{"type":"Feature","geometry":{"type":"Point","coordinates":[8.51460380202602,47.3898620121553]},"properties":{"id_publibike":"273","name":"Westpark","adresse":"Pfingstweidstrasse 60","plz":8005,"status":"Active","datum":"20181126000019"}}
,{"type":"Feature","geometry":{"type":"Point","coordinates":[8.48600080199586,47.3964010121651]},"properties":{"id_publibike":"110","name":"Grünau","adresse":"Grünauring 37","plz":8064,"status":"Active","datum":"20181126000019"}}
,{"type":"Feature","geometry":{"type":"Point","coordinates":[8.51048680202593,47.3771540121537]},"properties":{"id_publibike":"97","name":"Zurlindenstrasse","adresse":"Zurlindenstrasse 291","plz":8003,"status":"Active","datum":"20181126000019"}}
,{"type":"Feature","geometry":{"type":"Point","coordinates":[8.5351178020569,47.3551890121417]},"properties":{"id_publibike":"157","name":"Strandbad Mythenquai","adresse":"Mythenquai 95","plz":8002,"status":"Active","datum":"20181126000019"}}
,{"type":"Feature","geometry":{"type":"Point","coordinates":[8.52173880204055,47.3652720121477]},"properties":{"id_publibike":"153","name":"Manesseplatz","adresse":"Manessestrasse 87","plz":8045,"status":"Active","datum":"20181126000019"}}
,{"type":"Feature","geometry":{"type":"Point","coordinates":[8.49105980200208,47.3923360121627]},"properties":{"id_publibike":"149","name":"Vulkanplatz","adresse":"Vulkanplatz 1","plz":8048,"status":"Active","datum":"20181126000019"}}
,{"type":"Feature","geometry":{"type":"Point","coordinates":[8.54804380206481,47.3708690121414]},"properties":{"id_publibike":"137","name":"Kunsthaus","adresse":"Heimplatz 1","plz":8001,"status":"Active","datum":"20181126000019"}}
,{"type":"Feature","geometry":{"type":"Point","coordinates":[8.53331280204964,47.3731100121461]},"properties":{"id_publibike":"98","name":"Sihlporte","adresse":"Sihlstrasse 81","plz":8001,"status":"Active","datum":"20181126000019"}}
,{"type":"Feature","geometry":{"type":"Point","coordinates":[8.53609980205308,47.371083012145]},"properties":{"id_publibike":"87","name":"Pelikanplatz","adresse":"Pelikanplatz 5","plz":8001,"status":"Active","datum":"20181126000019"}}
,{"type":"Feature","geometry":{"type":"Point","coordinates":[8.51555680203253,47.3718680121511]},"properties":{"id_publibike":"159","name":"Zwinglihaus","adresse":"Aemtlerstrasse 23","plz":8003,"status":"Active","datum":"20181126000019"}}
,{"type":"Feature","geometry":{"type":"Point","coordinates":[8.57212480207839,47.4039990121416]},"properties":{"id_publibike":"370","name":"Schwamendingerplatz","adresse":"Winterthurerstrasse 519","plz":8051,"status":"Active","datum":"20181126000019"}}
,{"type":"Feature","geometry":{"type":"Point","coordinates":[8.54272480205683,47.379952012145]},"properties":{"id_publibike":"129","name":"Stampfenbachplatz","adresse":"Walchestrasse 11","plz":8006,"status":"Active","datum":"20181126000019"}}
,{"type":"Feature","geometry":{"type":"Point","coordinates":[8.55318780207527,47.353198012136]},"properties":{"id_publibike":"264","name":"Lake Side","adresse":"Bellerivestrasse 170","plz":8008,"status":"Active","datum":"20181126000019"}}
,{"type":"Feature","geometry":{"type":"Point","coordinates":[8.52578080204461,47.3651940121466]},"properties":{"id_publibike":"88","name":"Hürlimannplatz","adresse":"Hürlimannplatz 90","plz":8002,"status":"Active","datum":"20181126000019"}}
,{"type":"Feature","geometry":{"type":"Point","coordinates":[8.52381680203901,47.3771480121498]},"properties":{"id_publibike":"95","name":"Bäckeranlage","adresse":"Stauffacherstrasse 127","plz":8004,"status":"Active","datum":"20181126000019"}}
,{"type":"Feature","geometry":{"type":"Point","coordinates":[8.54851780206357,47.3767560121426]},"properties":{"id_publibike":"111","name":"ETH Zentrum","adresse":"Rämistrasse 101","plz":8006,"status":"Active","datum":"20181126000020"}}
,{"type":"Feature","geometry":{"type":"Point","coordinates":[8.52048080203729,47.3720900121497]},"properties":{"id_publibike":"124","name":"Weststrasse","adresse":"Weststrasse 115","plz":8003,"status":"Active","datum":"20181126000020"}}
,{"type":"Feature","geometry":{"type":"Point","coordinates":[8.53080780204538,47.3790790121482]},"properties":{"id_publibike":"96","name":"Gustav-Gull-Platz","adresse":"Lagerstrasse 18","plz":8004,"status":"Active","datum":"20181126000020"}}
,{"type":"Feature","geometry":{"type":"Point","coordinates":[8.53133280204822,47.3713590121464]},"properties":{"id_publibike":"89","name":"Stauffacherbrücke","adresse":"Selnaustrasse 32","plz":8001,"status":"Active","datum":"20181126000020"}}
,{"type":"Feature","geometry":{"type":"Point","coordinates":[8.54985080207123,47.3559400121376]},"properties":{"id_publibike":"132","name":"Blatterwiese","adresse":"Höschgasse 3","plz":8008,"status":"Active","datum":"20181126000020"}}
,{"type":"Feature","geometry":{"type":"Point","coordinates":[8.51040380202191,47.3899340121565]},"properties":{"id_publibike":"81","name":"Herdern","adresse":"Pfingstweidstrasse 96e","plz":8001,"status":"Active","datum":"20181126000020"}}
,{"type":"Feature","geometry":{"type":"Point","coordinates":[8.55449980207411,47.3616200121375]},"properties":{"id_publibike":"133","name":"Villa Bleuler","adresse":"Feldeggstrasse 80","plz":8008,"status":"Active","datum":"20181126000020"}}
,{"type":"Feature","geometry":{"type":"Point","coordinates":[8.53373480205203,47.3669040121447]},"properties":{"id_publibike":"140","name":"Bleicherweg","adresse":"Bleicherweg 33","plz":8002,"status":"Active","datum":"20181126000020"}}
,{"type":"Feature","geometry":{"type":"Point","coordinates":[8.52864580204234,47.3820830121495]},"properties":{"id_publibike":"92","name":"Röntgenstrasse","adresse":"Röntgenstrasse 6","plz":8005,"status":"Active","datum":"20181126000020"}}
,{"type":"Feature","geometry":{"type":"Point","coordinates":[8.52053080203647,47.3749510121503]},"properties":{"id_publibike":"99","name":"Kalkbreite","adresse":"Feldstrasse 24","plz":8004,"status":"Active","datum":"20181126000020"}}
,{"type":"Feature","geometry":{"type":"Point","coordinates":[8.53193380204473,47.3849180121492]},"properties":{"id_publibike":"93","name":"Limmatplatz","adresse":"Kornhausbrücke 1","plz":8005,"status":"Active","datum":"20181126000020"}}
,{"type":"Feature","geometry":{"type":"Point","coordinates":[8.54550380206155,47.3736750121428]},"properties":{"id_publibike":"158","name":"Predigerplatz","adresse":"Predigerpatz 21","plz":8001,"status":"Active","datum":"20181126000020"}}
,{"type":"Feature","geometry":{"type":"Point","coordinates":[8.53544880204874,47.3827980121476]},"properties":{"id_publibike":"106","name":"Museum für Gestaltung","adresse":"Ausstellungsstrasse 44","plz":8005,"status":"Active","datum":"20181126000020"}}
,{"type":"Feature","geometry":{"type":"Point","coordinates":[8.53904480205689,47.3680640121434]},"properties":{"id_publibike":"100","name":"Zürcher Kantonalbank","adresse":"Talstrasse 12","plz":8001,"status":"Active","datum":"20181126000020"}}
,{"type":"Feature","geometry":{"type":"Point","coordinates":[8.52552380204555,47.3615670121458]},"properties":{"id_publibike":"127","name":"Klopstockwiese","adresse":"Klopstockstrasse 23","plz":8002,"status":"Active","datum":"20181126000020"}}
,{"type":"Feature","geometry":{"type":"Point","coordinates":[8.5235468020405,47.3716660121486]},"properties":{"id_publibike":"85","name":"Bahnhof Wiedikon","adresse":"Birmensdorferstrasse 80","plz":8003,"status":"Active","datum":"20181126000020"}}
,{"type":"Feature","geometry":{"type":"Point","coordinates":[8.48810680199937,47.3913660121633]},"properties":{"id_publibike":"130","name":"Bahnhof Altstetten","adresse":"Altstetterplatz 1","plz":8048,"status":"Active","datum":"20181126000020"}}
,{"type":"Feature","geometry":{"type":"Point","coordinates":[8.5434358020608,47.3692560121424]},"properties":{"id_publibike":"265","name":"Helmhaus","adresse":"Limmatquai 18","plz":8032,"status":"Active","datum":"20181126000020"}}
,{"type":"Feature","geometry":{"type":"Point","coordinates":[8.54344580205881,47.3759330121439]},"properties":{"id_publibike":"138","name":"Central","adresse":"Limmatquai 138","plz":8001,"status":"Active","datum":"20181126000020"}}
,{"type":"Feature","geometry":{"type":"Point","coordinates":[8.53865280205466,47.3739570121448]},"properties":{"id_publibike":"104","name":"Rennweg","adresse":"Oetenbachgasse 14","plz":8001,"status":"Active","datum":"20181126000020"}}
,{"type":"Feature","geometry":{"type":"Point","coordinates":[8.55281680205613,47.4145580121496]},"properties":{"id_publibike":"276","name":"Airgate","adresse":"Hagenholzstrasse 51","plz":8050,"status":"Active","datum":"20181126000020"}}
,{"type":"Feature","geometry":{"type":"Point","coordinates":[8.51563180203019,47.3795840121528]},"properties":{"id_publibike":"80","name":"Bullingerplatz","adresse":"Bullingerstrasse 5","plz":8004,"status":"Active","datum":"20181126000020"}}
,{"type":"Feature","geometry":{"type":"Point","coordinates":[8.52354780203416,47.3923470121533]},"properties":{"id_publibike":"280","name":"Wipkingerplatz","adresse":"Wipkingerplatz 4","plz":8037,"status":"Active","datum":"20181126000020"}}
,{"type":"Feature","geometry":{"type":"Point","coordinates":[8.52855180204454,47.3742300121478]},"properties":{"id_publibike":"142","name":"Stauffacher","adresse":"Stauffacherstrasse 41","plz":8004,"status":"Active","datum":"20181126000020"}}
,{"type":"Feature","geometry":{"type":"Point","coordinates":[8.53539980205093,47.3758640121462]},"properties":{"id_publibike":"94","name":"Gessnerallee","adresse":"Gessnerallee 15","plz":8001,"status":"Active","datum":"20181126000020"}}
,{"type":"Feature","geometry":{"type":"Point","coordinates":[8.52036980204132,47.3586640121467]},"properties":{"id_publibike":"83","name":"Comerge","adresse":"Bubenbergstrasse 1","plz":8045,"status":"Active","datum":"20181126000020"}}
,{"type":"Feature","geometry":{"type":"Point","coordinates":[8.48628280199874,47.387685012163]},"properties":{"id_publibike":"151","name":"Lindenplatz - temporär ausser Betrieb","adresse":"Lindenplatz 1","plz":8048,"status":"Inactive","datum":"20181126000020"}}
,{"type":"Feature","geometry":{"type":"Point","coordinates":[8.54171280205154,47.3942200121484]},"properties":{"id_publibike":"275","name":"Pauluskirche","adresse":"Scheuchzerstrasse 181","plz":8057,"status":"Active (empty)","datum":"20181126000021"}}
,{"type":"Feature","geometry":{"type":"Point","coordinates":[8.53000880204663,47.372475012147]},"properties":{"id_publibike":"109","name":"Tamedia","adresse":"Werdstrasse 21","plz":8004,"status":"Active (empty)","datum":"20181126000021"}}
]}
