{"name":"Tennisplatz","type":"FeatureCollection"
,"features":[
{"type":"Feature","geometry":{"type":"Point","coordinates":[8.59533415864827,47.4056040993673]},"properties":{"adresse":"Ueberlandstrasse 489","name":"Tennisanlage Ueberlandstrasse","ort":"Zürich","plz":"8051","tel":"+41 43 321 55 94","www":"http://www.stadt-zuerich.ch/content/ssd/de/index/sport/tennisplaetze/ueberlandstrasse.html"}}
,{"type":"Feature","geometry":{"type":"Point","coordinates":[8.49747739341681,47.3965125855489]},"properties":{"adresse":"Hardhof 19","name":"Tennisanlage Hardhof","ort":"Zürich","plz":"8064","tel":"+41 44 431 07 37","www":"http://www.stadt-zuerich.ch/content/ssd/de/index/sport/tennisplaetze/hardhof.html"}}
,{"type":"Feature","geometry":{"type":"Point","coordinates":[8.47742370021207,47.3810162917985]},"properties":{"adresse":"Friedhofstrasse 89","name":"Tennisanlage Buchlern","ort":"Zürich","plz":"8048","tel":"+41 44 431 07 37","www":"http://www.stadt-zuerich.ch/content/ssd/de/index/sport/tennisplaetze/buchlern.html"}}
,{"type":"Feature","geometry":{"type":"Point","coordinates":[8.54869350721478,47.428405142285]},"properties":{"adresse":"Stiglenstrasse 60","name":"Tennisanlage Eichrain","ort":"Zürich","plz":"8052","tel":"+41 44 302 76 54","www":"http://www.stadt-zuerich.ch/content/ssd/de/index/sport/tennisplaetze/eichrain.html"}}
,{"type":"Feature","geometry":{"type":"Point","coordinates":[8.51197063691535,47.4208812672809]},"properties":{"adresse":"Fronwaldstrasse 115","name":"Tennisanlage Fronwald","ort":"Zürich","plz":"8046","tel":"+41 44 557 98 78","www":"http://www.stadt-zuerich.ch/content/ssd/de/index/sport/tennisplaetze/fronwald.html"}}
,{"type":"Feature","geometry":{"type":"Point","coordinates":[8.5709798747243,47.3500661531412]},"properties":{"adresse":"Bleulerstrasse 41","name":"Tennisanlage Lengg","ort":"Zürich","plz":"8008","tel":"+41 44 381 13 13","www":"http://www.stadt-zuerich.ch/content/ssd/de/index/sport/tennisplaetze/lengg1.html"}}
,{"type":"Feature","geometry":{"type":"Point","coordinates":[8.53377974328914,47.3522780132256]},"properties":{"adresse":"Mythenquai 200","name":"Tennisanlage Mythenquai","ort":"Zürich","plz":"8002","tel":"+41 44 413 99 00","www":"http://www.stadt-zuerich.ch/content/ssd/de/index/sport/tennisplaetze/mythenquai1.html"}}
,{"type":"Feature","geometry":{"type":"Point","coordinates":[8.50690966858258,47.354238819766]},"properties":{"adresse":"Hegianwandweg 127","name":"Tennisanlage Frauental","ort":"Zürich","plz":"8045","tel":"+41 44 461 28 63","www":"http://www.stadt-zuerich.ch/content/ssd/de/index/sport/tennisplaetze/frauental.html"}}
]}
